{"type":"FeatureCollection","features":[{"type":"Feature","id":1,"properties":{"area_atuacao":"Açude do Bêbado — Escola Agrícola de Jundiaí, Macaíba","acao":"Áreas descobertas","fonte_dado":"Áreas_descobertas","elemento":1},"geometry":{"type":"Polygon","coordinates":[[[-35.355764,-5.886832],[-35.35573,-5.886928],[-35.35575,-5.886951],[-35.355768,-5.886929],[-35.355781,-5.886851],[-35.355782,-5.886834],[-35.355764,-5.886832]]]}},{"type":"Feature","id":2,"properties":{"area_atuacao":"Açude do Bêbado — Escola Agrícola de Jundiaí, Macaíba","acao":"Áreas descobertas","fonte_dado":"Áreas_descobertas","elemento":2},"geometry":{"type":"Polygon","coordinates":[[[-35.355687,-5.886991],[-35.355688,-5.887014],[-35.355685,-5.887067],[-35.355745,-5.886982],[-35.355706,-5.88697],[-35.355687,-5.886991]]]}},{"type":"Feature","id":3,"properties":{"area_atuacao":"Açude do Bêbado — Escola Agrícola de Jundiaí, Macaíba","acao":"Áreas descobertas","fonte_dado":"Áreas_descobertas","elemento":3},"geometry":{"type":"Polygon","coordinates":[[[-35.355726,-5.887193],[-35.355777,-5.887206],[-35.355807,-5.887241],[-35.355836,-5.887137],[-35.355864,-5.887134],[-35.355886,-5.887152],[-35.355911,-5.887123],[-35.355934,-5.88717],[-35.35597,-5.887186],[-35.355981,-5.887178],[-35.355952,-5.887131],[-35.355957,-5.887096],[-35.356015,-5.887056],[-35.356138,-5.887021],[-35.356146,-5.886939],[-35.356082,-5.886936],[-35.356054,-5.887019],[-35.355927,-5.887089],[-35.35587,-5.887052],[-35.355852,-5.887066],[-35.355876,-5.887079],[-35.355872,-5.8871],[-35.355809,-5.887125],[-35.355793,-5.887163],[-35.355726,-5.887193]]]}},{"type":"Feature","id":4,"properties":{"area_atuacao":"Açude do Bêbado — Escola Agrícola de Jundiaí, Macaíba","acao":"Áreas descobertas","fonte_dado":"Áreas_descobertas","elemento":4},"geometry":{"type":"Polygon","coordinates":[[[-35.355789,-5.887009],[-35.355782,-5.887072],[-35.35584,-5.887073],[-35.35582,-5.887053],[-35.355827,-5.887011],[-35.355789,-5.887009]]]}},{"type":"Feature","id":5,"properties":{"area_atuacao":"Açude do Bêbado — Escola Agrícola de Jundiaí, Macaíba","acao":"Áreas descobertas","fonte_dado":"Áreas_descobertas","elemento":5},"geometry":{"type":"Polygon","coordinates":[[[-35.356249,-5.887007],[-35.356233,-5.887147],[-35.356308,-5.887255],[-35.35635,-5.887249],[-35.35639,-5.887193],[-35.356423,-5.887199],[-35.356458,-5.887178],[-35.35634,-5.887106],[-35.356289,-5.88702],[-35.356249,-5.887007]]]}},{"type":"Feature","id":6,"properties":{"area_atuacao":"Açude do Bêbado — Escola Agrícola de Jundiaí, Macaíba","acao":"Áreas descobertas","fonte_dado":"Áreas_descobertas","elemento":6},"geometry":{"type":"Polygon","coordinates":[[[-35.356798,-5.887035],[-35.356783,-5.887115],[-35.356743,-5.887093],[-35.356652,-5.887101],[-35.356616,-5.887086],[-35.356619,-5.887114],[-35.356659,-5.88712],[-35.356662,-5.88714],[-35.356631,-5.887159],[-35.356598,-5.887154],[-35.356577,-5.887187],[-35.356633,-5.887271],[-35.356738,-5.887336],[-35.356779,-5.887341],[-35.357041,-5.887616],[-35.357111,-5.887658],[-35.357134,-5.887698],[-35.357328,-5.887727],[-35.357323,-5.887701],[-35.35717,-5.887536],[-35.357126,-5.887561],[-35.357062,-5.887544],[-35.357062,-5.887492],[-35.357104,-5.887468],[-35.357102,-5.887448],[-35.357039,-5.887478],[-35.35701,-5.887466],[-35.357015,-5.887449],[-35.357083,-5.887415],[-35.357067,-5.887313],[-35.357073,-5.887257],[-35.357106,-5.887214],[-35.357047,-5.887185],[-35.356993,-5.887341],[-35.356935,-5.887422],[-35.356887,-5.887427],[-35.356859,-5.887385],[-35.356865,-5.887357],[-35.356789,-5.887329],[-35.356775,-5.8873],[-35.35678,-5.887173],[-35.356805,-5.887113],[-35.356834,-5.887108],[-35.356849,-5.887063],[-35.356798,-5.887035]]]}},{"type":"Feature","id":7,"properties":{"area_atuacao":"Açude do Bêbado — Escola Agrícola de Jundiaí, Macaíba","acao":"Áreas descobertas","fonte_dado":"Áreas_descobertas","elemento":7},"geometry":{"type":"Polygon","coordinates":[[[-35.357298,-5.887566],[-35.357222,-5.887484],[-35.357207,-5.887512],[-35.357382,-5.887683],[-35.357541,-5.887776],[-35.357648,-5.88786],[-35.357691,-5.887759],[-35.357784,-5.887715],[-35.357787,-5.887692],[-35.35771,-5.887678],[-35.357635,-5.887618],[-35.357514,-5.887559],[-35.357473,-5.887554],[-35.35742,-5.887603],[-35.357378,-5.88761],[-35.357357,-5.887577],[-35.357298,-5.887566]]]}},{"type":"Feature","id":8,"properties":{"area_atuacao":"Açude do Bêbado — Escola Agrícola de Jundiaí, Macaíba","acao":"Áreas descobertas","fonte_dado":"Áreas_descobertas","elemento":8},"geometry":{"type":"Polygon","coordinates":[[[-35.357199,-5.8873],[-35.357156,-5.887328],[-35.357117,-5.887295],[-35.357117,-5.887337],[-35.357178,-5.887404],[-35.357149,-5.887426],[-35.357207,-5.887513],[-35.357222,-5.887484],[-35.357196,-5.887422],[-35.357222,-5.887339],[-35.357199,-5.8873]]]}},{"type":"Feature","id":9,"properties":{"area_atuacao":"Açude do Bêbado — Escola Agrícola de Jundiaí, Macaíba","acao":"Áreas descobertas","fonte_dado":"Áreas_descobertas","elemento":9},"geometry":{"type":"Polygon","coordinates":[[[-35.355867,-5.886745],[-35.355835,-5.886758],[-35.355835,-5.886832],[-35.355899,-5.886811],[-35.355957,-5.88685],[-35.35592,-5.886797],[-35.355936,-5.886733],[-35.355888,-5.886697],[-35.35587,-5.886658],[-35.355844,-5.886649],[-35.355831,-5.886715],[-35.355867,-5.886745]],[[-35.355896,-5.886776],[-35.355851,-5.886785],[-35.355851,-5.886775],[-35.355888,-5.886755],[-35.355896,-5.886776]]]}},{"type":"Feature","id":10,"properties":{"area_atuacao":"Açude do Bêbado — Escola Agrícola de Jundiaí, Macaíba","acao":"Áreas descobertas","fonte_dado":"Áreas_descobertas","elemento":10},"geometry":{"type":"Polygon","coordinates":[[[-35.35637,-5.888786],[-35.356144,-5.888988],[-35.356008,-5.889092],[-35.356337,-5.889019],[-35.356323,-5.888984],[-35.356365,-5.888961],[-35.356408,-5.888964],[-35.356418,-5.889021],[-35.356495,-5.889014],[-35.356488,-5.888935],[-35.356366,-5.888917],[-35.35636,-5.888854],[-35.356383,-5.888819],[-35.35637,-5.888786]]]}}]}