{"type":"FeatureCollection","features":[{"type":"Feature","id":1,"properties":{"grupo":"Áreas Antrópicas Não Agrícolas","classe":"Áreas Urbanizadas","fonte":"Mapeamento manual por interepretação de satélit"},"geometry":{"type":"MultiPolygon","coordinates":[[[[-35.763567,-6.171026],[-35.761681,-6.17351],[-35.758998,-6.178584],[-35.7595,-6.178881],[-35.760947,-6.178999],[-35.762868,-6.174401],[-35.76495,-6.175035],[-35.766375,-6.17345],[-35.763567,-6.171026]]],[[[-35.764122,-6.149722],[-35.764315,-6.150161],[-35.765612,-6.149676],[-35.766148,-6.149941],[-35.766532,-6.150188],[-35.767228,-6.151714],[-35.767704,-6.15154],[-35.767301,-6.150375],[-35.770046,-6.149787],[-35.773866,-6.149519],[-35.77348,-6.148813],[-35.76668,-6.149345],[-35.766197,-6.148353],[-35.765434,-6.148529],[-35.765456,-6.149141],[-35.764122,-6.149722]]],[[[-35.925199,-6.124831],[-35.924374,-6.125602],[-35.92438,-6.125869],[-35.926514,-6.127788],[-35.927131,-6.127105],[-35.926694,-6.125731],[-35.926206,-6.125215],[-35.925824,-6.125592],[-35.925199,-6.124831]]],[[[-35.751547,-6.118591],[-35.750937,-6.118785],[-35.750308,-6.117501],[-35.749122,-6.117182],[-35.748446,-6.115988],[-35.747755,-6.115859],[-35.747561,-6.116258],[-35.746893,-6.116329],[-35.746134,-6.116103],[-35.745792,-6.115707],[-35.745879,-6.115094],[-35.745279,-6.114644],[-35.744676,-6.116426],[-35.745959,-6.11686],[-35.746072,-6.116668],[-35.746513,-6.116895],[-35.746588,-6.116665],[-35.748024,-6.117117],[-35.748816,-6.118758],[-35.749275,-6.118832],[-35.749565,-6.119481],[-35.750347,-6.119247],[-35.751462,-6.120676],[-35.752014,-6.120214],[-35.751399,-6.11949],[-35.751339,-6.118898],[-35.751644,-6.11882],[-35.751547,-6.118591]]],[[[-35.91305,-6.11014],[-35.913982,-6.1113],[-35.914521,-6.111596],[-35.914264,-6.113869],[-35.917374,-6.114688],[-35.917635,-6.113283],[-35.915423,-6.112757],[-35.915627,-6.111859],[-35.917001,-6.112091],[-35.916878,-6.111374],[-35.915384,-6.111084],[-35.91532,-6.110277],[-35.91711,-6.110209],[-35.91608,-6.109504],[-35.914957,-6.109532],[-35.914326,-6.108157],[-35.913313,-6.106831],[-35.913367,-6.106214],[-35.913915,-6.105577],[-35.91317,-6.104791],[-35.912184,-6.104497],[-35.912238,-6.103481],[-35.909392,-6.102825],[-35.908506,-6.103412],[-35.906952,-6.103181],[-35.906657,-6.103661],[-35.903848,-6.103138],[-35.903584,-6.104066],[-35.903973,-6.104183],[-35.904277,-6.105257],[-35.905082,-6.105133],[-35.906041,-6.105815],[-35.90646,-6.105873],[-35.906696,-6.105453],[-35.907982,-6.105954],[-35.908157,-6.105147],[-35.909831,-6.105556],[-35.910393,-6.110125],[-35.91305,-6.11014]]],[[[-35.956095,-6.088826],[-35.956103,-6.0902],[-35.954699,-6.090059],[-35.95434,-6.089822],[-35.954044,-6.090421],[-35.954502,-6.092151],[-35.959962,-6.091793],[-35.960292,-6.092],[-35.960947,-6.091757],[-35.961248,-6.092174],[-35.964262,-6.092038],[-35.963199,-6.088727],[-35.961768,-6.089094],[-35.960181,-6.088236],[-35.959676,-6.088537],[-35.957019,-6.088612],[-35.956095,-6.088826]]],[[[-35.734372,-6.068461],[-35.734722,-6.069484],[-35.734918,-6.069399],[-35.735975,-6.071168],[-35.739328,-6.069852],[-35.737856,-6.066015],[-35.73549,-6.066696],[-35.735897,-6.067746],[-35.734372,-6.068461]]],[[[-35.805097,-6.056073],[-35.805412,-6.057869],[-35.808618,-6.057145],[-35.807776,-6.053248],[-35.803827,-6.054377],[-35.804445,-6.055675],[-35.805097,-6.056073]]],[[[-36.354281,-6.053926],[-36.354697,-6.053725],[-36.355898,-6.054196],[-36.355898,-6.053926],[-36.356167,-6.053926],[-36.356076,-6.052939],[-36.355421,-6.052187],[-36.355628,-6.05177],[-36.355359,-6.05177],[-36.355189,-6.051384],[-36.355359,-6.050692],[-36.354119,-6.049666],[-36.354011,-6.048806],[-36.35334,-6.048472],[-36.352711,-6.04878],[-36.352304,-6.04818],[-36.352664,-6.047997],[-36.352664,-6.047728],[-36.352933,-6.047728],[-36.352933,-6.04692],[-36.353472,-6.04692],[-36.353472,-6.04665],[-36.353203,-6.04665],[-36.353203,-6.046111],[-36.350786,-6.045576],[-36.350422,-6.046047],[-36.348352,-6.045842],[-36.348352,-6.045303],[-36.347933,-6.045091],[-36.347695,-6.043803],[-36.346339,-6.042396],[-36.346456,-6.041528],[-36.345387,-6.04126],[-36.345387,-6.040991],[-36.344579,-6.040991],[-36.344684,-6.041424],[-36.345238,-6.041779],[-36.345598,-6.042801],[-36.346293,-6.043817],[-36.345666,-6.044219],[-36.345666,-6.044771],[-36.346043,-6.045084],[-36.345186,-6.047324],[-36.345387,-6.047728],[-36.346357,-6.047244],[-36.348791,-6.049204],[-36.349835,-6.048667],[-36.350238,-6.048806],[-36.350777,-6.05015],[-36.351316,-6.050423],[-36.351612,-6.050053],[-36.352125,-6.050692],[-36.351975,-6.051099],[-36.352275,-6.051636],[-36.35173,-6.052612],[-36.352694,-6.054321],[-36.353079,-6.0538],[-36.353015,-6.052999],[-36.354281,-6.053926]]],[[[-35.784234,-6.043168],[-35.784994,-6.039937],[-35.782274,-6.039226],[-35.781832,-6.039385],[-35.781235,-6.040554],[-35.780449,-6.040386],[-35.780142,-6.04129],[-35.779218,-6.041682],[-35.779106,-6.042531],[-35.784234,-6.043168]]],[[[-35.779323,-6.040145],[-35.779102,-6.041146],[-35.779746,-6.040907],[-35.779912,-6.040271],[-35.779323,-6.040145]]],[[[-35.729794,-6.042423],[-35.737907,-6.041127],[-35.737596,-6.038558],[-35.733537,-6.038758],[-35.729296,-6.03848],[-35.729794,-6.042423]]],[[[-36.349981,-6.040182],[-36.349969,-6.040182],[-36.349981,-6.040187],[-36.349981,-6.040182]]],[[[-36.348621,-6.04126],[-36.349167,-6.041527],[-36.349835,-6.041425],[-36.350508,-6.04126],[-36.351047,-6.040721],[-36.349933,-6.03879],[-36.34943,-6.039374],[-36.34986,-6.039585],[-36.349981,-6.040182],[-36.350326,-6.040317],[-36.349655,-6.040906],[-36.348621,-6.040991],[-36.348621,-6.04126]]],[[[-36.345116,-6.038302],[-36.345127,-6.038297],[-36.345118,-6.038296],[-36.345116,-6.038302]]],[[[-36.345927,-6.037226],[-36.345387,-6.036409],[-36.345118,-6.036409],[-36.345118,-6.036679],[-36.344848,-6.036679],[-36.344993,-6.037597],[-36.345927,-6.037226]]],[[[-35.815532,-6.034874],[-35.818208,-6.036897],[-35.820026,-6.039326],[-35.8215,-6.038758],[-35.821692,-6.03829],[-35.821264,-6.037799],[-35.822092,-6.037092],[-35.81936,-6.035242],[-35.817271,-6.033015],[-35.815532,-6.034874]]],[[[-36.345611,-6.040237],[-36.346573,-6.040882],[-36.346773,-6.040149],[-36.347543,-6.040452],[-36.347749,-6.039961],[-36.3476,-6.039295],[-36.348082,-6.038565],[-36.347456,-6.038222],[-36.347813,-6.038026],[-36.347813,-6.037487],[-36.348082,-6.037487],[-36.3483,-6.037057],[-36.349781,-6.036621],[-36.349348,-6.035658],[-36.349969,-6.035331],[-36.350103,-6.034986],[-36.350238,-6.035331],[-36.350508,-6.035331],[-36.350657,-6.034924],[-36.350053,-6.034072],[-36.350092,-6.032764],[-36.350389,-6.032232],[-36.349699,-6.031019],[-36.34943,-6.031019],[-36.349699,-6.029672],[-36.348991,-6.029287],[-36.349058,-6.028986],[-36.348621,-6.028324],[-36.348352,-6.028324],[-36.348352,-6.028057],[-36.347401,-6.028211],[-36.347004,-6.028055],[-36.347004,-6.028594],[-36.346747,-6.028594],[-36.346529,-6.029244],[-36.345926,-6.028594],[-36.345926,-6.027785],[-36.346465,-6.027785],[-36.346735,-6.027246],[-36.346465,-6.026168],[-36.346196,-6.026168],[-36.346196,-6.025899],[-36.34527,-6.02686],[-36.344309,-6.027246],[-36.34404,-6.028863],[-36.34377,-6.028863],[-36.344858,-6.030748],[-36.344321,-6.031019],[-36.344321,-6.031828],[-36.34404,-6.031828],[-36.34404,-6.032097],[-36.343501,-6.032097],[-36.343501,-6.033175],[-36.34435,-6.033644],[-36.344848,-6.036409],[-36.345118,-6.036409],[-36.345118,-6.03614],[-36.345657,-6.03614],[-36.345757,-6.035816],[-36.346061,-6.036155],[-36.346365,-6.035816],[-36.346734,-6.036347],[-36.346283,-6.038487],[-36.345129,-6.038298],[-36.344962,-6.038981],[-36.345611,-6.040237]],[[-36.34916,-6.032636],[-36.349489,-6.032729],[-36.349253,-6.032965],[-36.34916,-6.032636]],[[-36.348778,-6.032269],[-36.34973,-6.031696],[-36.34916,-6.032636],[-36.348778,-6.032269]]],[[[-36.344321,-6.031013],[-36.344309,-6.031019],[-36.344321,-6.031019],[-36.344321,-6.031013]]],[[[-36.3675,-6.02347],[-36.367492,-6.023472],[-36.367498,-6.023473],[-36.3675,-6.02347]]],[[[-36.368564,-6.022126],[-36.368025,-6.021318],[-36.367536,-6.021655],[-36.368025,-6.022395],[-36.368294,-6.022395],[-36.368686,-6.023169],[-36.367498,-6.023473],[-36.367286,-6.023892],[-36.366241,-6.024103],[-36.365869,-6.024282],[-36.365869,-6.024551],[-36.365599,-6.024551],[-36.366113,-6.025295],[-36.368892,-6.02421],[-36.369112,-6.024547],[-36.369638,-6.024281],[-36.369421,-6.023837],[-36.370973,-6.023468],[-36.370663,-6.022777],[-36.370064,-6.022462],[-36.36943,-6.022747],[-36.369103,-6.022126],[-36.368564,-6.022126]]],[[[-35.868532,-6.002056],[-35.86778,-6.002167],[-35.868648,-6.003776],[-35.869903,-6.003949],[-35.869773,-6.006639],[-35.870115,-6.006901],[-35.872093,-6.006318],[-35.873748,-6.00499],[-35.872596,-6.003887],[-35.872284,-6.00276],[-35.874913,-6.001389],[-35.874146,-5.99938],[-35.871547,-5.999005],[-35.871545,-5.998557],[-35.870589,-5.998412],[-35.870616,-5.997845],[-35.870167,-5.997757],[-35.86989,-5.995996],[-35.867498,-5.996252],[-35.867838,-5.999478],[-35.868532,-6.002056]]],[[[-35.832133,-5.987784],[-35.834245,-5.98482],[-35.833185,-5.984054],[-35.830494,-5.983516],[-35.830165,-5.983969],[-35.832133,-5.987784]]],[[[-35.841583,-5.976047],[-35.842544,-5.974966],[-35.841394,-5.974148],[-35.843901,-5.970292],[-35.841025,-5.96812],[-35.834454,-5.978804],[-35.83173,-5.982738],[-35.832635,-5.982987],[-35.834458,-5.98436],[-35.840612,-5.975299],[-35.841583,-5.976047]],[[-35.834592,-5.980382],[-35.833517,-5.983244],[-35.832544,-5.982812],[-35.833714,-5.981175],[-35.834592,-5.980382]]],[[[-36.076971,-5.978468],[-36.077958,-5.978558],[-36.079212,-5.979182],[-36.079396,-5.979546],[-36.080355,-5.979792],[-36.080744,-5.980354],[-36.081444,-5.980137],[-36.081552,-5.979007],[-36.081052,-5.978699],[-36.080542,-5.977872],[-36.080864,-5.976839],[-36.081616,-5.976376],[-36.082023,-5.975716],[-36.081837,-5.975121],[-36.082091,-5.974964],[-36.082091,-5.972808],[-36.082361,-5.972808],[-36.082529,-5.972124],[-36.081991,-5.971289],[-36.072061,-5.970261],[-36.071503,-5.971154],[-36.072288,-5.971418],[-36.07227,-5.971762],[-36.071634,-5.972232],[-36.071758,-5.972327],[-36.070872,-5.972733],[-36.071075,-5.972931],[-36.070515,-5.973347],[-36.070503,-5.973617],[-36.070233,-5.973617],[-36.070233,-5.974156],[-36.070904,-5.975084],[-36.069708,-5.97658],[-36.071757,-5.975945],[-36.072413,-5.977096],[-36.073392,-5.977655],[-36.074339,-5.977298],[-36.075084,-5.978198],[-36.076426,-5.978381],[-36.076701,-5.978737],[-36.076971,-5.978737],[-36.076971,-5.978468]]],[[[-35.926789,-5.948933],[-35.92765,-5.948279],[-35.927448,-5.9474],[-35.927754,-5.947308],[-35.927099,-5.946637],[-35.927164,-5.945521],[-35.926622,-5.944524],[-35.927216,-5.944646],[-35.92774,-5.94135],[-35.925948,-5.941145],[-35.925796,-5.943942],[-35.924937,-5.944043],[-35.924821,-5.944712],[-35.921706,-5.942601],[-35.921326,-5.94301],[-35.925114,-5.945954],[-35.924701,-5.951889],[-35.928453,-5.952313],[-35.92947,-5.950751],[-35.934398,-5.950725],[-35.93422,-5.94975],[-35.932552,-5.948382],[-35.93301,-5.947825],[-35.930722,-5.9476],[-35.929404,-5.949087],[-35.928652,-5.949047],[-35.927674,-5.949706],[-35.927491,-5.949346],[-35.926895,-5.949468],[-35.926789,-5.948933]]],[[[-35.745835,-5.944338],[-35.745859,-5.945256],[-35.747958,-5.944959],[-35.748138,-5.942682],[-35.746763,-5.942631],[-35.746637,-5.944277],[-35.745835,-5.944338]]],[[[-35.758127,-5.910993],[-35.760013,-5.909759],[-35.760456,-5.908782],[-35.757477,-5.905067],[-35.755038,-5.904314],[-35.753126,-5.9136],[-35.757237,-5.91444],[-35.758127,-5.910993]]],[[[-35.83596,-5.906342],[-35.835712,-5.906382],[-35.835548,-5.905991],[-35.835339,-5.906202],[-35.835398,-5.906632],[-35.836106,-5.90681],[-35.836782,-5.906443],[-35.837399,-5.903782],[-35.83714,-5.903688],[-35.836499,-5.905355],[-35.83646,-5.905135],[-35.836202,-5.905136],[-35.83596,-5.906342]]],[[[-35.761632,-5.894059],[-35.758752,-5.898251],[-35.756375,-5.900367],[-35.757722,-5.902368],[-35.758152,-5.902462],[-35.758111,-5.903753],[-35.759588,-5.903124],[-35.761218,-5.904311],[-35.761797,-5.905552],[-35.7637,-5.904203],[-35.762678,-5.900288],[-35.762805,-5.896988],[-35.763089,-5.89646],[-35.765241,-5.897215],[-35.766197,-5.897258],[-35.766623,-5.896491],[-35.767674,-5.896772],[-35.766779,-5.89912],[-35.766977,-5.900553],[-35.768267,-5.90069],[-35.770028,-5.89963],[-35.770996,-5.902231],[-35.771622,-5.903232],[-35.77222,-5.903372],[-35.772066,-5.906098],[-35.772376,-5.906073],[-35.773396,-5.904586],[-35.773462,-5.903581],[-35.773962,-5.903172],[-35.773983,-5.902718],[-35.774608,-5.90348],[-35.775489,-5.902925],[-35.775929,-5.900341],[-35.778061,-5.900684],[-35.779054,-5.896376],[-35.77751,-5.895625],[-35.776905,-5.897548],[-35.774917,-5.89708],[-35.773691,-5.901476],[-35.773209,-5.900642],[-35.772346,-5.899905],[-35.772478,-5.897609],[-35.771807,-5.897182],[-35.771934,-5.896139],[-35.771632,-5.89501],[-35.771147,-5.894685],[-35.770276,-5.896568],[-35.770012,-5.896354],[-35.770342,-5.895396],[-35.769219,-5.894479],[-35.769396,-5.892365],[-35.769043,-5.891485],[-35.765131,-5.889927],[-35.763877,-5.889754],[-35.762367,-5.890439],[-35.76187,-5.891374],[-35.762299,-5.891348],[-35.762301,-5.891659],[-35.761849,-5.891972],[-35.761899,-5.892498],[-35.76152,-5.893145],[-35.76085,-5.892766],[-35.76089,-5.891259],[-35.761267,-5.890206],[-35.761333,-5.889082],[-35.761719,-5.889869],[-35.763004,-5.888882],[-35.763013,-5.886061],[-35.764144,-5.880491],[-35.763068,-5.880281],[-35.763136,-5.879456],[-35.763955,-5.878519],[-35.764549,-5.875576],[-35.762291,-5.875192],[-35.759766,-5.885963],[-35.756463,-5.89161],[-35.756183,-5.892938],[-35.755542,-5.89373],[-35.754542,-5.894094],[-35.753866,-5.895066],[-35.754622,-5.895923],[-35.754161,-5.896893],[-35.753909,-5.896608],[-35.753521,-5.897829],[-35.75445,-5.89725],[-35.755309,-5.897282],[-35.756584,-5.894407],[-35.757696,-5.894616],[-35.758379,-5.895258],[-35.760592,-5.893598],[-35.761632,-5.894059]]],[[[-35.941014,-5.886796],[-35.941224,-5.885755],[-35.938346,-5.883297],[-35.936915,-5.883591],[-35.93608,-5.881265],[-35.937144,-5.879359],[-35.939009,-5.877652],[-35.937571,-5.876655],[-35.935138,-5.877003],[-35.934323,-5.876338],[-35.932223,-5.87654],[-35.930182,-5.878798],[-35.931382,-5.879939],[-35.932106,-5.881513],[-35.931394,-5.882329],[-35.933501,-5.88337],[-35.934834,-5.882741],[-35.934838,-5.883506],[-35.936086,-5.884743],[-35.935471,-5.885846],[-35.937004,-5.886794],[-35.93767,-5.890902],[-35.938744,-5.890536],[-35.93841,-5.890053],[-35.940117,-5.889491],[-35.940271,-5.888486],[-35.939731,-5.887915],[-35.940376,-5.887911],[-35.941014,-5.886796]]],[[[-35.763971,-5.868802],[-35.765763,-5.869044],[-35.766188,-5.868074],[-35.765435,-5.86797],[-35.765893,-5.866282],[-35.764423,-5.866074],[-35.763971,-5.868802]]],[[[-35.776856,-5.864842],[-35.779744,-5.863701],[-35.783826,-5.862088],[-35.783435,-5.861462],[-35.776673,-5.864066],[-35.776856,-5.864842]]],[[[-35.858984,-5.85755],[-35.859354,-5.857536],[-35.859454,-5.856923],[-35.859039,-5.856035],[-35.856552,-5.855698],[-35.856336,-5.857802],[-35.858891,-5.85804],[-35.858984,-5.85755]]],[[[-35.719649,-5.839339],[-35.71964,-5.837545],[-35.719205,-5.836352],[-35.714506,-5.837236],[-35.714605,-5.838],[-35.719649,-5.839339]]],[[[-35.821523,-5.807564],[-35.819952,-5.808408],[-35.821309,-5.817343],[-35.822598,-5.817288],[-35.823226,-5.81872],[-35.824944,-5.81852],[-35.825959,-5.816244],[-35.825383,-5.81082],[-35.823631,-5.799521],[-35.822463,-5.799861],[-35.822566,-5.801319],[-35.821135,-5.801493],[-35.82106,-5.800944],[-35.820416,-5.801019],[-35.821523,-5.807564]]],[[[-35.826494,-5.788312],[-35.826644,-5.789745],[-35.828005,-5.789691],[-35.828009,-5.790503],[-35.829774,-5.79028],[-35.829141,-5.787772],[-35.829109,-5.786171],[-35.825413,-5.786883],[-35.825873,-5.788291],[-35.826494,-5.788312]]],[[[-35.784911,-5.764312],[-35.785388,-5.768039],[-35.789166,-5.7676],[-35.788691,-5.764026],[-35.784911,-5.764312]]],[[[-35.709605,-6.108079],[-35.71217,-6.111136],[-35.715452,-6.113108],[-35.716826,-6.114397],[-35.71861,-6.112997],[-35.716696,-6.106067],[-35.715772,-6.104107],[-35.715817,-6.103107],[-35.716893,-6.098728],[-35.714462,-6.096049],[-35.712099,-6.097423],[-35.710487,-6.094804],[-35.707595,-6.095756],[-35.708822,-6.100621],[-35.709461,-6.101625],[-35.708827,-6.102542],[-35.70783,-6.102323],[-35.707158,-6.101705],[-35.705786,-6.10195],[-35.706003,-6.102265],[-35.706792,-6.102433],[-35.707311,-6.102904],[-35.707297,-6.103477],[-35.706018,-6.104258],[-35.704522,-6.103033],[-35.703994,-6.103413],[-35.704592,-6.10544],[-35.70739,-6.10903],[-35.709605,-6.108079]]],[[[-35.703092,-6.104063],[-35.703912,-6.104816],[-35.703627,-6.103822],[-35.703554,-6.10373],[-35.703092,-6.104063]]],[[[-35.701204,-6.037728],[-35.698157,-6.037444],[-35.695513,-6.033871],[-35.694202,-6.034415],[-35.693303,-6.033762],[-35.691815,-6.034666],[-35.691263,-6.035417],[-35.69021,-6.036109],[-35.687513,-6.03409],[-35.685032,-6.036073],[-35.68703,-6.038397],[-35.686031,-6.039638],[-35.684083,-6.041752],[-35.673592,-6.047618],[-35.673971,-6.048891],[-35.685784,-6.041148],[-35.692792,-6.039084],[-35.693095,-6.040039],[-35.693997,-6.04135],[-35.702221,-6.038081],[-35.701204,-6.037728]]],[[[-35.575122,-6.028392],[-35.575259,-6.027172],[-35.574754,-6.026386],[-35.573605,-6.025817],[-35.572893,-6.026753],[-35.573763,-6.028901],[-35.574123,-6.029258],[-35.575122,-6.028392]]],[[[-35.527581,-6.018321],[-35.527519,-6.017843],[-35.528472,-6.01736],[-35.528955,-6.018434],[-35.530026,-6.017772],[-35.530566,-6.018307],[-35.531311,-6.017786],[-35.530622,-6.01753],[-35.529962,-6.016756],[-35.530438,-6.016395],[-35.529898,-6.01574],[-35.526261,-6.017131],[-35.526011,-6.014622],[-35.523863,-6.01505],[-35.524287,-6.016244],[-35.522856,-6.016669],[-35.522918,-6.017147],[-35.522382,-6.017448],[-35.523077,-6.019259],[-35.523191,-6.017944],[-35.523969,-6.018299],[-35.523813,-6.017023],[-35.524827,-6.016779],[-35.525008,-6.017317],[-35.524653,-6.017916],[-35.524689,-6.019132],[-35.525227,-6.019249],[-35.524931,-6.019789],[-35.525877,-6.019819],[-35.526209,-6.018686],[-35.527045,-6.018682],[-35.527581,-6.018321]]],[[[-35.540556,-6.009174],[-35.542711,-6.009328],[-35.541819,-6.005145],[-35.54012,-6.00541],[-35.540556,-6.009174]]],[[[-35.528203,-6.001151],[-35.528919,-6.0011],[-35.529398,-6.001385],[-35.529786,-6.002579],[-35.530216,-6.002577],[-35.530835,-6.002144],[-35.531218,-6.002429],[-35.531455,-6.001997],[-35.530688,-6.001522],[-35.529869,-5.999948],[-35.528627,-6.000002],[-35.528147,-5.999526],[-35.528191,-5.998569],[-35.52733,-5.998429],[-35.526711,-5.998911],[-35.526571,-5.999533],[-35.528203,-6.001151]]],[[[-35.514819,-5.999348],[-35.514626,-5.999014],[-35.511621,-5.999936],[-35.511958,-6.000557],[-35.514868,-5.99973],[-35.514819,-5.999348]]],[[[-35.531958,-5.997165],[-35.532575,-5.996301],[-35.531951,-5.99573],[-35.531754,-5.994248],[-35.530652,-5.993679],[-35.529079,-5.994404],[-35.528747,-5.994932],[-35.527838,-5.994649],[-35.527027,-5.994796],[-35.526366,-5.996425],[-35.524509,-5.997773],[-35.524173,-5.997344],[-35.524083,-5.998588],[-35.525656,-5.997815],[-35.527797,-5.995988],[-35.528798,-5.995601],[-35.529515,-5.995598],[-35.530091,-5.99636],[-35.530762,-5.996692],[-35.530335,-5.997316],[-35.530909,-5.997552],[-35.531958,-5.997165]]],[[[-35.714077,-5.996126],[-35.716927,-5.993004],[-35.715369,-5.991756],[-35.714418,-5.992658],[-35.712923,-5.992067],[-35.710378,-5.996742],[-35.714077,-5.996126]]],[[[-35.578563,-5.992272],[-35.578745,-5.992773],[-35.580068,-5.992265],[-35.580427,-5.992514],[-35.580107,-5.992946],[-35.58566,-5.992956],[-35.585662,-5.993458],[-35.591072,-5.993504],[-35.591062,-5.991424],[-35.591564,-5.991386],[-35.59144,-5.987943],[-35.590507,-5.987732],[-35.590541,-5.987338],[-35.591115,-5.987335],[-35.591073,-5.986152],[-35.590751,-5.986153],[-35.590747,-5.985436],[-35.590246,-5.985474],[-35.590527,-5.984217],[-35.590169,-5.984255],[-35.590021,-5.983251],[-35.587155,-5.983301],[-35.587228,-5.983623],[-35.586691,-5.983626],[-35.58669,-5.983375],[-35.586188,-5.983413],[-35.58615,-5.982803],[-35.584251,-5.982812],[-35.584025,-5.980518],[-35.583662,-5.979515],[-35.581796,-5.978879],[-35.581329,-5.978486],[-35.581657,-5.979812],[-35.582234,-5.980455],[-35.582166,-5.981316],[-35.581164,-5.981607],[-35.580374,-5.981145],[-35.579374,-5.981867],[-35.579488,-5.983122],[-35.57881,-5.983663],[-35.57935,-5.984414],[-35.580104,-5.984697],[-35.579928,-5.985415],[-35.578138,-5.985603],[-35.578001,-5.986966],[-35.575957,-5.986546],[-35.575755,-5.98938],[-35.578693,-5.989438],[-35.579171,-5.992054],[-35.578563,-5.992272]],[[-35.581571,-5.984331],[-35.582219,-5.984902],[-35.581326,-5.985552],[-35.580497,-5.984516],[-35.581033,-5.98419],[-35.581571,-5.984331]],[[-35.588901,-5.988888],[-35.589193,-5.990106],[-35.589016,-5.990609],[-35.588481,-5.99097],[-35.587334,-5.990832],[-35.587081,-5.990403],[-35.586826,-5.989507],[-35.587179,-5.988358],[-35.587716,-5.98832],[-35.588901,-5.988888]]],[[[-35.542897,-5.928958],[-35.544564,-5.927934],[-35.543905,-5.927518],[-35.542118,-5.928304],[-35.540858,-5.927114],[-35.540675,-5.926099],[-35.540316,-5.92604],[-35.540669,-5.924843],[-35.539233,-5.924192],[-35.538223,-5.925333],[-35.537855,-5.923063],[-35.537082,-5.923724],[-35.537264,-5.9245],[-35.535059,-5.925287],[-35.535062,-5.925881],[-35.536086,-5.927853],[-35.537758,-5.927965],[-35.537344,-5.928864],[-35.537768,-5.930297],[-35.540354,-5.92842],[-35.544247,-5.932123],[-35.54339,-5.932701],[-35.542051,-5.932265],[-35.542533,-5.933279],[-35.544686,-5.934046],[-35.546717,-5.934336],[-35.549276,-5.932471],[-35.548796,-5.931875],[-35.549742,-5.930018],[-35.547407,-5.928594],[-35.543616,-5.929552],[-35.542897,-5.928958]]],[[[-35.588319,-5.919235],[-35.587599,-5.91864],[-35.587938,-5.914514],[-35.587342,-5.914636],[-35.587048,-5.915654],[-35.586153,-5.915658],[-35.58722,-5.914039],[-35.584773,-5.91417],[-35.584591,-5.913573],[-35.583516,-5.913518],[-35.582683,-5.91412],[-35.58458,-5.914877],[-35.585162,-5.916883],[-35.585093,-5.917314],[-35.583666,-5.91854],[-35.583742,-5.919544],[-35.583317,-5.920694],[-35.581251,-5.923142],[-35.579427,-5.923996],[-35.578251,-5.92495],[-35.580829,-5.924866],[-35.583968,-5.92191],[-35.586025,-5.917525],[-35.586597,-5.917379],[-35.586747,-5.918669],[-35.58632,-5.919317],[-35.586826,-5.920319],[-35.588319,-5.919235]]],[[[-35.712592,-5.914968],[-35.711698,-5.913653],[-35.711088,-5.911949],[-35.710673,-5.91208],[-35.710022,-5.910921],[-35.709421,-5.91101],[-35.710447,-5.912841],[-35.711029,-5.914588],[-35.710571,-5.914763],[-35.708994,-5.914469],[-35.708429,-5.913195],[-35.707928,-5.913341],[-35.70816,-5.913971],[-35.705721,-5.913108],[-35.705145,-5.912609],[-35.704099,-5.912585],[-35.703986,-5.912815],[-35.702393,-5.912278],[-35.702291,-5.911891],[-35.701502,-5.911651],[-35.701331,-5.911838],[-35.700943,-5.911682],[-35.700927,-5.911295],[-35.699779,-5.910885],[-35.698545,-5.910575],[-35.69809,-5.911237],[-35.702281,-5.912823],[-35.70267,-5.91318],[-35.702515,-5.913798],[-35.703089,-5.913982],[-35.703881,-5.914767],[-35.704311,-5.914836],[-35.704308,-5.914191],[-35.70478,-5.914059],[-35.704782,-5.914547],[-35.708593,-5.914725],[-35.710842,-5.91602],[-35.71166,-5.916246],[-35.711943,-5.915599],[-35.712784,-5.915632],[-35.712592,-5.914968]]],[[[-35.698018,-5.911013],[-35.698072,-5.909889],[-35.696769,-5.909536],[-35.696297,-5.910639],[-35.696572,-5.910697],[-35.696642,-5.910493],[-35.698018,-5.911013]]],[[[-35.691601,-5.909368],[-35.692606,-5.909769],[-35.693053,-5.908512],[-35.691929,-5.908063],[-35.691601,-5.909368]]],[[[-35.689449,-5.903784],[-35.688839,-5.903607],[-35.687718,-5.90629],[-35.688398,-5.906299],[-35.689449,-5.903784]]],[[[-35.627567,-5.896333],[-35.627706,-5.895436],[-35.627524,-5.894971],[-35.628165,-5.894215],[-35.627415,-5.894577],[-35.626817,-5.896947],[-35.625349,-5.897097],[-35.625316,-5.897528],[-35.626176,-5.897631],[-35.625612,-5.899535],[-35.626081,-5.90025],[-35.62633,-5.899962],[-35.626834,-5.900461],[-35.62673,-5.901215],[-35.627053,-5.901393],[-35.627655,-5.899884],[-35.628975,-5.898837],[-35.629043,-5.898084],[-35.629506,-5.897472],[-35.630071,-5.895676],[-35.628605,-5.896221],[-35.628532,-5.895899],[-35.627567,-5.896333]]],[[[-35.634665,-5.900014],[-35.635475,-5.899772],[-35.636236,-5.899003],[-35.639245,-5.899077],[-35.640318,-5.893723],[-35.640649,-5.892957],[-35.640165,-5.891763],[-35.639065,-5.891338],[-35.637891,-5.8956],[-35.637315,-5.894981],[-35.635837,-5.895466],[-35.635928,-5.894461],[-35.635304,-5.893795],[-35.634349,-5.893751],[-35.632936,-5.894619],[-35.633015,-5.895696],[-35.632507,-5.895808],[-35.632215,-5.898801],[-35.633276,-5.899232],[-35.632518,-5.902314],[-35.633506,-5.902357],[-35.633644,-5.904234],[-35.633911,-5.902218],[-35.634665,-5.900014]]],[[[-35.640266,-5.882634],[-35.640489,-5.881504],[-35.640316,-5.881275],[-35.639591,-5.881413],[-35.639366,-5.882198],[-35.639543,-5.883326],[-35.640041,-5.883572],[-35.639969,-5.884491],[-35.63934,-5.885209],[-35.640366,-5.885428],[-35.640653,-5.883698],[-35.640553,-5.882766],[-35.640266,-5.882634]]],[[[-35.599613,-5.864442],[-35.600094,-5.865157],[-35.600571,-5.865155],[-35.601161,-5.863729],[-35.601747,-5.861216],[-35.601388,-5.861098],[-35.599246,-5.861739],[-35.598777,-5.863922],[-35.599613,-5.864442]]],[[[-35.621318,-5.859511],[-35.623524,-5.858903],[-35.621555,-5.868224],[-35.621887,-5.868333],[-35.624239,-5.85872],[-35.625074,-5.858477],[-35.625788,-5.857936],[-35.626745,-5.858409],[-35.62663,-5.859307],[-35.62926,-5.860071],[-35.629028,-5.861507],[-35.629689,-5.86258],[-35.630639,-5.863438],[-35.630222,-5.857767],[-35.629126,-5.856904],[-35.627126,-5.856133],[-35.627108,-5.856994],[-35.626185,-5.857412],[-35.625705,-5.85724],[-35.6253,-5.856665],[-35.624211,-5.856539],[-35.623537,-5.855828],[-35.622443,-5.857593],[-35.621431,-5.858195],[-35.621307,-5.85712],[-35.620296,-5.857902],[-35.620238,-5.85838],[-35.61982,-5.858382],[-35.619818,-5.857784],[-35.618982,-5.857728],[-35.618746,-5.858387],[-35.617847,-5.857614],[-35.616715,-5.857978],[-35.61648,-5.858816],[-35.616841,-5.859532],[-35.619531,-5.860296],[-35.621257,-5.859212],[-35.621318,-5.859511]]],[[[-35.689941,-5.839848],[-35.690468,-5.840324],[-35.690282,-5.841377],[-35.689373,-5.840999],[-35.688852,-5.841766],[-35.688041,-5.841866],[-35.68795,-5.84287],[-35.6901,-5.843243],[-35.690392,-5.844389],[-35.690065,-5.845777],[-35.690402,-5.846445],[-35.690929,-5.846682],[-35.692168,-5.84615],[-35.692832,-5.845238],[-35.694167,-5.844992],[-35.695164,-5.843744],[-35.695392,-5.841496],[-35.697725,-5.839954],[-35.697475,-5.83766],[-35.697849,-5.835937],[-35.697743,-5.833929],[-35.696067,-5.832885],[-35.694347,-5.832702],[-35.694113,-5.833564],[-35.691964,-5.833527],[-35.692022,-5.835774],[-35.692648,-5.836823],[-35.692606,-5.837971],[-35.689929,-5.837266],[-35.689968,-5.835544],[-35.688434,-5.834309],[-35.687527,-5.834265],[-35.687299,-5.836657],[-35.688212,-5.837848],[-35.687641,-5.838233],[-35.687748,-5.840528],[-35.688749,-5.840332],[-35.688793,-5.839423],[-35.689941,-5.839848]]],[[[-35.551103,-5.822382],[-35.550564,-5.822086],[-35.550332,-5.823522],[-35.547474,-5.825149],[-35.547536,-5.825627],[-35.550513,-5.823999],[-35.553559,-5.824284],[-35.554093,-5.823505],[-35.553197,-5.823389],[-35.553421,-5.82016],[-35.552823,-5.819924],[-35.553055,-5.818368],[-35.552756,-5.81831],[-35.552405,-5.819866],[-35.551809,-5.820167],[-35.551103,-5.822382]]],[[[-35.553458,-5.815198],[-35.554056,-5.815435],[-35.554118,-5.815912],[-35.553703,-5.816512],[-35.55233,-5.816399],[-35.552096,-5.817595],[-35.554187,-5.817885],[-35.554886,-5.814056],[-35.553931,-5.81406],[-35.553458,-5.815198]]],[[[-35.584853,-5.81262],[-35.586123,-5.812737],[-35.585813,-5.813692],[-35.587804,-5.814761],[-35.589774,-5.814872],[-35.590188,-5.814033],[-35.592041,-5.814622],[-35.591805,-5.815102],[-35.592342,-5.815099],[-35.593115,-5.814438],[-35.593541,-5.816349],[-35.594073,-5.815211],[-35.59461,-5.815149],[-35.594848,-5.814849],[-35.595206,-5.814907],[-35.59545,-5.815982],[-35.595822,-5.815718],[-35.594966,-5.814208],[-35.588298,-5.812753],[-35.585224,-5.811784],[-35.584853,-5.81262]]],[[[-35.611528,-5.808594],[-35.611704,-5.807995],[-35.613199,-5.808407],[-35.613493,-5.807628],[-35.613372,-5.80721],[-35.612655,-5.807034],[-35.612658,-5.807572],[-35.61194,-5.807337],[-35.611218,-5.805965],[-35.610732,-5.804234],[-35.610256,-5.804535],[-35.610379,-5.805371],[-35.60931,-5.805473],[-35.608589,-5.806401],[-35.610322,-5.805969],[-35.611103,-5.807042],[-35.611046,-5.80758],[-35.609792,-5.807526],[-35.609795,-5.808004],[-35.608825,-5.8084],[-35.608698,-5.809647],[-35.609503,-5.80956],[-35.609858,-5.808781],[-35.610453,-5.80836],[-35.610931,-5.808477],[-35.611352,-5.809312],[-35.613026,-5.809902],[-35.614161,-5.810076],[-35.614577,-5.809596],[-35.613081,-5.808826],[-35.611528,-5.808594]]],[[[-35.521567,-5.806358],[-35.521856,-5.804205],[-35.520605,-5.804748],[-35.520193,-5.806185],[-35.520676,-5.807259],[-35.520198,-5.807321],[-35.519544,-5.807802],[-35.519433,-5.809775],[-35.523821,-5.809425],[-35.524754,-5.809852],[-35.525683,-5.809345],[-35.526892,-5.809084],[-35.52849,-5.809762],[-35.528427,-5.809165],[-35.528844,-5.808984],[-35.528961,-5.808445],[-35.529442,-5.80922],[-35.528676,-5.807642],[-35.527902,-5.808183],[-35.526054,-5.80855],[-35.523545,-5.808083],[-35.523122,-5.807069],[-35.521567,-5.806358]]],[[[-35.563236,-5.778341],[-35.564057,-5.780346],[-35.565345,-5.780053],[-35.565779,-5.781056],[-35.564348,-5.781397],[-35.564497,-5.782496],[-35.565359,-5.78321],[-35.567454,-5.781765],[-35.568409,-5.781761],[-35.568693,-5.781329],[-35.569123,-5.781232],[-35.569261,-5.780083],[-35.570066,-5.778693],[-35.568812,-5.786494],[-35.567237,-5.786549],[-35.566957,-5.788176],[-35.569056,-5.787545],[-35.569815,-5.786585],[-35.57134,-5.785813],[-35.571098,-5.785096],[-35.572238,-5.783848],[-35.571852,-5.782989],[-35.572903,-5.783032],[-35.573241,-5.780147],[-35.572467,-5.780689],[-35.572226,-5.780092],[-35.573238,-5.77949],[-35.573671,-5.776379],[-35.574496,-5.773865],[-35.576823,-5.773854],[-35.577601,-5.774329],[-35.579452,-5.774381],[-35.578923,-5.776356],[-35.579225,-5.776952],[-35.578632,-5.777851],[-35.57917,-5.777969],[-35.580775,-5.776706],[-35.581484,-5.775029],[-35.581421,-5.774252],[-35.579927,-5.77384],[-35.579863,-5.773004],[-35.580221,-5.772883],[-35.579711,-5.772347],[-35.577621,-5.772117],[-35.574518,-5.772251],[-35.574572,-5.770995],[-35.573288,-5.770822],[-35.573053,-5.7716],[-35.572098,-5.771724],[-35.571857,-5.771187],[-35.571145,-5.772027],[-35.571836,-5.7731],[-35.572853,-5.773693],[-35.572262,-5.775011],[-35.571972,-5.776865],[-35.570965,-5.778364],[-35.569592,-5.778311],[-35.568332,-5.776882],[-35.567953,-5.775976],[-35.566839,-5.776829],[-35.56661,-5.778982],[-35.565775,-5.779045],[-35.565593,-5.778508],[-35.563236,-5.778341]]],[[[-35.563367,-5.775519],[-35.563708,-5.776952],[-35.56523,-5.777255],[-35.566089,-5.775554],[-35.566276,-5.774693],[-35.565751,-5.774791],[-35.565326,-5.775749],[-35.563367,-5.775519]]],[[[-35.532569,-5.778933],[-35.53247,-5.780727],[-35.532183,-5.780728],[-35.53222,-5.780979],[-35.533508,-5.78065],[-35.534151,-5.780217],[-35.534146,-5.779213],[-35.53325,-5.779037],[-35.533463,-5.778606],[-35.532853,-5.778393],[-35.533553,-5.777012],[-35.532329,-5.776714],[-35.532891,-5.77558],[-35.532827,-5.774803],[-35.533183,-5.774204],[-35.532524,-5.773609],[-35.532579,-5.772533],[-35.533531,-5.771931],[-35.533349,-5.771214],[-35.53293,-5.771037],[-35.533166,-5.770318],[-35.532804,-5.769543],[-35.531849,-5.769547],[-35.532212,-5.770562],[-35.532217,-5.771817],[-35.531979,-5.771998],[-35.531983,-5.772894],[-35.531417,-5.774784],[-35.531153,-5.774563],[-35.530511,-5.775212],[-35.530621,-5.775642],[-35.530228,-5.776002],[-35.530408,-5.776145],[-35.529911,-5.777008],[-35.52988,-5.778227],[-35.529271,-5.77823],[-35.529059,-5.778697],[-35.529454,-5.778947],[-35.528996,-5.78067],[-35.529462,-5.780776],[-35.529637,-5.779986],[-35.530462,-5.780198],[-35.530958,-5.77894],[-35.531961,-5.779115],[-35.532569,-5.778933]]],[[[-35.593604,-5.765337],[-35.593199,-5.768268],[-35.59399,-5.768124],[-35.594559,-5.764792],[-35.595466,-5.764597],[-35.595316,-5.763067],[-35.591352,-5.762989],[-35.591628,-5.763972],[-35.589778,-5.76398],[-35.589781,-5.764638],[-35.592824,-5.764504],[-35.592766,-5.764983],[-35.593604,-5.765337]]],[[[-35.513728,-5.75081],[-35.513186,-5.749617],[-35.511744,-5.747531],[-35.511446,-5.747532],[-35.512348,-5.748963],[-35.511038,-5.749686],[-35.511218,-5.749925],[-35.512707,-5.749261],[-35.513489,-5.750752],[-35.513728,-5.75081]]],[[[-35.610091,-5.746671],[-35.611421,-5.745577],[-35.60826,-5.74601],[-35.608513,-5.749237],[-35.611793,-5.748684],[-35.611588,-5.746977],[-35.610091,-5.746671]]],[[[-35.512693,-5.743089],[-35.512462,-5.744973],[-35.511097,-5.746832],[-35.511744,-5.747531],[-35.512881,-5.74533],[-35.515022,-5.743378],[-35.514959,-5.742661],[-35.513767,-5.743144],[-35.513644,-5.742188],[-35.512693,-5.743089]]],[[[-35.527669,-5.743914],[-35.524982,-5.743627],[-35.52768,-5.744948],[-35.528749,-5.745045],[-35.528387,-5.74421],[-35.527669,-5.743914]]],[[[-35.531794,-5.74545],[-35.531677,-5.745809],[-35.53293,-5.745804],[-35.533044,-5.744548],[-35.532441,-5.743295],[-35.531038,-5.743436],[-35.529157,-5.742891],[-35.528202,-5.742955],[-35.526877,-5.740092],[-35.525626,-5.740635],[-35.527782,-5.742419],[-35.527845,-5.743136],[-35.529404,-5.744684],[-35.53054,-5.745276],[-35.531794,-5.74545]]],[[[-35.612672,-5.732002],[-35.611598,-5.732187],[-35.609395,-5.733273],[-35.609398,-5.73393],[-35.611067,-5.733385],[-35.612316,-5.732602],[-35.612672,-5.732002]]],[[[-35.484625,-6.007047],[-35.491917,-6.009654],[-35.492424,-6.007758],[-35.484904,-6.005496],[-35.484625,-6.007047]]],[[[-35.496921,-6.000793],[-35.496468,-6.001885],[-35.49521,-6.002752],[-35.494698,-6.0035],[-35.494873,-6.004246],[-35.495216,-6.004072],[-35.49527,-6.003326],[-35.496815,-6.002572],[-35.499146,-5.998372],[-35.498458,-5.998433],[-35.497263,-6.000275],[-35.496739,-5.998498],[-35.49605,-5.998272],[-35.495765,-5.99856],[-35.496283,-5.999189],[-35.496921,-6.000793]]],[[[-35.509299,-5.993586],[-35.510826,-5.993149],[-35.511345,-5.991855],[-35.509288,-5.991147],[-35.508915,-5.993206],[-35.509299,-5.993586]]],[[[-35.480109,-5.984628],[-35.480968,-5.984452],[-35.481424,-5.983818],[-35.481945,-5.984849],[-35.485437,-5.983857],[-35.486349,-5.98282],[-35.486518,-5.982073],[-35.485944,-5.981961],[-35.485718,-5.982651],[-35.484231,-5.983461],[-35.484398,-5.98237],[-35.484054,-5.982372],[-35.484003,-5.983634],[-35.482343,-5.984158],[-35.480553,-5.981412],[-35.480723,-5.98078],[-35.483007,-5.97899],[-35.482662,-5.97859],[-35.480263,-5.98061],[-35.478709,-5.979067],[-35.477963,-5.978956],[-35.479807,-5.981128],[-35.480965,-5.983648],[-35.480337,-5.984167],[-35.47919,-5.984115],[-35.478385,-5.98366],[-35.477413,-5.984181],[-35.477472,-5.98464],[-35.478446,-5.984463],[-35.478791,-5.984691],[-35.47908,-5.985149],[-35.479142,-5.986239],[-35.479887,-5.986063],[-35.480109,-5.984628]]],[[[-35.411616,-5.984783],[-35.411821,-5.983687],[-35.410799,-5.982137],[-35.408949,-5.982384],[-35.409185,-5.981725],[-35.408107,-5.981072],[-35.406797,-5.981915],[-35.406019,-5.9815],[-35.404825,-5.981565],[-35.403744,-5.980195],[-35.401647,-5.97841],[-35.400811,-5.978593],[-35.399975,-5.978418],[-35.393694,-5.97399],[-35.393663,-5.974761],[-35.399979,-5.979314],[-35.399685,-5.980392],[-35.401174,-5.979488],[-35.401894,-5.980322],[-35.402969,-5.980437],[-35.404228,-5.981508],[-35.40656,-5.982275],[-35.406564,-5.983231],[-35.404597,-5.984077],[-35.4052,-5.98527],[-35.404759,-5.985984],[-35.405616,-5.986845],[-35.407815,-5.982568],[-35.40985,-5.983576],[-35.410513,-5.984828],[-35.411616,-5.984783]]],[[[-35.405507,-5.968288],[-35.408426,-5.967243],[-35.408189,-5.96535],[-35.408757,-5.964257],[-35.410303,-5.963791],[-35.411681,-5.96376],[-35.411201,-5.963224],[-35.410006,-5.96311],[-35.40929,-5.963292],[-35.408811,-5.963055],[-35.405834,-5.964384],[-35.404003,-5.965024],[-35.405507,-5.968288]]],[[[-35.390274,-5.944621],[-35.394278,-5.945321],[-35.397259,-5.944471],[-35.392879,-5.939528],[-35.390438,-5.941093],[-35.388653,-5.942595],[-35.390274,-5.944621]]],[[[-35.395845,-5.934851],[-35.39446,-5.932346],[-35.393031,-5.93313],[-35.392791,-5.932832],[-35.394097,-5.931212],[-35.393498,-5.930617],[-35.389977,-5.93111],[-35.389443,-5.93195],[-35.389687,-5.933144],[-35.388974,-5.934044],[-35.387663,-5.934648],[-35.386705,-5.934054],[-35.385935,-5.935492],[-35.3854,-5.935973],[-35.385588,-5.938064],[-35.383442,-5.938791],[-35.383566,-5.939927],[-35.386309,-5.939137],[-35.386243,-5.937524],[-35.38696,-5.9377],[-35.386955,-5.936624],[-35.387493,-5.936621],[-35.387794,-5.937337],[-35.389107,-5.937033],[-35.389999,-5.936252],[-35.395845,-5.934851]]],[[[-35.385134,-5.931268],[-35.384069,-5.927553],[-35.383873,-5.92769],[-35.38388,-5.929424],[-35.384358,-5.929422],[-35.38454,-5.930138],[-35.383347,-5.930323],[-35.38311,-5.930742],[-35.38162,-5.931526],[-35.381384,-5.932245],[-35.380786,-5.932008],[-35.380193,-5.932848],[-35.379351,-5.931476],[-35.374747,-5.931851],[-35.375169,-5.932806],[-35.375174,-5.934061],[-35.375628,-5.935959],[-35.380309,-5.93398],[-35.385134,-5.931268]]],[[[-35.474516,-5.909406],[-35.472104,-5.908384],[-35.472093,-5.905744],[-35.470553,-5.907472],[-35.470099,-5.908507],[-35.469469,-5.908568],[-35.467182,-5.909898],[-35.470399,-5.911605],[-35.471658,-5.911026],[-35.472977,-5.911192],[-35.47469,-5.909807],[-35.474516,-5.909406]]],[[[-35.390769,-5.892805],[-35.390114,-5.893286],[-35.39,-5.894602],[-35.39167,-5.895567],[-35.392748,-5.894889],[-35.391834,-5.890708],[-35.391604,-5.892622],[-35.390769,-5.892805]]],[[[-35.392292,-5.889535],[-35.390696,-5.889756],[-35.391058,-5.890651],[-35.392372,-5.890705],[-35.392292,-5.889535]]],[[[-35.48068,-5.890725],[-35.483436,-5.891803],[-35.484509,-5.888355],[-35.479689,-5.886942],[-35.479466,-5.888378],[-35.47786,-5.88804],[-35.477581,-5.889878],[-35.48068,-5.890725]]],[[[-35.493015,-5.890815],[-35.493801,-5.888615],[-35.490001,-5.887914],[-35.487281,-5.8885],[-35.487848,-5.887207],[-35.487489,-5.886849],[-35.487342,-5.886133],[-35.485879,-5.888707],[-35.493015,-5.890815]]],[[[-35.497402,-5.887905],[-35.495096,-5.887233],[-35.495219,-5.886472],[-35.497218,-5.884799],[-35.496856,-5.880898],[-35.495651,-5.880559],[-35.496441,-5.8778],[-35.49604,-5.87763],[-35.494216,-5.879876],[-35.49388,-5.881772],[-35.493026,-5.882981],[-35.491832,-5.883941],[-35.494367,-5.887106],[-35.493801,-5.888615],[-35.497402,-5.887905]]],[[[-35.487904,-5.87824],[-35.489847,-5.876969],[-35.4899,-5.875993],[-35.487204,-5.875488],[-35.486403,-5.875722],[-35.487904,-5.87824]]],[[[-35.450296,-5.882466],[-35.454367,-5.883022],[-35.45665,-5.867746],[-35.454704,-5.868213],[-35.452578,-5.867075],[-35.451192,-5.877641],[-35.450792,-5.878045],[-35.450296,-5.882466]]],[[[-35.46413,-5.849437],[-35.466755,-5.847556],[-35.46572,-5.846047],[-35.465448,-5.843688],[-35.465825,-5.842818],[-35.465822,-5.842101],[-35.464403,-5.841565],[-35.461714,-5.844255],[-35.463693,-5.846594],[-35.462629,-5.847515],[-35.45937,-5.847474],[-35.454056,-5.851056],[-35.452569,-5.865009],[-35.452912,-5.864778],[-35.453423,-5.863685],[-35.453943,-5.864601],[-35.453605,-5.865865],[-35.454407,-5.865919],[-35.454927,-5.86695],[-35.456301,-5.866542],[-35.456167,-5.862008],[-35.457386,-5.852533],[-35.459218,-5.852009],[-35.462947,-5.853025],[-35.463173,-5.852164],[-35.464084,-5.850782],[-35.46413,-5.849437]]],[[[-35.379154,-5.851255],[-35.378515,-5.855562],[-35.377138,-5.854731],[-35.376959,-5.855802],[-35.378275,-5.856514],[-35.377922,-5.857711],[-35.378632,-5.858446],[-35.379461,-5.854536],[-35.379804,-5.850947],[-35.377868,-5.845163],[-35.37703,-5.844442],[-35.377396,-5.846354],[-35.379154,-5.851255]]],[[[-35.407391,-5.845515],[-35.40725,-5.846944],[-35.406477,-5.847844],[-35.407912,-5.848197],[-35.40875,-5.848731],[-35.411138,-5.848721],[-35.409463,-5.848011],[-35.409462,-5.847772],[-35.412922,-5.847159],[-35.412379,-5.845786],[-35.411185,-5.845731],[-35.41089,-5.84657],[-35.409518,-5.846875],[-35.409221,-5.847294],[-35.408087,-5.847359],[-35.408142,-5.846163],[-35.407391,-5.845515]]],[[[-35.389386,-5.843911],[-35.388789,-5.843234],[-35.388671,-5.844154],[-35.386699,-5.843744],[-35.384791,-5.844409],[-35.381031,-5.844724],[-35.379715,-5.844012],[-35.379804,-5.850947],[-35.388826,-5.850021],[-35.388611,-5.849808],[-35.389545,-5.844782],[-35.389386,-5.843911]]],[[[-35.3769,-5.841932],[-35.374825,-5.836792],[-35.374105,-5.835839],[-35.374046,-5.836757],[-35.374799,-5.83806],[-35.376187,-5.842772],[-35.376845,-5.843068],[-35.3769,-5.841932]]],[[[-35.392413,-5.825664],[-35.393193,-5.826497],[-35.392002,-5.82728],[-35.391702,-5.826922],[-35.391166,-5.827164],[-35.39117,-5.82812],[-35.390751,-5.827823],[-35.391177,-5.829794],[-35.389574,-5.831953],[-35.388497,-5.83136],[-35.38629,-5.831788],[-35.38546,-5.833047],[-35.384575,-5.832952],[-35.382367,-5.83575],[-35.382035,-5.82798],[-35.381259,-5.827923],[-35.381194,-5.826728],[-35.378208,-5.826501],[-35.378519,-5.829489],[-35.377027,-5.829495],[-35.376142,-5.83207],[-35.379109,-5.841803],[-35.380003,-5.84162],[-35.380005,-5.841919],[-35.380664,-5.842633],[-35.382454,-5.842267],[-35.382933,-5.842624],[-35.383887,-5.842321],[-35.389443,-5.843313],[-35.39026,-5.838706],[-35.389121,-5.837755],[-35.388998,-5.836739],[-35.389593,-5.836377],[-35.390187,-5.835598],[-35.389942,-5.834164],[-35.390176,-5.832967],[-35.390353,-5.832548],[-35.390889,-5.832247],[-35.392006,-5.828236],[-35.392957,-5.827216],[-35.394453,-5.827987],[-35.39349,-5.826197],[-35.39283,-5.825303],[-35.392413,-5.825664]]],[[[-35.416584,-5.832381],[-35.416647,-5.833758],[-35.419504,-5.831852],[-35.42002,-5.831735],[-35.420767,-5.832248],[-35.420827,-5.832936],[-35.421289,-5.833623],[-35.420377,-5.834947],[-35.420725,-5.835807],[-35.423136,-5.83513],[-35.423353,-5.833901],[-35.423808,-5.83321],[-35.425185,-5.833377],[-35.426101,-5.833143],[-35.426209,-5.831765],[-35.427524,-5.831071],[-35.427179,-5.830613],[-35.426147,-5.830675],[-35.425679,-5.828439],[-35.424589,-5.828042],[-35.422816,-5.82891],[-35.423833,-5.825692],[-35.421715,-5.826103],[-35.42171,-5.825012],[-35.42262,-5.823344],[-35.422844,-5.822195],[-35.42294,-5.81789],[-35.422653,-5.817719],[-35.422045,-5.82283],[-35.421702,-5.823118],[-35.421138,-5.825187],[-35.420277,-5.825018],[-35.41947,-5.823759],[-35.418899,-5.82445],[-35.41982,-5.82525],[-35.420743,-5.826623],[-35.420403,-5.827658],[-35.41926,-5.828409],[-35.419665,-5.829268],[-35.420125,-5.829553],[-35.420014,-5.830529],[-35.419269,-5.830533],[-35.4191,-5.831165],[-35.417202,-5.829508],[-35.416748,-5.830658],[-35.416584,-5.832381]]],[[[-35.411222,-5.825],[-35.410438,-5.82461],[-35.410202,-5.825268],[-35.410625,-5.826462],[-35.410576,-5.82728],[-35.412124,-5.827256],[-35.412718,-5.826371],[-35.414037,-5.826423],[-35.41593,-5.826931],[-35.419422,-5.826113],[-35.418791,-5.825771],[-35.416787,-5.826239],[-35.41501,-5.826131],[-35.414778,-5.825616],[-35.413862,-5.825735],[-35.413402,-5.825507],[-35.412825,-5.824649],[-35.411222,-5.825]]],[[[-35.444616,-5.815228],[-35.443542,-5.815292],[-35.443852,-5.816422],[-35.446029,-5.81647],[-35.446721,-5.817271],[-35.44976,-5.817656],[-35.449575,-5.816222],[-35.450145,-5.815743],[-35.448775,-5.815138],[-35.448197,-5.814108],[-35.447279,-5.813767],[-35.445675,-5.813947],[-35.445727,-5.812856],[-35.445382,-5.812398],[-35.444398,-5.812562],[-35.444129,-5.813137],[-35.444616,-5.815228]]],[[[-35.477222,-5.80775],[-35.478888,-5.808046],[-35.480159,-5.807737],[-35.480514,-5.807162],[-35.479439,-5.806879],[-35.477792,-5.806937],[-35.47772,-5.807102],[-35.474994,-5.806038],[-35.473776,-5.806115],[-35.473638,-5.807263],[-35.475361,-5.808045],[-35.476002,-5.807253],[-35.476438,-5.808758],[-35.477222,-5.80775]]],[[[-35.378521,-5.807075],[-35.377755,-5.806647],[-35.378605,-5.804444],[-35.379797,-5.80396],[-35.380992,-5.804051],[-35.381136,-5.804337],[-35.382666,-5.804761],[-35.383386,-5.805619],[-35.38396,-5.805808],[-35.385005,-5.804512],[-35.386472,-5.801158],[-35.385702,-5.799822],[-35.383935,-5.799829],[-35.383896,-5.801838],[-35.381459,-5.801562],[-35.375632,-5.801538],[-35.375732,-5.800521],[-35.37482,-5.801446],[-35.373581,-5.802121],[-35.372674,-5.80222],[-35.371096,-5.801797],[-35.371386,-5.802513],[-35.371061,-5.80481],[-35.373261,-5.805566],[-35.37265,-5.812876],[-35.377011,-5.811481],[-35.377762,-5.808273],[-35.378521,-5.807075]]],[[[-35.386297,-5.805033],[-35.385487,-5.805515],[-35.385448,-5.807715],[-35.386164,-5.807616],[-35.386401,-5.807137],[-35.38682,-5.807457],[-35.388445,-5.804734],[-35.387389,-5.80345],[-35.386297,-5.805033]]],[[[-35.433442,-5.801733],[-35.432248,-5.801618],[-35.430571,-5.800191],[-35.430342,-5.802583],[-35.433207,-5.802571],[-35.435958,-5.803754],[-35.436254,-5.803096],[-35.436673,-5.803333],[-35.436737,-5.804289],[-35.437097,-5.804706],[-35.437871,-5.804284],[-35.43835,-5.804761],[-35.439065,-5.804279],[-35.439483,-5.804457],[-35.439726,-5.805293],[-35.439965,-5.805351],[-35.440733,-5.803435],[-35.44175,-5.804088],[-35.442643,-5.803606],[-35.4427,-5.802829],[-35.445561,-5.801979],[-35.445197,-5.800546],[-35.442758,-5.80241],[-35.442806,-5.799839],[-35.443687,-5.796308],[-35.443323,-5.795054],[-35.442137,-5.796793],[-35.441968,-5.799185],[-35.440178,-5.799372],[-35.440898,-5.800206],[-35.442092,-5.80038],[-35.441742,-5.802235],[-35.44085,-5.803076],[-35.440491,-5.802898],[-35.439578,-5.798777],[-35.438206,-5.798902],[-35.437611,-5.799323],[-35.436117,-5.799091],[-35.436122,-5.800167],[-35.438157,-5.801354],[-35.43917,-5.800991],[-35.439656,-5.802902],[-35.436371,-5.802437],[-35.436247,-5.801541],[-35.435411,-5.801306],[-35.434758,-5.802265],[-35.434389,-5.799815],[-35.433442,-5.801733]]],[[[-35.378288,-5.797127],[-35.376669,-5.798186],[-35.376071,-5.799675],[-35.381738,-5.799743],[-35.381869,-5.796825],[-35.381246,-5.796349],[-35.380909,-5.795633],[-35.380575,-5.795922],[-35.380674,-5.796543],[-35.379912,-5.797072],[-35.378288,-5.797127]]],[[[-35.410248,-5.79406],[-35.410192,-5.794957],[-35.412581,-5.795066],[-35.413182,-5.7962],[-35.413189,-5.797814],[-35.414025,-5.79793],[-35.414321,-5.797151],[-35.415218,-5.797626],[-35.417135,-5.799292],[-35.417792,-5.799289],[-35.418021,-5.796896],[-35.416885,-5.796542],[-35.416889,-5.797499],[-35.414614,-5.796074],[-35.414667,-5.794459],[-35.413953,-5.794881],[-35.413473,-5.794285],[-35.412336,-5.793812],[-35.410248,-5.79406]]],[[[-35.38569,-5.797],[-35.385508,-5.799153],[-35.385702,-5.799822],[-35.3868,-5.79977],[-35.387368,-5.798667],[-35.387988,-5.798377],[-35.387609,-5.799192],[-35.387897,-5.79943],[-35.388853,-5.799522],[-35.389979,-5.79887],[-35.390346,-5.791193],[-35.389537,-5.791914],[-35.389202,-5.791676],[-35.387198,-5.792163],[-35.385811,-5.793087],[-35.385725,-5.793987],[-35.384732,-5.79643],[-35.38569,-5.797]]],[[[-35.416845,-5.787097],[-35.41661,-5.788114],[-35.416793,-5.78907],[-35.417333,-5.789725],[-35.4177,-5.791816],[-35.417104,-5.791818],[-35.417046,-5.792417],[-35.417644,-5.792653],[-35.417825,-5.793011],[-35.41848,-5.792709],[-35.418359,-5.792172],[-35.418594,-5.791394],[-35.418167,-5.789124],[-35.417328,-5.78841],[-35.417383,-5.787333],[-35.417919,-5.786972],[-35.418274,-5.786194],[-35.419096,-5.783081],[-35.417663,-5.783087],[-35.418086,-5.784222],[-35.417912,-5.785418],[-35.417376,-5.7856],[-35.417677,-5.786256],[-35.416845,-5.787097]]],[[[-35.509341,-5.743835],[-35.50976,-5.744252],[-35.511428,-5.743527],[-35.511247,-5.74293],[-35.509341,-5.743835]]],[[[-35.50616,-5.739784],[-35.505922,-5.740024],[-35.506027,-5.740233],[-35.508142,-5.742645],[-35.508439,-5.742404],[-35.50616,-5.739784]]],[[[-35.50675,-5.738287],[-35.50538,-5.738951],[-35.505442,-5.739369],[-35.506574,-5.738886],[-35.506993,-5.739183],[-35.50723,-5.738942],[-35.50675,-5.738287]]],[[[-35.500518,-5.730199],[-35.499855,-5.73052],[-35.500215,-5.731409],[-35.49997,-5.731811],[-35.499043,-5.73163],[-35.498671,-5.730865],[-35.498059,-5.731252],[-35.501604,-5.735261],[-35.50482,-5.733573],[-35.503679,-5.732023],[-35.504808,-5.730882],[-35.503652,-5.729543],[-35.503069,-5.730106],[-35.502369,-5.73012],[-35.501776,-5.729417],[-35.500944,-5.72962],[-35.500518,-5.730199]]],[[[-35.371985,-5.926366],[-35.373056,-5.925584],[-35.373468,-5.924267],[-35.374186,-5.924503],[-35.374243,-5.923785],[-35.372747,-5.923194],[-35.371981,-5.925409],[-35.371985,-5.926366]]],[[[-35.37763,-5.920064],[-35.376256,-5.91995],[-35.374766,-5.920495],[-35.374407,-5.919607],[-35.372664,-5.920003],[-35.372967,-5.920679],[-35.371356,-5.920984],[-35.370404,-5.921706],[-35.367778,-5.922076],[-35.366648,-5.922978],[-35.366168,-5.922382],[-35.362766,-5.922755],[-35.362713,-5.924369],[-35.368152,-5.923871],[-35.372747,-5.923194],[-35.373699,-5.922233],[-35.374957,-5.923244],[-35.375491,-5.922405],[-35.375614,-5.923301],[-35.376392,-5.923776],[-35.376867,-5.923116],[-35.376684,-5.92228],[-35.377641,-5.922635],[-35.377753,-5.920901],[-35.378115,-5.921856],[-35.381697,-5.921721],[-35.381274,-5.920527],[-35.379479,-5.919578],[-35.378643,-5.919581],[-35.37763,-5.920064]]],[[[-35.323189,-5.893255],[-35.323145,-5.894068],[-35.323627,-5.895071],[-35.322961,-5.895791],[-35.324638,-5.89698],[-35.325304,-5.896307],[-35.326212,-5.896591],[-35.325453,-5.897837],[-35.328279,-5.899595],[-35.328756,-5.89945],[-35.329762,-5.900067],[-35.329858,-5.900354],[-35.334119,-5.902489],[-35.335497,-5.900809],[-35.337125,-5.901663],[-35.337891,-5.900862],[-35.325599,-5.894657],[-35.325309,-5.893893],[-35.324176,-5.89243],[-35.323189,-5.893255]]],[[[-35.342953,-5.888065],[-35.345969,-5.889631],[-35.346949,-5.88941],[-35.34658,-5.886841],[-35.347169,-5.884925],[-35.349022,-5.885276],[-35.349913,-5.884316],[-35.349849,-5.88324],[-35.348293,-5.882409],[-35.348299,-5.883784],[-35.347226,-5.884207],[-35.346513,-5.885047],[-35.344978,-5.883967],[-35.342953,-5.888065]]],[[[-35.366877,-5.886012],[-35.366812,-5.884842],[-35.364059,-5.883239],[-35.36327,-5.884723],[-35.364425,-5.884972],[-35.366877,-5.886012]]],[[[-35.314245,-5.86723],[-35.314955,-5.865732],[-35.312802,-5.864785],[-35.309645,-5.871799],[-35.31271,-5.871565],[-35.312773,-5.872139],[-35.31206,-5.872979],[-35.311226,-5.873461],[-35.310625,-5.872507],[-35.309984,-5.872645],[-35.315029,-5.88083],[-35.317573,-5.885599],[-35.317318,-5.874093],[-35.318987,-5.873309],[-35.318985,-5.872771],[-35.317841,-5.870563],[-35.31671,-5.871345],[-35.317891,-5.868231],[-35.314245,-5.86723]]],[[[-35.360447,-5.868414],[-35.36136,-5.872715],[-35.36441,-5.873897],[-35.365658,-5.872338],[-35.363076,-5.869],[-35.362896,-5.868642],[-35.363129,-5.867386],[-35.362234,-5.86745],[-35.361034,-5.866139],[-35.358704,-5.865731],[-35.357385,-5.864481],[-35.356192,-5.864665],[-35.355539,-5.865505],[-35.357274,-5.866394],[-35.358594,-5.867943],[-35.360447,-5.868414]]],[[[-35.324219,-5.86002],[-35.323762,-5.860462],[-35.323783,-5.860768],[-35.325044,-5.860915],[-35.325634,-5.860339],[-35.325556,-5.859976],[-35.326069,-5.859151],[-35.326795,-5.859091],[-35.325586,-5.862597],[-35.325645,-5.862903],[-35.326409,-5.86288],[-35.326886,-5.86263],[-35.32677,-5.862267],[-35.326272,-5.861963],[-35.326708,-5.861234],[-35.327301,-5.861499],[-35.327801,-5.862243],[-35.328067,-5.861917],[-35.328047,-5.86163],[-35.326916,-5.860678],[-35.32812,-5.860864],[-35.327966,-5.860482],[-35.328537,-5.859944],[-35.328862,-5.86],[-35.328558,-5.860518],[-35.32856,-5.860996],[-35.328982,-5.861358],[-35.32885,-5.861799],[-35.329715,-5.861957],[-35.329894,-5.861261],[-35.329504,-5.861023],[-35.3301,-5.860543],[-35.329651,-5.860305],[-35.329086,-5.860936],[-35.328846,-5.860638],[-35.329291,-5.860038],[-35.328931,-5.859531],[-35.329108,-5.858903],[-35.330513,-5.859584],[-35.331355,-5.860926],[-35.331494,-5.858594],[-35.330177,-5.857672],[-35.33071,-5.856564],[-35.331369,-5.85704],[-35.331468,-5.856291],[-35.331993,-5.856514],[-35.33223,-5.856035],[-35.333004,-5.855493],[-35.33283,-5.85669],[-35.333668,-5.857344],[-35.332938,-5.859515],[-35.331776,-5.861582],[-35.331866,-5.86191],[-35.331036,-5.863199],[-35.331276,-5.863497],[-35.330713,-5.86471],[-35.329877,-5.864534],[-35.32799,-5.865259],[-35.326564,-5.86693],[-35.326053,-5.868195],[-35.326229,-5.869227],[-35.325372,-5.869862],[-35.323767,-5.869869],[-35.323368,-5.87033],[-35.323315,-5.871248],[-35.325055,-5.876349],[-35.322651,-5.87722],[-35.323581,-5.880201],[-35.322437,-5.880722],[-35.323657,-5.884793],[-35.324809,-5.886108],[-35.325209,-5.885762],[-35.328301,-5.884945],[-35.328008,-5.88334],[-35.329375,-5.88144],[-35.331605,-5.877472],[-35.332261,-5.877704],[-35.333491,-5.875214],[-35.334547,-5.876624],[-35.334653,-5.876429],[-35.335011,-5.876595],[-35.334888,-5.875735],[-35.335055,-5.875615],[-35.335249,-5.876236],[-35.335512,-5.876234],[-35.335346,-5.876713],[-35.335586,-5.876832],[-35.335774,-5.876066],[-35.336107,-5.875959],[-35.337118,-5.874527],[-35.337186,-5.874089],[-35.337925,-5.873823],[-35.337948,-5.873488],[-35.337301,-5.873132],[-35.338204,-5.872028],[-35.33983,-5.872523],[-35.339851,-5.871806],[-35.339445,-5.87164],[-35.339489,-5.87085],[-35.338699,-5.870423],[-35.339535,-5.870492],[-35.339554,-5.869367],[-35.338574,-5.868941],[-35.338217,-5.869445],[-35.337646,-5.869806],[-35.337573,-5.869615],[-35.33793,-5.869135],[-35.33776,-5.868634],[-35.338515,-5.866478],[-35.338229,-5.866431],[-35.337025,-5.869785],[-35.336242,-5.871055],[-35.334017,-5.870156],[-35.335011,-5.867151],[-35.338063,-5.866174],[-35.337881,-5.865338],[-35.339834,-5.865291],[-35.33989,-5.865018],[-35.33966,-5.864861],[-35.339774,-5.86466],[-35.340018,-5.864874],[-35.339901,-5.864387],[-35.339481,-5.864278],[-35.339742,-5.864043],[-35.339313,-5.864102],[-35.339224,-5.863428],[-35.338961,-5.863551],[-35.338879,-5.863311],[-35.339209,-5.863213],[-35.338761,-5.862426],[-35.338903,-5.862095],[-35.338629,-5.861709],[-35.337925,-5.861751],[-35.33802,-5.859846],[-35.337377,-5.859003],[-35.33577,-5.860325],[-35.334155,-5.859674],[-35.33485,-5.858303],[-35.33574,-5.858603],[-35.337603,-5.858703],[-35.338895,-5.859308],[-35.33939,-5.858757],[-35.340046,-5.858574],[-35.342496,-5.859043],[-35.342142,-5.86006],[-35.339693,-5.859891],[-35.343588,-5.863283],[-35.343331,-5.864401],[-35.342281,-5.864669],[-35.342952,-5.865048],[-35.344669,-5.864587],[-35.344377,-5.866149],[-35.344018,-5.865972],[-35.342874,-5.868587],[-35.342488,-5.868398],[-35.342228,-5.869165],[-35.342546,-5.869337],[-35.341652,-5.871482],[-35.341862,-5.872958],[-35.343454,-5.873331],[-35.343274,-5.873807],[-35.344425,-5.874152],[-35.34354,-5.876703],[-35.342694,-5.877875],[-35.34365,-5.87805],[-35.344012,-5.878826],[-35.345807,-5.879835],[-35.345975,-5.877263],[-35.347287,-5.87678],[-35.34825,-5.878569],[-35.349978,-5.877845],[-35.349738,-5.877427],[-35.350512,-5.877065],[-35.349369,-5.874977],[-35.350084,-5.874616],[-35.351867,-5.872635],[-35.35162,-5.870723],[-35.351793,-5.869347],[-35.35096,-5.869829],[-35.351193,-5.868632],[-35.350418,-5.868934],[-35.349222,-5.868341],[-35.348453,-5.870019],[-35.348033,-5.869602],[-35.348447,-5.868763],[-35.347732,-5.868945],[-35.347668,-5.868049],[-35.350403,-5.865287],[-35.352015,-5.865221],[-35.35394,-5.86868],[-35.353884,-5.869577],[-35.352812,-5.870239],[-35.354364,-5.870113],[-35.354965,-5.871127],[-35.355803,-5.871482],[-35.353756,-5.867485],[-35.354112,-5.867005],[-35.354712,-5.86778],[-35.354535,-5.868199],[-35.356215,-5.870165],[-35.35675,-5.869625],[-35.35411,-5.866527],[-35.353514,-5.866709],[-35.353452,-5.866111],[-35.35267,-5.864859],[-35.354163,-5.864972],[-35.353802,-5.864256],[-35.353445,-5.864617],[-35.352906,-5.8642],[-35.353976,-5.863],[-35.35421,-5.861803],[-35.353551,-5.861268],[-35.352001,-5.861932],[-35.350864,-5.861279],[-35.350562,-5.860503],[-35.350978,-5.860083],[-35.350918,-5.859844],[-35.350382,-5.860145],[-35.350737,-5.859546],[-35.350735,-5.859008],[-35.35002,-5.85925],[-35.350196,-5.858652],[-35.35097,-5.85805],[-35.350428,-5.856976],[-35.349891,-5.857039],[-35.349834,-5.857756],[-35.348998,-5.8577],[-35.348637,-5.856984],[-35.347563,-5.857108],[-35.34732,-5.856093],[-35.345948,-5.856397],[-35.345892,-5.857414],[-35.344815,-5.856821],[-35.3441,-5.857063],[-35.342843,-5.856231],[-35.340514,-5.856241],[-35.340516,-5.856779],[-35.33956,-5.856603],[-35.339355,-5.8576],[-35.335415,-5.85658],[-35.334559,-5.856144],[-35.334911,-5.854828],[-35.333717,-5.854773],[-35.334545,-5.852856],[-35.334066,-5.852499],[-35.333295,-5.853698],[-35.332637,-5.853522],[-35.332344,-5.854898],[-35.33184,-5.854927],[-35.332106,-5.8544],[-35.331053,-5.853907],[-35.330594,-5.853966],[-35.329549,-5.856243],[-35.329422,-5.855275],[-35.329609,-5.855325],[-35.329526,-5.8542],[-35.329861,-5.852133],[-35.328387,-5.851546],[-35.327727,-5.853557],[-35.32591,-5.852991],[-35.324902,-5.854315],[-35.324073,-5.857131],[-35.323616,-5.857477],[-35.322316,-5.8571],[-35.322271,-5.857373],[-35.318678,-5.85639],[-35.317379,-5.859743],[-35.318694,-5.860216],[-35.31893,-5.859438],[-35.323293,-5.860676],[-35.324232,-5.858191],[-35.325569,-5.858522],[-35.326163,-5.858806],[-35.32544,-5.859441],[-35.324274,-5.859407],[-35.324219,-5.86002]]],[[[-35.36722,-5.868279],[-35.368056,-5.868335],[-35.368114,-5.867797],[-35.374625,-5.868606],[-35.374394,-5.870521],[-35.376026,-5.870459],[-35.37647,-5.868646],[-35.377438,-5.869079],[-35.380631,-5.868615],[-35.380708,-5.868244],[-35.378091,-5.868299],[-35.37854,-5.863023],[-35.377254,-5.868003],[-35.375584,-5.868249],[-35.375581,-5.867592],[-35.373789,-5.86754],[-35.373194,-5.867901],[-35.36931,-5.86708],[-35.369784,-5.866181],[-35.369363,-5.865526],[-35.368588,-5.865828],[-35.36883,-5.866664],[-35.368534,-5.867084],[-35.367098,-5.866492],[-35.365237,-5.865238],[-35.365662,-5.866851],[-35.365081,-5.866952],[-35.367097,-5.867502],[-35.36722,-5.868279]]],[[[-35.315713,-5.849658],[-35.314095,-5.848289],[-35.312479,-5.847339],[-35.312178,-5.846743],[-35.311642,-5.847044],[-35.310806,-5.846987],[-35.310207,-5.846452],[-35.309671,-5.846872],[-35.308954,-5.846636],[-35.308717,-5.846996],[-35.30806,-5.846999],[-35.30776,-5.846581],[-35.307343,-5.846882],[-35.306326,-5.846348],[-35.30537,-5.846292],[-35.305484,-5.844797],[-35.305128,-5.845576],[-35.304532,-5.845758],[-35.303336,-5.845344],[-35.302318,-5.844631],[-35.301843,-5.845171],[-35.301846,-5.845769],[-35.302386,-5.846484],[-35.30137,-5.846309],[-35.300897,-5.847447],[-35.302093,-5.84792],[-35.303048,-5.847737],[-35.303343,-5.846898],[-35.303406,-5.847795],[-35.303169,-5.848095],[-35.302879,-5.850249],[-35.304972,-5.851137],[-35.306038,-5.84892],[-35.304126,-5.84851],[-35.304422,-5.847911],[-35.304,-5.847135],[-35.304116,-5.846118],[-35.305193,-5.846652],[-35.306327,-5.846767],[-35.307583,-5.84724],[-35.306935,-5.849216],[-35.306517,-5.849217],[-35.306341,-5.850055],[-35.306641,-5.850472],[-35.302855,-5.859098],[-35.288985,-5.85225],[-35.305901,-5.862441],[-35.30882,-5.869738],[-35.311327,-5.86441],[-35.31143,-5.863291],[-35.312914,-5.864074],[-35.316959,-5.854587],[-35.316272,-5.854393],[-35.316863,-5.85348],[-35.317282,-5.853717],[-35.317576,-5.85252],[-35.319189,-5.852932],[-35.319602,-5.851734],[-35.319065,-5.851737],[-35.31847,-5.852158],[-35.317872,-5.85204],[-35.31769,-5.851264],[-35.317332,-5.851385],[-35.316674,-5.851149],[-35.316436,-5.851329],[-35.315713,-5.849658]],[[-35.303955,-5.859525],[-35.30453,-5.859749],[-35.306425,-5.855914],[-35.308635,-5.856204],[-35.309581,-5.854048],[-35.307606,-5.85274],[-35.309029,-5.850403],[-35.310046,-5.850757],[-35.310579,-5.849918],[-35.309443,-5.849504],[-35.310391,-5.847707],[-35.311227,-5.847643],[-35.311231,-5.84866],[-35.310755,-5.848961],[-35.311233,-5.849258],[-35.31165,-5.848957],[-35.311467,-5.848061],[-35.312062,-5.84758],[-35.313199,-5.847994],[-35.3135,-5.84871],[-35.313323,-5.849249],[-35.314579,-5.849662],[-35.313985,-5.850621],[-35.314048,-5.851399],[-35.312982,-5.853316],[-35.313282,-5.853733],[-35.311799,-5.856012],[-35.311985,-5.857685],[-35.312879,-5.857442],[-35.314002,-5.854747],[-35.315027,-5.855035],[-35.31143,-5.863291],[-35.303955,-5.859525]]],[[[-35.320662,-5.85505],[-35.321681,-5.853109],[-35.319867,-5.853307],[-35.319182,-5.855032],[-35.320662,-5.85505]]],[[[-35.340684,-5.850381],[-35.340685,-5.850668],[-35.343049,-5.848577],[-35.34359,-5.849292],[-35.344126,-5.848991],[-35.344188,-5.849649],[-35.343774,-5.850428],[-35.344373,-5.850903],[-35.344081,-5.852519],[-35.344263,-5.853355],[-35.345635,-5.853051],[-35.34767,-5.854178],[-35.348625,-5.854174],[-35.349343,-5.85447],[-35.349947,-5.856082],[-35.351385,-5.857451],[-35.351687,-5.858227],[-35.35306,-5.858221],[-35.352526,-5.858941],[-35.353005,-5.859297],[-35.354437,-5.859112],[-35.355095,-5.859348],[-35.355219,-5.860484],[-35.356458,-5.860708],[-35.356996,-5.863539],[-35.357551,-5.863537],[-35.357708,-5.862645],[-35.358663,-5.862402],[-35.358304,-5.863534],[-35.358902,-5.86377],[-35.360268,-5.864008],[-35.360872,-5.863702],[-35.361047,-5.862625],[-35.362365,-5.863498],[-35.362843,-5.862564],[-35.362838,-5.861488],[-35.364146,-5.860226],[-35.363249,-5.859812],[-35.362476,-5.860652],[-35.361879,-5.860655],[-35.361009,-5.86022],[-35.361722,-5.85944],[-35.361601,-5.859022],[-35.360589,-5.859684],[-35.359333,-5.859091],[-35.358793,-5.858436],[-35.361177,-5.85741],[-35.362426,-5.856448],[-35.362236,-5.853758],[-35.369813,-5.85253],[-35.370169,-5.851991],[-35.37058,-5.850315],[-35.369622,-5.849721],[-35.371528,-5.848756],[-35.370748,-5.847803],[-35.369439,-5.848765],[-35.36908,-5.848528],[-35.369375,-5.847809],[-35.368477,-5.847155],[-35.36586,-5.849617],[-35.364058,-5.846935],[-35.362388,-5.8473],[-35.362202,-5.845806],[-35.361427,-5.845989],[-35.360474,-5.846591],[-35.359279,-5.846357],[-35.3585,-5.845523],[-35.359624,-5.843127],[-35.361879,-5.839829],[-35.362407,-5.837734],[-35.364437,-5.837606],[-35.364613,-5.836888],[-35.36318,-5.836894],[-35.362459,-5.835761],[-35.362333,-5.834327],[-35.360957,-5.833615],[-35.359529,-5.834757],[-35.357921,-5.835601],[-35.354736,-5.840905],[-35.353423,-5.839568],[-35.352111,-5.839872],[-35.351579,-5.84107],[-35.353699,-5.842163],[-35.352401,-5.843456],[-35.350873,-5.843646],[-35.35063,-5.842748],[-35.34997,-5.841914],[-35.349076,-5.842336],[-35.349276,-5.843907],[-35.348346,-5.84443],[-35.347267,-5.843358],[-35.346791,-5.843778],[-35.345955,-5.843722],[-35.343374,-5.840445],[-35.347183,-5.837559],[-35.347604,-5.838394],[-35.348738,-5.83827],[-35.348017,-5.837077],[-35.345199,-5.834279],[-35.344298,-5.833087],[-35.342153,-5.834052],[-35.342455,-5.834828],[-35.341145,-5.835611],[-35.340605,-5.835135],[-35.33983,-5.835377],[-35.340014,-5.836572],[-35.341817,-5.839315],[-35.341108,-5.839969],[-35.339336,-5.840225],[-35.338795,-5.83939],[-35.337961,-5.839871],[-35.339484,-5.841468],[-35.338367,-5.842498],[-35.337861,-5.844535],[-35.338819,-5.845129],[-35.339413,-5.84429],[-35.340065,-5.843991],[-35.341472,-5.845232],[-35.340617,-5.846856],[-35.339959,-5.84638],[-35.338553,-5.848378],[-35.338994,-5.848917],[-35.339459,-5.848772],[-35.340684,-5.850381]],[[-35.357646,-5.861988],[-35.357011,-5.860775],[-35.358204,-5.860471],[-35.358388,-5.861487],[-35.357646,-5.861988]]],[[[-35.288325,-5.849867],[-35.290343,-5.850898],[-35.290637,-5.849641],[-35.291174,-5.849639],[-35.291168,-5.848264],[-35.291879,-5.846826],[-35.291722,-5.846042],[-35.293803,-5.841336],[-35.292809,-5.841225],[-35.292062,-5.840749],[-35.291297,-5.840619],[-35.291428,-5.840006],[-35.291046,-5.839893],[-35.290775,-5.839071],[-35.289609,-5.839057],[-35.289455,-5.838675],[-35.288881,-5.83839],[-35.288803,-5.838046],[-35.287082,-5.837613],[-35.286837,-5.838456],[-35.283432,-5.837494],[-35.282919,-5.838185],[-35.282735,-5.840041],[-35.282163,-5.840614],[-35.282557,-5.841284],[-35.282661,-5.84334],[-35.282446,-5.849368],[-35.281538,-5.849132],[-35.280659,-5.849792],[-35.279948,-5.849386],[-35.278938,-5.850466],[-35.277322,-5.849576],[-35.275182,-5.851976],[-35.274513,-5.853316],[-35.275522,-5.853303],[-35.286152,-5.850543],[-35.286804,-5.850936],[-35.287813,-5.85075],[-35.288325,-5.849867]]],[[[-35.274404,-5.853318],[-35.266244,-5.848939],[-35.263972,-5.848051],[-35.263258,-5.848652],[-35.262658,-5.848056],[-35.263014,-5.847397],[-35.262236,-5.846862],[-35.263126,-5.845483],[-35.263724,-5.84584],[-35.26503,-5.844041],[-35.264609,-5.843086],[-35.26544,-5.841827],[-35.264304,-5.841532],[-35.263531,-5.842372],[-35.261982,-5.843156],[-35.260322,-5.846033],[-35.258228,-5.845084],[-35.257337,-5.846284],[-35.256387,-5.845779],[-35.257241,-5.84455],[-35.257719,-5.844668],[-35.258669,-5.843468],[-35.259268,-5.843825],[-35.260268,-5.840113],[-35.261107,-5.840768],[-35.263248,-5.838726],[-35.263958,-5.837288],[-35.265394,-5.83794],[-35.264922,-5.839258],[-35.266177,-5.839611],[-35.267602,-5.837752],[-35.268673,-5.836851],[-35.268608,-5.835356],[-35.266993,-5.834765],[-35.267376,-5.83355],[-35.263966,-5.831651],[-35.260829,-5.83848],[-35.259093,-5.83735],[-35.255025,-5.835453],[-35.250631,-5.841391],[-35.250221,-5.842264],[-35.253054,-5.841878],[-35.257937,-5.848422],[-35.259005,-5.849454],[-35.259378,-5.848847],[-35.260629,-5.848304],[-35.261527,-5.848838],[-35.261648,-5.849256],[-35.260993,-5.849737],[-35.260318,-5.850722],[-35.263157,-5.853466],[-35.274404,-5.853318]]],[[[-35.248003,-5.841341],[-35.245908,-5.839855],[-35.245013,-5.840098],[-35.24426,-5.841302],[-35.247977,-5.842569],[-35.248977,-5.842433],[-35.248897,-5.840979],[-35.248003,-5.841341]]],[[[-35.278747,-5.840099],[-35.279524,-5.840215],[-35.279641,-5.839856],[-35.278984,-5.839619],[-35.279903,-5.838828],[-35.28008,-5.837946],[-35.278982,-5.837453],[-35.279271,-5.836868],[-35.27843,-5.835496],[-35.277472,-5.834842],[-35.276937,-5.835562],[-35.277061,-5.836518],[-35.276347,-5.837238],[-35.274738,-5.838082],[-35.275696,-5.838556],[-35.275399,-5.838976],[-35.273964,-5.838384],[-35.273133,-5.839583],[-35.272956,-5.840301],[-35.27171,-5.84228],[-35.270354,-5.846351],[-35.27113,-5.846288],[-35.275177,-5.843162],[-35.276787,-5.842678],[-35.278044,-5.84345],[-35.279593,-5.842547],[-35.280065,-5.841349],[-35.278989,-5.840995],[-35.278215,-5.841416],[-35.278153,-5.840998],[-35.278747,-5.840099]]],[[[-35.337339,-5.833325],[-35.336718,-5.833375],[-35.336481,-5.833759],[-35.335477,-5.833476],[-35.333559,-5.834375],[-35.335709,-5.835665],[-35.337168,-5.838212],[-35.340141,-5.836766],[-35.337339,-5.833325]]],[[[-35.318986,-5.826922],[-35.319343,-5.826442],[-35.318678,-5.824531],[-35.318021,-5.824534],[-35.317958,-5.823578],[-35.316823,-5.823582],[-35.316466,-5.823823],[-35.31665,-5.824898],[-35.315815,-5.825081],[-35.31588,-5.826516],[-35.317432,-5.82645],[-35.317613,-5.826927],[-35.318986,-5.826922]]],[[[-35.311931,-5.82432],[-35.313367,-5.825211],[-35.314439,-5.824549],[-35.315513,-5.824305],[-35.315511,-5.823767],[-35.316523,-5.823045],[-35.315862,-5.822032],[-35.315149,-5.822991],[-35.311931,-5.82432]]],[[[-35.369123,-5.823849],[-35.36979,-5.826297],[-35.370386,-5.826115],[-35.37008,-5.824263],[-35.368819,-5.822654],[-35.369113,-5.821517],[-35.368159,-5.82176],[-35.367319,-5.820807],[-35.366306,-5.82117],[-35.366009,-5.82159],[-35.366309,-5.822067],[-35.366726,-5.821766],[-35.366729,-5.822484],[-35.367504,-5.822241],[-35.369123,-5.823849]]],[[[-35.365057,-5.822431],[-35.365716,-5.822966],[-35.366729,-5.822484],[-35.366073,-5.822666],[-35.365772,-5.82195],[-35.365174,-5.821773],[-35.365057,-5.822431]]],[[[-35.3155,-5.821256],[-35.316215,-5.820775],[-35.31609,-5.81934],[-35.31543,-5.818745],[-35.313338,-5.817976],[-35.312915,-5.816842],[-35.312681,-5.817979],[-35.310468,-5.81878],[-35.309755,-5.819381],[-35.309278,-5.820652],[-35.30928,-5.821309],[-35.310058,-5.821545],[-35.311364,-5.819926],[-35.311669,-5.818701],[-35.312746,-5.819234],[-35.312927,-5.819652],[-35.313283,-5.819232],[-35.313413,-5.821862],[-35.313949,-5.821501],[-35.314248,-5.82168],[-35.31514,-5.820779],[-35.3155,-5.821256]]],[[[-35.366061,-5.819796],[-35.367615,-5.818941],[-35.367309,-5.818416],[-35.365459,-5.818663],[-35.364502,-5.818069],[-35.364862,-5.818605],[-35.364506,-5.819085],[-35.366061,-5.819796]]],[[[-35.307419,-5.817657],[-35.307183,-5.818375],[-35.307275,-5.818999],[-35.308201,-5.819088],[-35.309035,-5.818726],[-35.309213,-5.818307],[-35.307419,-5.817657]]],[[[-35.317023,-5.815644],[-35.316836,-5.813732],[-35.316444,-5.813832],[-35.316249,-5.816126],[-35.316854,-5.818096],[-35.317746,-5.817315],[-35.318759,-5.816833],[-35.318696,-5.816056],[-35.31798,-5.816119],[-35.317023,-5.815644]]],[[[-35.361283,-5.807769],[-35.360658,-5.806671],[-35.359693,-5.806785],[-35.360268,-5.807356],[-35.360682,-5.810224],[-35.361245,-5.810208],[-35.361481,-5.809394],[-35.361283,-5.807769]]],[[[-35.313717,-5.808408],[-35.313754,-5.807822],[-35.312937,-5.807575],[-35.313179,-5.808411],[-35.313717,-5.808408]]],[[[-35.351918,-5.8084],[-35.350199,-5.808465],[-35.349042,-5.806002],[-35.348015,-5.806982],[-35.34876,-5.80993],[-35.350018,-5.809408],[-35.352081,-5.809227],[-35.354956,-5.80856],[-35.354672,-5.810536],[-35.35524,-5.810993],[-35.356786,-5.810642],[-35.357298,-5.809779],[-35.357233,-5.807943],[-35.356713,-5.806797],[-35.357223,-5.805475],[-35.357451,-5.805187],[-35.35947,-5.805327],[-35.360214,-5.805094],[-35.359982,-5.804406],[-35.359408,-5.804294],[-35.358773,-5.803206],[-35.358598,-5.802289],[-35.357502,-5.800629],[-35.356473,-5.801322],[-35.35579,-5.802358],[-35.354413,-5.802019],[-35.354071,-5.802422],[-35.35608,-5.803332],[-35.356657,-5.804248],[-35.356202,-5.804881],[-35.354711,-5.804715],[-35.354607,-5.807356],[-35.354035,-5.807531],[-35.353554,-5.802252],[-35.352866,-5.802198],[-35.353222,-5.805009],[-35.352192,-5.805357],[-35.352425,-5.806332],[-35.351451,-5.806393],[-35.351918,-5.8084]]],[[[-35.332453,-5.80265],[-35.332968,-5.802361],[-35.333827,-5.8023],[-35.333489,-5.800728],[-35.3328,-5.800329],[-35.331655,-5.800564],[-35.331511,-5.801908],[-35.332453,-5.80265]]],[[[-35.206069,-5.817108],[-35.212732,-5.818631],[-35.22263,-5.815205],[-35.227008,-5.814253],[-35.236519,-5.822185],[-35.240103,-5.828011],[-35.243355,-5.839919],[-35.245317,-5.837875],[-35.245847,-5.836139],[-35.246267,-5.836556],[-35.24865,-5.835231],[-35.248826,-5.834393],[-35.249721,-5.83445],[-35.25074,-5.835283],[-35.251214,-5.834384],[-35.254728,-5.832337],[-35.255738,-5.831077],[-35.256393,-5.830716],[-35.257527,-5.830592],[-35.257578,-5.828439],[-35.258294,-5.828257],[-35.258716,-5.829152],[-35.259135,-5.829449],[-35.26015,-5.829565],[-35.26402,-5.826679],[-35.264975,-5.826735],[-35.269673,-5.821992],[-35.27033,-5.822169],[-35.270507,-5.82169],[-35.270238,-5.820699],[-35.269204,-5.820187],[-35.268055,-5.820564],[-35.268172,-5.819906],[-35.266257,-5.818837],[-35.265481,-5.81902],[-35.264047,-5.818727],[-35.263687,-5.81825],[-35.263032,-5.818611],[-35.262553,-5.818194],[-35.260705,-5.819099],[-35.260287,-5.818861],[-35.259571,-5.818984],[-35.258537,-5.818565],[-35.257845,-5.817592],[-35.257041,-5.817136],[-35.256068,-5.817599],[-35.255786,-5.818748],[-35.254987,-5.81944],[-35.254742,-5.820737],[-35.252832,-5.820924],[-35.252351,-5.820208],[-35.252349,-5.819049],[-35.251627,-5.818238],[-35.251918,-5.816264],[-35.252273,-5.815545],[-35.251793,-5.814949],[-35.251375,-5.814951],[-35.250895,-5.814235],[-35.251551,-5.814053],[-35.250711,-5.81304],[-35.249577,-5.813224],[-35.249759,-5.81394],[-35.249102,-5.813943],[-35.248326,-5.813767],[-35.247722,-5.812095],[-35.246741,-5.812532],[-35.246376,-5.811376],[-35.247446,-5.810056],[-35.246607,-5.809401],[-35.245354,-5.809646],[-35.24448,-5.807623],[-35.244001,-5.807207],[-35.245666,-5.805526],[-35.24567,-5.806662],[-35.246269,-5.807138],[-35.246627,-5.806897],[-35.247235,-5.805876],[-35.247905,-5.80551],[-35.247601,-5.804136],[-35.246695,-5.80412],[-35.246375,-5.803729],[-35.245718,-5.803493],[-35.246199,-5.804388],[-35.245127,-5.805169],[-35.244411,-5.805112],[-35.243332,-5.80422],[-35.242559,-5.80494],[-35.240579,-5.802437],[-35.241056,-5.802315],[-35.241351,-5.801477],[-35.241878,-5.801687],[-35.241827,-5.800937],[-35.242313,-5.801577],[-35.242364,-5.800875],[-35.242781,-5.800694],[-35.242904,-5.80165],[-35.243322,-5.801589],[-35.243317,-5.800274],[-35.243974,-5.80051],[-35.245996,-5.798409],[-35.247297,-5.795295],[-35.247114,-5.794399],[-35.246157,-5.793805],[-35.246334,-5.793206],[-35.245495,-5.792552],[-35.244241,-5.792317],[-35.243641,-5.791602],[-35.246303,-5.785373],[-35.246957,-5.784713],[-35.246237,-5.783819],[-35.242866,-5.791845],[-35.240961,-5.793347],[-35.240721,-5.793109],[-35.240304,-5.793349],[-35.240307,-5.794067],[-35.240069,-5.794307],[-35.239471,-5.793951],[-35.238579,-5.794791],[-35.238039,-5.794255],[-35.236849,-5.795217],[-35.237031,-5.795993],[-35.231957,-5.796253],[-35.229747,-5.795537],[-35.229787,-5.795118],[-35.229385,-5.79487],[-35.229515,-5.794105],[-35.228443,-5.793363],[-35.228592,-5.791197],[-35.225425,-5.790653],[-35.224674,-5.790764],[-35.224419,-5.789904],[-35.223156,-5.789829],[-35.220645,-5.789002],[-35.220446,-5.788993],[-35.219874,-5.790261],[-35.217904,-5.790269],[-35.216295,-5.790992],[-35.215755,-5.790397],[-35.216641,-5.787942],[-35.21305,-5.785683],[-35.210654,-5.78366],[-35.210651,-5.782942],[-35.210354,-5.783183],[-35.210054,-5.782825],[-35.210172,-5.782346],[-35.209095,-5.781932],[-35.208794,-5.781215],[-35.20933,-5.780974],[-35.208669,-5.779781],[-35.207894,-5.780083],[-35.207346,-5.777394],[-35.206563,-5.775603],[-35.206501,-5.774946],[-35.205781,-5.774112],[-35.204023,-5.767063],[-35.203602,-5.76619],[-35.204225,-5.765351],[-35.204058,-5.76478],[-35.203306,-5.764849],[-35.2033,-5.765384],[-35.202942,-5.765385],[-35.202713,-5.764832],[-35.201984,-5.764731],[-35.202955,-5.763059],[-35.202512,-5.762725],[-35.202966,-5.761748],[-35.202678,-5.761347],[-35.201262,-5.76074],[-35.200579,-5.761853],[-35.201287,-5.762233],[-35.201442,-5.763627],[-35.200269,-5.764053],[-35.199546,-5.769246],[-35.20021,-5.769253],[-35.201461,-5.768471],[-35.201762,-5.769127],[-35.199319,-5.77087],[-35.198207,-5.775204],[-35.196922,-5.778273],[-35.196922,-5.780486],[-35.20369,-5.784557],[-35.204126,-5.788654],[-35.201881,-5.793218],[-35.202072,-5.7995],[-35.203404,-5.80483],[-35.202452,-5.809494],[-35.202738,-5.814634],[-35.205022,-5.815585],[-35.206069,-5.817108]]],[[[-35.357642,-5.792994],[-35.356666,-5.792424],[-35.356664,-5.792137],[-35.357064,-5.791734],[-35.357114,-5.789897],[-35.358661,-5.789833],[-35.35848,-5.787825],[-35.356302,-5.787777],[-35.354184,-5.788302],[-35.3492,-5.788782],[-35.348282,-5.788556],[-35.348509,-5.787924],[-35.349138,-5.787519],[-35.348049,-5.787639],[-35.34725,-5.788273],[-35.345931,-5.788049],[-35.34484,-5.787537],[-35.343065,-5.787946],[-35.34259,-5.788837],[-35.352688,-5.789767],[-35.353264,-5.790396],[-35.353548,-5.789763],[-35.356239,-5.78935],[-35.355857,-5.793944],[-35.356172,-5.797707],[-35.354916,-5.798975],[-35.355664,-5.79966],[-35.356975,-5.798048],[-35.357083,-5.79644],[-35.357712,-5.796036],[-35.357366,-5.795406],[-35.357642,-5.792994]]],[[[-35.376947,-5.776897],[-35.375932,-5.776902],[-35.370207,-5.778121],[-35.368535,-5.778009],[-35.368278,-5.777777],[-35.367839,-5.778201],[-35.367562,-5.780555],[-35.366234,-5.780561],[-35.365051,-5.788299],[-35.367998,-5.788933],[-35.368219,-5.787573],[-35.366386,-5.787218],[-35.36689,-5.784404],[-35.368839,-5.784395],[-35.368328,-5.78566],[-35.368389,-5.786521],[-35.372862,-5.787076],[-35.374038,-5.780643],[-35.376576,-5.780378],[-35.376947,-5.776897]]],[[[-35.293573,-5.755069],[-35.294408,-5.754887],[-35.295426,-5.7556],[-35.297888,-5.759357],[-35.299915,-5.758512],[-35.299613,-5.757676],[-35.300683,-5.756715],[-35.300322,-5.755939],[-35.301812,-5.755335],[-35.302476,-5.757246],[-35.302181,-5.757965],[-35.306679,-5.763208],[-35.306972,-5.761772],[-35.308286,-5.761946],[-35.307674,-5.764258],[-35.307724,-5.764927],[-35.309111,-5.7654],[-35.31016,-5.765013],[-35.311306,-5.765056],[-35.314883,-5.763798],[-35.314977,-5.763367],[-35.327637,-5.761159],[-35.3266,-5.760881],[-35.324455,-5.759354],[-35.32476,-5.761606],[-35.322314,-5.761974],[-35.32147,-5.760124],[-35.323902,-5.758961],[-35.321191,-5.757031],[-35.319254,-5.756371],[-35.317485,-5.755254],[-35.316854,-5.753466],[-35.315873,-5.753079],[-35.312367,-5.754022],[-35.308429,-5.75268],[-35.307426,-5.750521],[-35.30701,-5.748558],[-35.30576,-5.747428],[-35.304866,-5.746943],[-35.304716,-5.747278],[-35.302962,-5.746259],[-35.30255,-5.74649],[-35.301457,-5.746492],[-35.300552,-5.74624],[-35.300463,-5.745636],[-35.300669,-5.745294],[-35.300166,-5.744642],[-35.299664,-5.744568],[-35.298896,-5.744905],[-35.298731,-5.74579],[-35.298129,-5.746117],[-35.296932,-5.745903],[-35.296262,-5.74633],[-35.295877,-5.747634],[-35.29301,-5.748503],[-35.292054,-5.749291],[-35.292776,-5.749931],[-35.29236,-5.750351],[-35.29302,-5.751006],[-35.292305,-5.751487],[-35.293024,-5.752082],[-35.292728,-5.752621],[-35.292429,-5.752623],[-35.292013,-5.753043],[-35.291415,-5.752926],[-35.291174,-5.752329],[-35.290576,-5.752092],[-35.290515,-5.751674],[-35.289642,-5.751281],[-35.281826,-5.757605],[-35.280875,-5.761233],[-35.2812,-5.764214],[-35.280738,-5.765941],[-35.284715,-5.764253],[-35.288797,-5.769857],[-35.289814,-5.770272],[-35.29249,-5.767869],[-35.288529,-5.762623],[-35.287928,-5.76149],[-35.288577,-5.759574],[-35.288215,-5.758738],[-35.28868,-5.755627],[-35.29096,-5.758488],[-35.290008,-5.759209],[-35.291088,-5.7607],[-35.290497,-5.761958],[-35.289722,-5.76232],[-35.290987,-5.765065],[-35.291404,-5.765004],[-35.291644,-5.765361],[-35.292657,-5.764879],[-35.291576,-5.763209],[-35.293364,-5.762484],[-35.295286,-5.765466],[-35.29625,-5.765777],[-35.299948,-5.77088],[-35.29809,-5.772083],[-35.299195,-5.773753],[-35.296955,-5.774767],[-35.297264,-5.776146],[-35.296991,-5.779406],[-35.294119,-5.777811],[-35.290905,-5.77679],[-35.290617,-5.77639],[-35.287814,-5.775249],[-35.286955,-5.778282],[-35.287617,-5.778752],[-35.287702,-5.778296],[-35.293786,-5.780567],[-35.293102,-5.781546],[-35.291611,-5.78115],[-35.290188,-5.783681],[-35.288749,-5.782022],[-35.287269,-5.784669],[-35.286348,-5.783754],[-35.28549,-5.783987],[-35.284798,-5.783072],[-35.28537,-5.78261],[-35.284674,-5.780661],[-35.283816,-5.781066],[-35.284739,-5.782555],[-35.284168,-5.783017],[-35.284172,-5.783992],[-35.283885,-5.783994],[-35.283367,-5.783479],[-35.281418,-5.783372],[-35.282404,-5.786123],[-35.283091,-5.786121],[-35.284536,-5.7891],[-35.285183,-5.793287],[-35.286898,-5.792247],[-35.287423,-5.794426],[-35.287651,-5.794023],[-35.287302,-5.791886],[-35.288068,-5.791592],[-35.28844,-5.790806],[-35.290211,-5.789364],[-35.287673,-5.785413],[-35.287672,-5.785012],[-35.290658,-5.786549],[-35.291338,-5.784595],[-35.295239,-5.78567],[-35.295866,-5.784749],[-35.296153,-5.784805],[-35.29638,-5.784288],[-35.296035,-5.783887],[-35.296311,-5.781303],[-35.298779,-5.782269],[-35.298672,-5.784278],[-35.297355,-5.784341],[-35.297542,-5.788243],[-35.295536,-5.788079],[-35.295656,-5.789399],[-35.29669,-5.790084],[-35.298125,-5.790537],[-35.298357,-5.791225],[-35.300364,-5.791618],[-35.300614,-5.788968],[-35.301415,-5.789029],[-35.301428,-5.792377],[-35.302145,-5.792434],[-35.302033,-5.794228],[-35.30269,-5.794285],[-35.302625,-5.79303],[-35.303043,-5.792968],[-35.303272,-5.790755],[-35.302675,-5.790698],[-35.302851,-5.7898],[-35.303508,-5.790037],[-35.304101,-5.789018],[-35.305715,-5.78937],[-35.30584,-5.790864],[-35.306915,-5.79092],[-35.306979,-5.792056],[-35.309607,-5.792224],[-35.309961,-5.791206],[-35.310915,-5.790903],[-35.311572,-5.79114],[-35.312108,-5.790719],[-35.311745,-5.789645],[-35.310548,-5.788812],[-35.310342,-5.788018],[-35.311676,-5.787038],[-35.31325,-5.789442],[-35.313994,-5.789037],[-35.313811,-5.787748],[-35.314487,-5.787885],[-35.314533,-5.787359],[-35.315488,-5.787403],[-35.315929,-5.790032],[-35.325711,-5.787983],[-35.328014,-5.787217],[-35.328973,-5.788169],[-35.328917,-5.789066],[-35.328562,-5.789785],[-35.328086,-5.790146],[-35.32797,-5.791043],[-35.328285,-5.795108],[-35.330849,-5.794141],[-35.339077,-5.796654],[-35.339589,-5.79579],[-35.339297,-5.794586],[-35.340213,-5.794181],[-35.34056,-5.79504],[-35.341645,-5.79406],[-35.341584,-5.793085],[-35.34021,-5.793435],[-35.339975,-5.792173],[-35.341978,-5.791418],[-35.342846,-5.793366],[-35.343705,-5.793248],[-35.343753,-5.791067],[-35.343581,-5.790953],[-35.342264,-5.791417],[-35.341347,-5.791364],[-35.341572,-5.79033],[-35.342833,-5.790267],[-35.343002,-5.789692],[-35.342527,-5.788831],[-35.337812,-5.78897],[-35.33674,-5.789513],[-35.338253,-5.78006],[-35.337225,-5.779919],[-35.337366,-5.778713],[-35.33814,-5.778292],[-35.339847,-5.772425],[-35.341344,-5.764837],[-35.336147,-5.763442],[-35.335934,-5.76431],[-35.336113,-5.764489],[-35.335885,-5.76712],[-35.336722,-5.767416],[-35.337447,-5.769326],[-35.336736,-5.770824],[-35.333094,-5.77048],[-35.332083,-5.768966],[-35.33097,-5.769038],[-35.330708,-5.769739],[-35.327536,-5.769068],[-35.327069,-5.77176],[-35.324564,-5.772249],[-35.32457,-5.773684],[-35.322832,-5.773956],[-35.322024,-5.773983],[-35.322019,-5.772835],[-35.320824,-5.772362],[-35.318091,-5.772636],[-35.318051,-5.772203],[-35.31581,-5.77072],[-35.312484,-5.770045],[-35.311224,-5.770394],[-35.310768,-5.769619],[-35.312198,-5.768895],[-35.31118,-5.767943],[-35.309988,-5.768486],[-35.306932,-5.765628],[-35.305027,-5.766951],[-35.305866,-5.767785],[-35.305151,-5.768147],[-35.30167,-5.763557],[-35.29869,-5.764645],[-35.295205,-5.760205],[-35.295502,-5.759785],[-35.292864,-5.756866],[-35.293996,-5.756443],[-35.293575,-5.755608],[-35.293573,-5.755069]],[[-35.311815,-5.774811],[-35.310153,-5.774703],[-35.310112,-5.770753],[-35.311224,-5.770394],[-35.311815,-5.774811]],[[-35.333964,-5.772793],[-35.333539,-5.777115],[-35.330433,-5.776769],[-35.329873,-5.778017],[-35.326146,-5.777554],[-35.325377,-5.776409],[-35.326011,-5.775651],[-35.326124,-5.774156],[-35.326661,-5.773974],[-35.326896,-5.773017],[-35.330897,-5.773538],[-35.331132,-5.772521],[-35.333964,-5.772793]]],[[[-35.23421,-5.760958],[-35.234724,-5.760502],[-35.235181,-5.760844],[-35.237729,-5.758346],[-35.238708,-5.760179],[-35.240229,-5.759785],[-35.240828,-5.76044],[-35.242799,-5.760701],[-35.244675,-5.759136],[-35.246103,-5.759315],[-35.246888,-5.760446],[-35.246771,-5.761134],[-35.24463,-5.763056],[-35.245617,-5.763799],[-35.24663,-5.763317],[-35.247709,-5.764847],[-35.248747,-5.764274],[-35.249324,-5.76516],[-35.250089,-5.765561],[-35.250802,-5.766929],[-35.253122,-5.766037],[-35.253241,-5.768],[-35.251159,-5.768713],[-35.251457,-5.770439],[-35.24991,-5.774484],[-35.249375,-5.7749],[-35.249375,-5.776982],[-35.248423,-5.776982],[-35.247233,-5.777696],[-35.248364,-5.779659],[-35.249672,-5.777993],[-35.250981,-5.778826],[-35.252171,-5.780254],[-35.254312,-5.779421],[-35.257465,-5.778529],[-35.258893,-5.77835],[-35.260439,-5.777458],[-35.261451,-5.777398],[-35.262045,-5.779956],[-35.262402,-5.778707],[-35.262224,-5.776625],[-35.263397,-5.777627],[-35.265131,-5.778457],[-35.266378,-5.776838],[-35.268632,-5.776286],[-35.269243,-5.77841],[-35.27073,-5.779124],[-35.270934,-5.779717],[-35.271738,-5.779325],[-35.271951,-5.780311],[-35.273348,-5.779361],[-35.273208,-5.780993],[-35.274359,-5.783763],[-35.275014,-5.783645],[-35.274895,-5.782395],[-35.275489,-5.782336],[-35.27543,-5.781741],[-35.277076,-5.781986],[-35.278078,-5.781767],[-35.279389,-5.781259],[-35.280665,-5.780313],[-35.2812,-5.77948],[-35.28098,-5.778813],[-35.279407,-5.779729],[-35.28135,-5.777859],[-35.281615,-5.778065],[-35.28172,-5.778954],[-35.283104,-5.778945],[-35.283401,-5.778707],[-35.282211,-5.777042],[-35.282691,-5.776953],[-35.28344,-5.777548],[-35.283642,-5.776981],[-35.285161,-5.777544],[-35.285774,-5.777359],[-35.285497,-5.776822],[-35.284589,-5.77692],[-35.285522,-5.775656],[-35.286575,-5.771759],[-35.28722,-5.771757],[-35.280284,-5.766154],[-35.277312,-5.767312],[-35.276055,-5.766512],[-35.27123,-5.760007],[-35.271648,-5.75754],[-35.271508,-5.757289],[-35.269989,-5.756831],[-35.26981,-5.756177],[-35.267669,-5.75444],[-35.263618,-5.753596],[-35.262577,-5.753583],[-35.261665,-5.753911],[-35.261547,-5.754304],[-35.258981,-5.756212],[-35.258124,-5.755052],[-35.255266,-5.753117],[-35.251438,-5.753092],[-35.250475,-5.754045],[-35.246106,-5.754788],[-35.244678,-5.756358],[-35.242465,-5.7575],[-35.237682,-5.757286],[-35.233073,-5.755884],[-35.232782,-5.756732],[-35.233924,-5.757189],[-35.233296,-5.757932],[-35.233753,-5.758446],[-35.23164,-5.76033],[-35.232554,-5.761472],[-35.231983,-5.762672],[-35.233353,-5.763414],[-35.233753,-5.762386],[-35.234324,-5.762443],[-35.234724,-5.761644],[-35.23421,-5.760958]]],[[[-35.367539,-5.774258],[-35.373327,-5.77079],[-35.374554,-5.773009],[-35.375411,-5.772432],[-35.374761,-5.771071],[-35.374186,-5.7705],[-35.375472,-5.769777],[-35.376119,-5.770205],[-35.378982,-5.769762],[-35.379338,-5.76933],[-35.381128,-5.768964],[-35.382413,-5.768026],[-35.383916,-5.767589],[-35.383625,-5.766514],[-35.381189,-5.766596],[-35.380472,-5.766312],[-35.381043,-5.765736],[-35.380897,-5.765163],[-35.381395,-5.764443],[-35.380668,-5.761863],[-35.377448,-5.762594],[-35.376944,-5.762094],[-35.376646,-5.759369],[-35.374553,-5.760002],[-35.370321,-5.764499],[-35.361727,-5.76676],[-35.360401,-5.766688],[-35.357847,-5.768846],[-35.353121,-5.76944],[-35.352482,-5.770805],[-35.349908,-5.771892],[-35.350056,-5.773183],[-35.353638,-5.773096],[-35.358218,-5.772145],[-35.358792,-5.772358],[-35.365091,-5.771255],[-35.365819,-5.773907],[-35.366892,-5.773687],[-35.367539,-5.774258]]],[[[-35.226764,-5.756043],[-35.227657,-5.756579],[-35.228132,-5.755686],[-35.229441,-5.756638],[-35.229977,-5.755627],[-35.22843,-5.754853],[-35.230255,-5.752812],[-35.231089,-5.753401],[-35.231476,-5.752066],[-35.233268,-5.751057],[-35.236255,-5.746793],[-35.236112,-5.744437],[-35.234185,-5.743438],[-35.233037,-5.743684],[-35.234322,-5.744865],[-35.233604,-5.746304],[-35.231998,-5.745293],[-35.231581,-5.745828],[-35.229024,-5.744163],[-35.229559,-5.743389],[-35.22825,-5.742318],[-35.228548,-5.741962],[-35.228369,-5.741367],[-35.229499,-5.740653],[-35.228964,-5.73982],[-35.229833,-5.739016],[-35.228369,-5.736446],[-35.228049,-5.736277],[-35.22845,-5.735735],[-35.228117,-5.735372],[-35.22344,-5.735617],[-35.223198,-5.736369],[-35.223568,-5.737132],[-35.222861,-5.740848],[-35.221849,-5.742454],[-35.223337,-5.743227],[-35.223158,-5.744834],[-35.2227,-5.746149],[-35.223611,-5.748369],[-35.223493,-5.74944],[-35.222957,-5.749738],[-35.223671,-5.751998],[-35.224028,-5.752474],[-35.223909,-5.753069],[-35.224444,-5.757471],[-35.225218,-5.759731],[-35.222184,-5.761219],[-35.223136,-5.762349],[-35.225218,-5.76217],[-35.226229,-5.760207],[-35.225575,-5.759969],[-35.224801,-5.757352],[-35.225337,-5.756222],[-35.226229,-5.757054],[-35.226764,-5.756043]],[[-35.223949,-5.747161],[-35.22383,-5.746328],[-35.224128,-5.745495],[-35.225674,-5.746566],[-35.225337,-5.747418],[-35.223949,-5.747161]],[[-35.227578,-5.751325],[-35.229065,-5.748529],[-35.230076,-5.749302],[-35.228251,-5.75289],[-35.229203,-5.753366],[-35.228846,-5.753961],[-35.228013,-5.753366],[-35.227121,-5.754378],[-35.225872,-5.753842],[-35.226705,-5.752236],[-35.227578,-5.751325]]],[[[-35.21375,-5.745512],[-35.221085,-5.745216],[-35.220787,-5.743981],[-35.21828,-5.744051],[-35.217788,-5.742472],[-35.218459,-5.741978],[-35.217864,-5.741324],[-35.217504,-5.741559],[-35.217312,-5.740945],[-35.216065,-5.740142],[-35.216317,-5.739599],[-35.214771,-5.740194],[-35.214235,-5.739956],[-35.213878,-5.739301],[-35.211051,-5.738859],[-35.207564,-5.739961],[-35.205076,-5.742038],[-35.204836,-5.743525],[-35.204479,-5.743703],[-35.20436,-5.748343],[-35.204004,-5.74876],[-35.204182,-5.749473],[-35.202219,-5.75215],[-35.202635,-5.752507],[-35.203171,-5.753697],[-35.203885,-5.753578],[-35.204955,-5.754649],[-35.206324,-5.757207],[-35.207335,-5.75679],[-35.204836,-5.753578],[-35.205312,-5.751853],[-35.20787,-5.749414],[-35.208346,-5.750068],[-35.21375,-5.745512]]]]}}]}