{"type":"FeatureCollection","features":[{"type":"Feature","id":1,"properties":{"area_atuacao":"Nascentes do Potengi — Cerro Corá","acao":"Cercamento da área de nascente","fonte_dado":"CercaNascente","elemento":1},"geometry":{"type":"Polygon","coordinates":[[[-36.389828,-6.044253],[-36.391226,-6.04403],[-36.391167,-6.043884],[-36.391052,-6.04376],[-36.390899,-6.043687],[-36.39073,-6.043676],[-36.390569,-6.043727],[-36.390376,-6.043876],[-36.390279,-6.043896],[-36.390124,-6.043975],[-36.389922,-6.044129],[-36.389835,-6.044221],[-36.389828,-6.044253]]]}},{"type":"Feature","id":2,"properties":{"area_atuacao":"Nascentes do Potengi — Cerro Corá","acao":"Cercamento da área de nascente","fonte_dado":"CercaNascente","elemento":2},"geometry":{"type":"Polygon","coordinates":[[[-36.39018,-6.045586],[-36.390293,-6.045586],[-36.390403,-6.045559],[-36.390557,-6.045457],[-36.389839,-6.045346],[-36.389889,-6.045424],[-36.389972,-6.045502],[-36.39007,-6.045557],[-36.39018,-6.045586]]]}},{"type":"Feature","id":3,"properties":{"area_atuacao":"Nascentes do Potengi — Cerro Corá","acao":"Cercamento da área de nascente","fonte_dado":"CercaNascente","elemento":3},"geometry":{"type":"Polygon","coordinates":[[[-36.389762,-6.044549],[-36.389769,-6.044662],[-36.389801,-6.044763],[-36.389771,-6.044892],[-36.389794,-6.045065],[-36.389788,-6.045164],[-36.389831,-6.045327],[-36.390571,-6.045441],[-36.390619,-6.045382],[-36.390667,-6.04528],[-36.390689,-6.045168],[-36.390682,-6.045055],[-36.390775,-6.044946],[-36.390772,-6.04491],[-36.390852,-6.044792],[-36.390898,-6.044611],[-36.390895,-6.044562],[-36.391,-6.044521],[-36.391092,-6.044455],[-36.391192,-6.044318],[-36.391235,-6.044155],[-36.391226,-6.04403],[-36.38983,-6.044254],[-36.389762,-6.044549]]]}}]}