{"type":"FeatureCollection","features":[{"type":"Feature","id":1,"properties":{"nome":"Cerro Corá Eloy","fonte":"Pontos de coleta de solo do Projeto Potengi"},"geometry":{"type":"Point","coordinates":[-36.348383,-6.041307]}},{"type":"Feature","id":2,"properties":{"nome":"EAJ","fonte":"Pontos de coleta de solo do Projeto Potengi"},"geometry":{"type":"Point","coordinates":[-35.357929,-5.888134]}},{"type":"Feature","id":3,"properties":{"nome":"EAJ PERFIL","fonte":"Pontos de coleta de solo do Projeto Potengi"},"geometry":{"type":"Point","coordinates":[-35.358,-5.902]}},{"type":"Feature","id":4,"properties":{"nome":"Fazanda Mundo Novo","fonte":"Pontos de coleta de solo do Projeto Potengi"},"geometry":{"type":"Point","coordinates":[-36.181453,-5.927459]}},{"type":"Feature","id":5,"properties":{"nome":"P1","fonte":"Pontos de coleta de solo do Projeto Potengi"},"geometry":{"type":"Point","coordinates":[-35.512,-5.88]}},{"type":"Feature","id":6,"properties":{"nome":"P2","fonte":"Pontos de coleta de solo do Projeto Potengi"},"geometry":{"type":"Point","coordinates":[-35.514,-5.887]}},{"type":"Feature","id":7,"properties":{"nome":"P3","fonte":"Pontos de coleta de solo do Projeto Potengi"},"geometry":{"type":"Point","coordinates":[-35.514,-5.878]}},{"type":"Feature","id":8,"properties":{"nome":"P4","fonte":"Pontos de coleta de solo do Projeto Potengi"},"geometry":{"type":"Point","coordinates":[-35.518,-5.859]}},{"type":"Feature","id":9,"properties":{"nome":"P5","fonte":"Pontos de coleta de solo do Projeto Potengi"},"geometry":{"type":"Point","coordinates":[-35.524,-5.843]}},{"type":"Feature","id":10,"properties":{"nome":"P6","fonte":"Pontos de coleta de solo do Projeto Potengi"},"geometry":{"type":"Point","coordinates":[-35.53,-5.834]}},{"type":"Feature","id":11,"properties":{"nome":"P7","fonte":"Pontos de coleta de solo do Projeto Potengi"},"geometry":{"type":"Point","coordinates":[-35.53,-5.831]}},{"type":"Feature","id":12,"properties":{"nome":"P8","fonte":"Pontos de coleta de solo do Projeto Potengi"},"geometry":{"type":"Point","coordinates":[-35.533,-5.831]}},{"type":"Feature","id":13,"properties":{"nome":"P9","fonte":"Pontos de coleta de solo do Projeto Potengi"},"geometry":{"type":"Point","coordinates":[-35.563,-5.868]}},{"type":"Feature","id":14,"properties":{"nome":"P10","fonte":"Pontos de coleta de solo do Projeto Potengi"},"geometry":{"type":"Point","coordinates":[-35.642,-5.85]}},{"type":"Feature","id":15,"properties":{"nome":"P11","fonte":"Pontos de coleta de solo do Projeto Potengi"},"geometry":{"type":"Point","coordinates":[-35.714,-5.837]}},{"type":"Feature","id":16,"properties":{"nome":"P12","fonte":"Pontos de coleta de solo do Projeto Potengi"},"geometry":{"type":"Point","coordinates":[-35.768,-5.825]}},{"type":"Feature","id":17,"properties":{"nome":"P13","fonte":"Pontos de coleta de solo do Projeto Potengi"},"geometry":{"type":"Point","coordinates":[-35.768,-5.796]}},{"type":"Feature","id":18,"properties":{"nome":"P14","fonte":"Pontos de coleta de solo do Projeto Potengi"},"geometry":{"type":"Point","coordinates":[-35.829,-5.793]}},{"type":"Feature","id":19,"properties":{"nome":"P15","fonte":"Pontos de coleta de solo do Projeto Potengi"},"geometry":{"type":"Point","coordinates":[-35.758,-5.886]}},{"type":"Feature","id":20,"properties":{"nome":"P16","fonte":"Pontos de coleta de solo do Projeto Potengi"},"geometry":{"type":"Point","coordinates":[-35.754,-5.911]}},{"type":"Feature","id":21,"properties":{"nome":"P17","fonte":"Pontos de coleta de solo do Projeto Potengi"},"geometry":{"type":"Point","coordinates":[-35.725,-5.946]}},{"type":"Feature","id":22,"properties":{"nome":"P18","fonte":"Pontos de coleta de solo do Projeto Potengi"},"geometry":{"type":"Point","coordinates":[-35.473,-5.903]}},{"type":"Feature","id":23,"properties":{"nome":"P18","fonte":"Pontos de coleta de solo do Projeto Potengi"},"geometry":{"type":"Point","coordinates":[-35.711,-5.994]}},{"type":"Feature","id":24,"properties":{"nome":"P19","fonte":"Pontos de coleta de solo do Projeto Potengi"},"geometry":{"type":"Point","coordinates":[-35.666,-6.038]}},{"type":"Feature","id":25,"properties":{"nome":"P20","fonte":"Pontos de coleta de solo do Projeto Potengi"},"geometry":{"type":"Point","coordinates":[-35.565,-5.965]}},{"type":"Feature","id":26,"properties":{"nome":"P21","fonte":"Pontos de coleta de solo do Projeto Potengi"},"geometry":{"type":"Point","coordinates":[-35.534,-5.923]}},{"type":"Feature","id":27,"properties":{"nome":"P22","fonte":"Pontos de coleta de solo do Projeto Potengi"},"geometry":{"type":"Point","coordinates":[-35.494,-5.895]}},{"type":"Feature","id":28,"properties":{"nome":"P23","fonte":"Pontos de coleta de solo do Projeto Potengi"},"geometry":{"type":"Point","coordinates":[-35.441,-5.878]}},{"type":"Feature","id":29,"properties":{"nome":"P24","fonte":"Pontos de coleta de solo do Projeto Potengi"},"geometry":{"type":"Point","coordinates":[-35.378,-5.862]}},{"type":"Feature","id":30,"properties":{"nome":"P25","fonte":"Pontos de coleta de solo do Projeto Potengi"},"geometry":{"type":"Point","coordinates":[-35.368,-5.823]}},{"type":"Feature","id":31,"properties":{"nome":"P26","fonte":"Pontos de coleta de solo do Projeto Potengi"},"geometry":{"type":"Point","coordinates":[-35.361,-5.809]}},{"type":"Feature","id":32,"properties":{"nome":"P27","fonte":"Pontos de coleta de solo do Projeto Potengi"},"geometry":{"type":"Point","coordinates":[-35.34,-5.773]}},{"type":"Feature","id":33,"properties":{"nome":"P28","fonte":"Pontos de coleta de solo do Projeto Potengi"},"geometry":{"type":"Point","coordinates":[-35.288,-5.765]}},{"type":"Feature","id":34,"properties":{"nome":"P29","fonte":"Pontos de coleta de solo do Projeto Potengi"},"geometry":{"type":"Point","coordinates":[-35.212,-5.748]}},{"type":"Feature","id":35,"properties":{"nome":"P30","fonte":"Pontos de coleta de solo do Projeto Potengi"},"geometry":{"type":"Point","coordinates":[-35.198,-5.757]}},{"type":"Feature","id":36,"properties":{"nome":"Quilombo","fonte":"Pontos de coleta de solo do Projeto Potengi"},"geometry":{"type":"Point","coordinates":[-36.057503,-6.082715]}},{"type":"Feature","id":37,"properties":{"nome":"P31","data":"2023-10-20 12:59:57.0","fonte":"Pontos de coleta de solo do Projeto Potengi"},"geometry":{"type":"Point","coordinates":[-35.357109,-5.900729]}},{"type":"Feature","id":38,"properties":{"nome":"P32","data":"2023-10-20 13:24:57.0","fonte":"Pontos de coleta de solo do Projeto Potengi"},"geometry":{"type":"Point","coordinates":[-35.366597,-5.891489]}},{"type":"Feature","id":39,"properties":{"nome":"P33","data":"2023-10-20 13:39:08.0","fonte":"Pontos de coleta de solo do Projeto Potengi"},"geometry":{"type":"Point","coordinates":[-35.359347,-5.89714]}},{"type":"Feature","id":40,"properties":{"nome":"P34","data":"2023-11-09 13:56:58.0","fonte":"Pontos de coleta de solo do Projeto Potengi"},"geometry":{"type":"Point","coordinates":[-36.388982,-6.043803]}},{"type":"Feature","id":41,"properties":{"nome":"P35","data":"2023-11-09 14:04:56.0","fonte":"Pontos de coleta de solo do Projeto Potengi"},"geometry":{"type":"Point","coordinates":[-36.390575,-6.047323]}},{"type":"Feature","id":42,"properties":{"nome":"P36","data":"2023-11-09 14:16:03.0","fonte":"Pontos de coleta de solo do Projeto Potengi"},"geometry":{"type":"Point","coordinates":[-36.394139,-6.052164]}},{"type":"Feature","id":43,"properties":{"nome":"P37","data":"2023-11-09 14:34:11.0","fonte":"Pontos de coleta de solo do Projeto Potengi"},"geometry":{"type":"Point","coordinates":[-36.395496,-6.046056]}},{"type":"Feature","id":44,"properties":{"nome":"P38","data":"2023-11-09 16:16:30.0","fonte":"Pontos de coleta de solo do Projeto Potengi"},"geometry":{"type":"Point","coordinates":[-36.371205,-6.077314]}},{"type":"Feature","id":45,"properties":{"nome":"P39","data":"2023-11-09 17:40:38.0","fonte":"Pontos de coleta de solo do Projeto Potengi"},"geometry":{"type":"Point","coordinates":[-35.767186,-6.176405]}},{"type":"Feature","id":46,"properties":{"nome":"P40","data":"2023-11-09 17:52:46.0","fonte":"Pontos de coleta de solo do Projeto Potengi"},"geometry":{"type":"Point","coordinates":[-35.697133,-6.093064]}},{"type":"Feature","id":47,"properties":{"nome":"P41","data":"2023-11-10 10:16:53.0","fonte":"Pontos de coleta de solo do Projeto Potengi"},"geometry":{"type":"Point","coordinates":[-35.588445,-5.91574]}},{"type":"Feature","id":48,"properties":{"nome":"P42","data":"2023-11-10 10:25:49.0","fonte":"Pontos de coleta de solo do Projeto Potengi"},"geometry":{"type":"Point","coordinates":[-35.622282,-5.897134]}},{"type":"Feature","id":49,"properties":{"nome":"P43","data":"2023-11-10 10:38:53.0","fonte":"Pontos de coleta de solo do Projeto Potengi"},"geometry":{"type":"Point","coordinates":[-35.677107,-5.905192]}},{"type":"Feature","id":50,"properties":{"nome":"P44","data":"2023-11-10 10:58:07.0","fonte":"Pontos de coleta de solo do Projeto Potengi"},"geometry":{"type":"Point","coordinates":[-35.823691,-5.942009]}},{"type":"Feature","id":51,"properties":{"nome":"P45","data":"2023-11-10 15:28:37.0","fonte":"Pontos de coleta de solo do Projeto Potengi"},"geometry":{"type":"Point","coordinates":[-36.146259,-5.938888]}},{"type":"Feature","id":52,"properties":{"nome":"P46","data":"2023-11-10 15:38:47.0","fonte":"Pontos de coleta de solo do Projeto Potengi"},"geometry":{"type":"Point","coordinates":[-36.122396,-5.952026]}},{"type":"Feature","id":53,"properties":{"nome":"P47","data":"2023-11-10 15:49:38.0","fonte":"Pontos de coleta de solo do Projeto Potengi"},"geometry":{"type":"Point","coordinates":[-36.104007,-5.975865]}},{"type":"Feature","id":54,"properties":{"nome":"P48","data":"2023-11-10 17:16:33.0","fonte":"Pontos de coleta de solo do Projeto Potengi"},"geometry":{"type":"Point","coordinates":[-35.981105,-5.966865]}},{"type":"Feature","id":55,"properties":{"nome":"P49","data":"2023-11-10 17:26:03.0","fonte":"Pontos de coleta de solo do Projeto Potengi"},"geometry":{"type":"Point","coordinates":[-35.927661,-5.960462]}},{"type":"Feature","id":56,"properties":{"nome":"P50","data":"2023-11-10 17:39:26.0","fonte":"Pontos de coleta de solo do Projeto Potengi"},"geometry":{"type":"Point","coordinates":[-35.9503,-5.917488]}},{"type":"Feature","id":57,"properties":{"nome":"P51","data":"2023-11-10 17:53:55.0","fonte":"Pontos de coleta de solo do Projeto Potengi"},"geometry":{"type":"Point","coordinates":[-35.945443,-5.875784]}},{"type":"Feature","id":58,"properties":{"nome":"P52","data":"2023-11-10 18:07:17.0","fonte":"Pontos de coleta de solo do Projeto Potengi"},"geometry":{"type":"Point","coordinates":[-35.947614,-5.853312]}},{"type":"Feature","id":59,"properties":{"nome":"P53","data":"2023-11-10 18:26:24.0","fonte":"Pontos de coleta de solo do Projeto Potengi"},"geometry":{"type":"Point","coordinates":[-35.956657,-5.832711]}},{"type":"Feature","id":60,"properties":{"nome":"P54","data":"2023-11-10 18:34:12.0","fonte":"Pontos de coleta de solo do Projeto Potengi"},"geometry":{"type":"Point","coordinates":[-35.968876,-5.803493]}},{"type":"Feature","id":61,"properties":{"nome":"P55","informacoes":"Date Created: 2022-09-10T08:21:09-03:00<br>Latitude: -5.86616619191211<br>Longitude: -35.3608511746874<br>Northing: 0<br>Easting: 0<br>Description: <br>Elevation: 10617368","fonte":"Pontos de coleta de solo do Projeto Potengi"},"geometry":{"type":"Point","coordinates":[-35.360851,-5.866166]}},{"type":"Feature","id":62,"properties":{"nome":"P64","informacoes":"Date Created: 2022-09-10T12:35:35-03:00<br>Latitude: -5.97555305555556<br>Longitude: -36.016195<br>Northing: 0<br>Easting: 0<br>Description: <br>Elevation: 154978821","fonte":"Pontos de coleta de solo do Projeto Potengi"},"geometry":{"type":"Point","coordinates":[-36.016195,-5.975553]}},{"type":"Feature","id":63,"properties":{"nome":"P65","informacoes":"Date Created: 2022-09-10T15:45:34-03:00<br>Latitude: -5.96430583889766<br>Longitude: -35.8848775565721<br>Northing: 0<br>Easting: 0<br>Description: <br>Elevation: 103784302","fonte":"Pontos de coleta de solo do Projeto Potengi"},"geometry":{"type":"Point","coordinates":[-35.884878,-5.964306]}},{"type":"Feature","id":64,"properties":{"nome":"P66","informacoes":"Date Created: 2022-09-10T14:00:40-03:00<br>Latitude: -5.95178305555556<br>Longitude: -35.8439266666667<br>Northing: 0<br>Easting: 0<br>Description: <br>Elevation: 146725601","fonte":"Pontos de coleta de solo do Projeto Potengi"},"geometry":{"type":"Point","coordinates":[-35.843927,-5.951783]}},{"type":"Feature","id":65,"properties":{"nome":"P67","informacoes":"Date Created: 2022-09-10T14:11:02-03:00<br>Latitude: -5.92653305555556<br>Longitude: -35.7892916666667<br>Northing: 0<br>Easting: 0<br>Description: <br>Elevation: 132451202","fonte":"Pontos de coleta de solo do Projeto Potengi"},"geometry":{"type":"Point","coordinates":[-35.789292,-5.926533]}},{"type":"Feature","id":66,"properties":{"nome":"P68","informacoes":"Date Created: 2022-09-10T15:45:19-03:00<br>Latitude: -5.89845416945852<br>Longitude: -35.7574147692166<br>Northing: 0<br>Easting: 0<br>Description: <br>Elevation: 69168549","fonte":"Pontos de coleta de solo do Projeto Potengi"},"geometry":{"type":"Point","coordinates":[-35.757415,-5.898454]}},{"type":"Feature","id":67,"properties":{"nome":"P69","informacoes":"Date Created: 2022-09-10T14:36:01-03:00<br>Latitude: -5.86308305555556<br>Longitude: -35.7646733333333<br>Northing: 0<br>Easting: 0<br>Description: <br>Elevation: 91706490","fonte":"Pontos de coleta de solo do Projeto Potengi"},"geometry":{"type":"Point","coordinates":[-35.764673,-5.863083]}},{"type":"Feature","id":68,"properties":{"nome":"P70","informacoes":"Date Created: 2022-09-10T14:54:06-03:00<br>Latitude: -5.83664972222222<br>Longitude: -35.722105<br>Northing: 0<br>Easting: 0<br>Description: <br>Elevation: 0","fonte":"Pontos de coleta de solo do Projeto Potengi"},"geometry":{"type":"Point","coordinates":[-35.722105,-5.83665]}},{"type":"Feature","id":69,"properties":{"nome":"P71","informacoes":"Date Created: 2022-09-10T15:45:07-03:00<br>Latitude: -5.82950211532958<br>Longitude: -35.648768027216<br>Northing: 0<br>Easting: 0<br>Description: <br>Elevation: 99000000","fonte":"Pontos de coleta de solo do Projeto Potengi"},"geometry":{"type":"Point","coordinates":[-35.648768,-5.829502]}},{"type":"Feature","id":70,"properties":{"nome":"P72","informacoes":"Date Created: 2022-09-10T15:41:34-03:00<br>Latitude: -5.80613554540302<br>Longitude: -35.5550061004652<br>Northing: 0<br>Easting: 0<br>Description: <br>Elevation: 81068001","fonte":"Pontos de coleta de solo do Projeto Potengi"},"geometry":{"type":"Point","coordinates":[-35.555006,-5.806136]}},{"type":"Feature","id":71,"properties":{"nome":"P73","informacoes":"Date Created: 2022-09-10T16:03:16-03:00<br>Latitude: -5.81326666666667<br>Longitude: -35.4613597222222<br>Northing: 0<br>Easting: 0<br>Description: <br>Elevation: 48159634","fonte":"Pontos de coleta de solo do Projeto Potengi"},"geometry":{"type":"Point","coordinates":[-35.46136,-5.813267]}},{"type":"Feature","id":72,"properties":{"nome":"P56","informacoes":"Date Created: 2022-09-10T08:40:54-03:00<br>Latitude: -5.89062333333333<br>Longitude: -35.4930480555556<br>Northing: 0<br>Easting: 0<br>Description: <br>Elevation: 90540001","fonte":"Pontos de coleta de solo do Projeto Potengi"},"geometry":{"type":"Point","coordinates":[-35.493048,-5.890623]}},{"type":"Feature","id":73,"properties":{"nome":"P74","informacoes":"Date Created: 2022-09-10T16:10:52-03:00<br>Latitude: -5.815375<br>Longitude: -35.4549733333333<br>Northing: 0<br>Easting: 0<br>Description: <br>Elevation: 28700001","fonte":"Pontos de coleta de solo do Projeto Potengi"},"geometry":{"type":"Point","coordinates":[-35.454973,-5.815375]}},{"type":"Feature","id":74,"properties":{"nome":"P75","informacoes":"Date Created: 2022-09-10T16:30:01-03:00<br>Latitude: -5.816545<br>Longitude: -35.4365266666667<br>Northing: 0<br>Easting: 0<br>Description: <br>Elevation: 24841427","fonte":"Pontos de coleta de solo do Projeto Potengi"},"geometry":{"type":"Point","coordinates":[-35.436527,-5.816545]}},{"type":"Feature","id":75,"properties":{"nome":"P76","informacoes":"Date Created: 2022-09-10T17:32:04-03:00<br>Latitude: -5.83999336360377<br>Longitude: -35.2929844424114<br>Northing: 0<br>Easting: 0<br>Description: <br>Elevation: 29708891","fonte":"Pontos de coleta de solo do Projeto Potengi"},"geometry":{"type":"Point","coordinates":[-35.292984,-5.839993]}},{"type":"Feature","id":76,"properties":{"nome":"P77","informacoes":"Date Created: 2022-09-10T17:31:50-03:00<br>Latitude: -5.83663353522461<br>Longitude: -35.2820008679104<br>Northing: 0<br>Easting: 0<br>Description: <br>Elevation: 4586857","fonte":"Pontos de coleta de solo do Projeto Potengi"},"geometry":{"type":"Point","coordinates":[-35.282001,-5.836634]}},{"type":"Feature","id":77,"properties":{"nome":"P78","informacoes":"Date Created: 2022-09-10T17:32:13-03:00<br>Latitude: -5.82822629951351<br>Longitude: -35.2789112216416<br>Northing: 0<br>Easting: 0<br>Description: <br>Elevation: 42075558","fonte":"Pontos de coleta de solo do Projeto Potengi"},"geometry":{"type":"Point","coordinates":[-35.278911,-5.828226]}},{"type":"Feature","id":78,"properties":{"nome":"P79","informacoes":"Date Created: 2022-09-19T13:59:50-03:00<br>Latitude: -5.76174902877281<br>Longitude: -35.2433905956687<br>Northing: 0<br>Easting: 0<br>Description: <br>Elevation: 20544266","fonte":"Pontos de coleta de solo do Projeto Potengi"},"geometry":{"type":"Point","coordinates":[-35.243391,-5.761749]}},{"type":"Feature","id":79,"properties":{"nome":"P57","informacoes":"Date Created: 2022-09-10T08:58:32-03:00<br>Latitude: -5.90450333333333<br>Longitude: -35.50814<br>Northing: 0<br>Easting: 0<br>Description: <br>Elevation: 114906799","fonte":"Pontos de coleta de solo do Projeto Potengi"},"geometry":{"type":"Point","coordinates":[-35.50814,-5.904503]}},{"type":"Feature","id":80,"properties":{"nome":"P58","informacoes":"Date Created: 2022-09-10T09:04:51-03:00<br>Latitude: -5.91593166666667<br>Longitude: -35.5278266666667<br>Northing: 0<br>Easting: 0<br>Description: <br>Elevation: 104821999","fonte":"Pontos de coleta de solo do Projeto Potengi"},"geometry":{"type":"Point","coordinates":[-35.527827,-5.915932]}},{"type":"Feature","id":81,"properties":{"nome":"P59","informacoes":"Date Created: 2022-09-10T11:20:23-03:00<br>Latitude: -6.09368305555556<br>Longitude: -36.0823497222222<br>Northing: 0<br>Easting: 0<br>Description: <br>Elevation: 411257111","fonte":"Pontos de coleta de solo do Projeto Potengi"},"geometry":{"type":"Point","coordinates":[-36.08235,-6.093683]}},{"type":"Feature","id":82,"properties":{"nome":"P60","informacoes":"Date Created: 2022-09-10T11:36:19-03:00<br>Latitude: -6.07725972222222<br>Longitude: -36.069245<br>Northing: 0<br>Easting: 0<br>Description: <br>Elevation: 0","fonte":"Pontos de coleta de solo do Projeto Potengi"},"geometry":{"type":"Point","coordinates":[-36.069245,-6.07726]}},{"type":"Feature","id":83,"properties":{"nome":"P61","informacoes":"Date Created: 2022-09-10T11:50:01-03:00<br>Latitude: -6.06184305555556<br>Longitude: -36.05854<br>Northing: 0<br>Easting: 0<br>Description: <br>Elevation: 316468231","fonte":"Pontos de coleta de solo do Projeto Potengi"},"geometry":{"type":"Point","coordinates":[-36.05854,-6.061843]}},{"type":"Feature","id":84,"properties":{"nome":"P62","informacoes":"Date Created: 2022-09-10T12:04:37-03:00<br>Latitude: -6.03271333333333<br>Longitude: -36.0585816666667<br>Northing: 0<br>Easting: 0<br>Description: <br>Elevation: 0","fonte":"Pontos de coleta de solo do Projeto Potengi"},"geometry":{"type":"Point","coordinates":[-36.058582,-6.032713]}},{"type":"Feature","id":85,"properties":{"nome":"P63","informacoes":"Date Created: 2022-09-10T12:23:23-03:00<br>Latitude: -5.98179833333333<br>Longitude: -36.0477697222222<br>Northing: 0<br>Easting: 0<br>Description: <br>Elevation: 157932358","fonte":"Pontos de coleta de solo do Projeto Potengi"},"geometry":{"type":"Point","coordinates":[-36.04777,-5.981798]}}]}