{"type":"FeatureCollection","features":[{"type":"Feature","id":1,"properties":{"ordem_drenagem":"Rio 3ª ordem","area_atuacao":"Escola Agrícola de Jundiaí — Macaíba","fonte":"Acervo geoespacial do Projeto Potengi"},"geometry":{"type":"LineString","coordinates":[[-35.362035,-5.902628],[-35.362222,-5.902484],[-35.364563,-5.901051],[-35.366978,-5.900187],[-35.368399,-5.899754],[-35.369674,-5.898397],[-35.370875,-5.896258],[-35.371435,-5.894192],[-35.371854,-5.892412],[-35.37214,-5.891369],[-35.372278,-5.890301],[-35.371843,-5.888382],[-35.371411,-5.887104],[-35.370768,-5.886537],[-35.370411,-5.886183],[-35.37055,-5.8854],[-35.371272,-5.883668]]}},{"type":"Feature","id":2,"properties":{"ordem_drenagem":"Rio 3ª ordem","area_atuacao":"Escola Agrícola de Jundiaí — Macaíba","fonte":"Acervo geoespacial do Projeto Potengi"},"geometry":{"type":"MultiLineString","coordinates":[[[-35.359146,-5.889322],[-35.360868,-5.887725],[-35.36101,-5.886777],[-35.361444,-5.885974],[-35.36195,-5.885098],[-35.362458,-5.884586],[-35.362601,-5.88393],[-35.362307,-5.883275],[-35.362522,-5.882546],[-35.363101,-5.88167],[-35.363608,-5.880866],[-35.364041,-5.879917],[-35.364183,-5.879261],[-35.364179,-5.878314],[-35.364031,-5.877659],[-35.363591,-5.87686],[-35.363151,-5.876206],[-35.362637,-5.875261],[-35.362343,-5.87468],[-35.361845,-5.873867]],[[-35.347216,-5.900832],[-35.3495,-5.898923],[-35.352107,-5.895835],[-35.353045,-5.893629],[-35.353612,-5.893146],[-35.354223,-5.892605]]]}},{"type":"Feature","id":3,"properties":{"ordem_drenagem":"Rio 3ª ordem","area_atuacao":"Escola Agrícola de Jundiaí — Macaíba","fonte":"Acervo geoespacial do Projeto Potengi"},"geometry":{"type":"LineString","coordinates":[[-35.380161,-5.898233],[-35.3806,-5.896807]]}},{"type":"Feature","id":4,"properties":{"ordem_drenagem":"Rio 3ª ordem","area_atuacao":"Escola Agrícola de Jundiaí — Macaíba","fonte":"Acervo geoespacial do Projeto Potengi"},"geometry":{"type":"LineString","coordinates":[[-35.364265,-5.874417],[-35.364053,-5.874706]]}},{"type":"Feature","id":5,"properties":{"area_atuacao":"Escola Agrícola de Jundiaí — Macaíba","fonte":"Acervo geoespacial do Projeto Potengi"},"geometry":{"type":"LineString","coordinates":[[-35.354223,-5.892605],[-35.354666,-5.891133]]}},{"type":"Feature","id":6,"properties":{"ordem_drenagem":"Rio 4ª ordem","area_atuacao":"Escola Agrícola de Jundiaí — Macaíba","fonte":"Acervo geoespacial do Projeto Potengi"},"geometry":{"type":"LineString","coordinates":[[-35.352656,-5.890364],[-35.351857,-5.88991],[-35.351189,-5.889437],[-35.350736,-5.889188],[-35.350201,-5.888786]]}},{"type":"Feature","id":7,"properties":{"ordem_drenagem":"Rio 4ª ordem","area_atuacao":"Escola Agrícola de Jundiaí — Macaíba","fonte":"Acervo geoespacial do Projeto Potengi"},"geometry":{"type":"LineString","coordinates":[[-35.3555,-5.900073],[-35.356872,-5.899281],[-35.358375,-5.898489],[-35.359154,-5.896914],[-35.359216,-5.896128],[-35.359209,-5.894491],[-35.35914,-5.893705],[-35.358836,-5.892888]]}},{"type":"Feature","id":8,"properties":{"ordem_drenagem":"Rio 4ª ordem","area_atuacao":"Escola Agrícola de Jundiaí — Macaíba","fonte":"Acervo geoespacial do Projeto Potengi"},"geometry":{"type":"MultiLineString","coordinates":[[[-35.393505,-5.891575],[-35.392566,-5.891635],[-35.391192,-5.890837],[-35.390103,-5.890327]],[[-35.387884,-5.888405],[-35.387392,-5.887889],[-35.384803,-5.885939],[-35.38325,-5.884894],[-35.382556,-5.884039],[-35.382359,-5.883348]]]}},{"type":"Feature","id":9,"properties":{"area_atuacao":"Escola Agrícola de Jundiaí — Macaíba","fonte":"Acervo geoespacial do Projeto Potengi"},"geometry":{"type":"LineString","coordinates":[[-35.352656,-5.890364],[-35.354406,-5.890154]]}},{"type":"Feature","id":10,"properties":{"area_atuacao":"Escola Agrícola de Jundiaí — Macaíba","fonte":"Acervo geoespacial do Projeto Potengi"},"geometry":{"type":"LineString","coordinates":[[-35.358836,-5.892888],[-35.358749,-5.89212]]}},{"type":"Feature","id":11,"properties":{"area_atuacao":"Escola Agrícola de Jundiaí — Macaíba","fonte":"Acervo geoespacial do Projeto Potengi"},"geometry":{"type":"LineString","coordinates":[[-35.350201,-5.888786],[-35.349766,-5.888314]]}},{"type":"Feature","id":12,"properties":{"ordem_drenagem":"Rio 3ª ordem","area_atuacao":"Escola Agrícola de Jundiaí — Macaíba","fonte":"Acervo geoespacial do Projeto Potengi"},"geometry":{"type":"LineString","coordinates":[[-35.364265,-5.874417],[-35.364053,-5.874706]]}},{"type":"Feature","id":13,"properties":{"ordem_drenagem":"Rio 3ª ordem","area_atuacao":"Escola Agrícola de Jundiaí — Macaíba","fonte":"Acervo geoespacial do Projeto Potengi"},"geometry":{"type":"LineString","coordinates":[[-35.359146,-5.889322],[-35.360868,-5.887725],[-35.36101,-5.886777],[-35.361444,-5.885974],[-35.36195,-5.885098],[-35.362458,-5.884586],[-35.362601,-5.88393],[-35.362307,-5.883275],[-35.362522,-5.882546],[-35.363101,-5.88167],[-35.363608,-5.880866],[-35.364041,-5.879917],[-35.364183,-5.879261],[-35.364179,-5.878314],[-35.364031,-5.877659],[-35.363591,-5.87686],[-35.363151,-5.876206],[-35.362637,-5.875261],[-35.362343,-5.87468],[-35.361845,-5.873867]]}},{"type":"Feature","id":14,"properties":{"nome":"Rio Jundiaí","ordem_drenagem":"Rio 2ª ordem","area_atuacao":"Escola Agrícola de Jundiaí — Macaíba","fonte":"Acervo geoespacial do Projeto Potengi"},"geometry":{"type":"MultiLineString","coordinates":[[[-35.36151,-5.873648],[-35.361845,-5.873867],[-35.362195,-5.874262],[-35.362663,-5.874618],[-35.36329,-5.87478],[-35.364075,-5.874706],[-35.36478,-5.874829],[-35.365449,-5.874991]],[[-35.366442,-5.875472],[-35.366969,-5.875982],[-35.36763,-5.876889],[-35.368562,-5.878231],[-35.368948,-5.879254],[-35.36945,-5.880475],[-35.370071,-5.881461],[-35.370534,-5.882564],[-35.371272,-5.883668],[-35.371778,-5.884339],[-35.372166,-5.885009],[-35.372473,-5.885954],[-35.373176,-5.886508],[-35.373721,-5.88714],[-35.37403,-5.88781],[-35.3745,-5.88797],[-35.375012,-5.887581],[-35.375326,-5.887504],[-35.375599,-5.887859],[-35.376068,-5.88798],[-35.376776,-5.88771],[-35.377364,-5.887714],[-35.377794,-5.888031],[-35.378103,-5.888779],[-35.378726,-5.88949],[-35.379152,-5.890239],[-35.379378,-5.891733],[-35.37969,-5.892049],[-35.380002,-5.892287],[-35.380116,-5.892877],[-35.380349,-5.893232],[-35.380541,-5.893822],[-35.380773,-5.894334],[-35.381005,-5.894925],[-35.381236,-5.895594],[-35.381075,-5.896182],[-35.3806,-5.896807],[-35.380436,-5.897985],[-35.380479,-5.898258]]]}},{"type":"Feature","id":15,"properties":{"area_atuacao":"Escola Agrícola de Jundiaí — Macaíba","fonte":"Acervo geoespacial do Projeto Potengi"},"geometry":{"type":"LineString","coordinates":[[-35.362458,-5.884586],[-35.363057,-5.883421],[-35.363115,-5.882961],[-35.363148,-5.882771],[-35.363309,-5.882328],[-35.363605,-5.881879],[-35.36395,-5.881469],[-35.364369,-5.881012],[-35.364711,-5.880534],[-35.364839,-5.879875],[-35.364766,-5.879541],[-35.364077,-5.877863]]}}]}