{"type":"FeatureCollection","features":[{"type":"Feature","id":1,"properties":{"municipio":"Barcelona","posto":"BARCELONA ANA","precipitacao_media":452.54706,"dias_chuvosos":50.0,"intensidade":271.52823,"fonte":"EMPARN (2022) e ANA (2022)"},"geometry":{"type":"Point","coordinates":[-35.9175,-5.95222]}},{"type":"Feature","id":2,"properties":{"municipio":"Bom Jesus","posto":"PARTICULAR","precipitacao_media":807.13182,"dias_chuvosos":76.0,"intensidade":318.60467,"fonte":"EMPARN (2022) e ANA (2022)"},"geometry":{"type":"Point","coordinates":[-35.5667,-5.9833]}},{"type":"Feature","id":3,"properties":{"municipio":"Cerro Corá","posto":"EMATER","precipitacao_media":615.08636,"dias_chuvosos":51.0,"intensidade":361.81551,"fonte":"EMPARN (2022) e ANA (2022)"},"geometry":{"type":"Point","coordinates":[-36.35,-6.05]}},{"type":"Feature","id":4,"properties":{"municipio":"Ielmo Marinho","posto":"FAZENDA POTENGI - ANA","precipitacao_media":1176.89546,"dias_chuvosos":115.0,"intensidade":307.01621,"fonte":"EMPARN (2022) e ANA (2022)"},"geometry":{"type":"Point","coordinates":[-35.52333,-5.84583]}},{"type":"Feature","id":5,"properties":{"municipio":"Lagoa de Velhos","posto":"DELEGACIA","precipitacao_media":312.14118,"dias_chuvosos":52.0,"intensidade":180.08145,"fonte":"EMPARN (2022) e ANA (2022)"},"geometry":{"type":"Point","coordinates":[-35.8667,-6.0]}},{"type":"Feature","id":6,"properties":{"municipio":"Macaíba","posto":"PIRIPIRI","precipitacao_media":1178.44091,"dias_chuvosos":115.0,"intensidade":307.41937,"fonte":"EMPARN (2022) e ANA (2022)"},"geometry":{"type":"Point","coordinates":[-35.3667,-5.9]}},{"type":"Feature","id":7,"properties":{"municipio":"Natal","posto":"UFRN - INMET","precipitacao_media":1762.4,"dias_chuvosos":172.0,"intensidade":307.39535,"fonte":"EMPARN (2022) e ANA (2022)"},"geometry":{"type":"Point","coordinates":[-35.2167,-5.8]}},{"type":"Feature","id":8,"properties":{"municipio":"Riachuelo","posto":"EMATER","precipitacao_media":363.7579,"dias_chuvosos":40.0,"intensidade":272.81842,"fonte":"EMPARN (2022) e ANA (2022)"},"geometry":{"type":"Point","coordinates":[-35.8167,-5.8167]}},{"type":"Feature","id":9,"properties":{"municipio":"Ruy Barbosa","posto":"EMATER","precipitacao_media":510.32222,"dias_chuvosos":36.0,"intensidade":425.26852,"fonte":"EMPARN (2022) e ANA (2022)"},"geometry":{"type":"Point","coordinates":[-35.9333,-5.8667]}},{"type":"Feature","id":10,"properties":{"municipio":"Santa Maria","posto":"SINDICATO DOS TRABALHADORES RURAIS","precipitacao_media":538.61579,"dias_chuvosos":45.0,"intensidade":359.07719,"fonte":"EMPARN (2022) e ANA (2022)"},"geometry":{"type":"Point","coordinates":[-35.7167,-5.8333]}},{"type":"Feature","id":11,"properties":{"municipio":"São Gonçalo do Amarante","posto":"BASE FISICA DA EMPARN","precipitacao_media":1260.32727,"dias_chuvosos":90.0,"intensidade":420.10909,"fonte":"EMPARN (2022) e ANA (2022)"},"geometry":{"type":"Point","coordinates":[-35.3333,-5.8]}},{"type":"Feature","id":12,"properties":{"municipio":"São Paulo do Potengi","posto":"EMATER","precipitacao_media":597.01818,"dias_chuvosos":61.0,"intensidade":293.6155,"fonte":"EMPARN (2022) e ANA (2022)"},"geometry":{"type":"Point","coordinates":[-35.7667,-5.9]}},{"type":"Feature","id":13,"properties":{"municipio":"São Pedro","posto":"EMATER","precipitacao_media":571.29524,"dias_chuvosos":58.0,"intensidade":295.49754,"fonte":"EMPARN (2022) e ANA (2022)"},"geometry":{"type":"Point","coordinates":[-35.6333,-5.9]}},{"type":"Feature","id":14,"properties":{"municipio":"São Tomé","posto":"EMATER","precipitacao_media":381.82727,"dias_chuvosos":27.0,"intensidade":424.25252,"fonte":"EMPARN (2022) e ANA (2022)"},"geometry":{"type":"Point","coordinates":[-36.0667,-5.9667]}},{"type":"Feature","id":15,"properties":{"municipio":"Senador Elói de Souza","posto":"EMATER","precipitacao_media":293.50588,"dias_chuvosos":31.0,"intensidade":284.03795,"fonte":"EMPARN (2022) e ANA (2022)"},"geometry":{"type":"Point","coordinates":[-35.7,-6.0333]}},{"type":"Feature","id":16,"properties":{"municipio":"Serra Caiada","posto":"EMATER","precipitacao_media":465.41111,"dias_chuvosos":42.0,"intensidade":332.43651,"fonte":"EMPARN (2022) e ANA (2022)"},"geometry":{"type":"Point","coordinates":[-35.7,-6.1]}},{"type":"Feature","id":17,"properties":{"municipio":"Sítio Novo","posto":"PREFEITURA","precipitacao_media":523.58333,"dias_chuvosos":41.0,"intensidade":383.10976,"fonte":"EMPARN (2022) e ANA (2022)"},"geometry":{"type":"Point","coordinates":[-35.9167,-6.1]}}]}