{"type":"FeatureCollection","features":[{"type":"Feature","id":1,"properties":{"precipitacao_mm":440.0,"tipo":1,"fonte":"Acervo geoespacial do Projeto Potengi"},"geometry":{"type":"LineString","coordinates":[[-35.937568,-5.85924],[-35.93493,-5.858341],[-35.932923,-5.858235],[-35.930916,-5.858621],[-35.92891,-5.859582],[-35.926903,-5.86145],[-35.9259,-5.863253],[-35.925314,-5.86526],[-35.925262,-5.867267],[-35.925744,-5.869274],[-35.926766,-5.871281],[-35.92891,-5.873335],[-35.930916,-5.87423],[-35.932923,-5.874616],[-35.93493,-5.874492],[-35.936937,-5.87386],[-35.937958,-5.873288],[-35.940192,-5.871281],[-35.940951,-5.870071],[-35.941325,-5.869274],[-35.941774,-5.867267],[-35.941743,-5.86526],[-35.94123,-5.863253],[-35.94003,-5.861246],[-35.938944,-5.860107],[-35.937568,-5.85924]]}},{"type":"Feature","id":2,"properties":{"precipitacao_mm":460.0,"tipo":1,"fonte":"Acervo geoespacial do Projeto Potengi"},"geometry":{"type":"LineString","coordinates":[[-35.946939,-5.841178],[-35.942957,-5.839607],[-35.940951,-5.839881],[-35.938944,-5.839872],[-35.93493,-5.839624],[-35.932923,-5.839266],[-35.92891,-5.84003],[-35.926903,-5.840666],[-35.922889,-5.842516],[-35.920882,-5.843775],[-35.918875,-5.845302],[-35.916868,-5.847172],[-35.915098,-5.849205],[-35.912855,-5.852545],[-35.911524,-5.855226],[-35.910752,-5.857233],[-35.90977,-5.861246],[-35.909439,-5.86526],[-35.909518,-5.867267],[-35.910179,-5.871281],[-35.910775,-5.873288],[-35.911587,-5.875294],[-35.912613,-5.877301],[-35.913919,-5.879308],[-35.915544,-5.881315],[-35.916868,-5.882658],[-35.918875,-5.884345],[-35.920882,-5.885707],[-35.924896,-5.88766],[-35.926903,-5.888322],[-35.930916,-5.889151],[-35.932923,-5.889329],[-35.936937,-5.889229],[-35.940951,-5.888521],[-35.944964,-5.887514],[-35.949111,-5.885329],[-35.951816,-5.883322],[-35.953943,-5.881315],[-35.955657,-5.879308],[-35.957055,-5.877301],[-35.959098,-5.873288],[-35.959808,-5.871281],[-35.960697,-5.867267],[-35.960893,-5.86526],[-35.960806,-5.861246],[-35.960068,-5.857233],[-35.959012,-5.854151],[-35.957584,-5.851212],[-35.954999,-5.847515],[-35.952992,-5.845391],[-35.950985,-5.843695],[-35.948978,-5.842317],[-35.946939,-5.841178]]}},{"type":"Feature","id":3,"properties":{"precipitacao_mm":480.0,"tipo":1,"fonte":"Acervo geoespacial do Projeto Potengi"},"geometry":{"type":"LineString","coordinates":[[-35.949655,-5.825123],[-35.946971,-5.824415],[-35.942957,-5.82376],[-35.940951,-5.823599],[-35.936937,-5.823596],[-35.932923,-5.824018],[-35.92891,-5.824879],[-35.926903,-5.824536],[-35.922889,-5.826158],[-35.918875,-5.828303],[-35.916868,-5.829597],[-35.912855,-5.832703],[-35.910848,-5.834565],[-35.908424,-5.837164],[-35.905338,-5.841178],[-35.904046,-5.843185],[-35.901882,-5.847199],[-35.900814,-5.849648],[-35.899553,-5.853219],[-35.898549,-5.857233],[-35.89796,-5.861246],[-35.897782,-5.86526],[-35.898025,-5.869274],[-35.898717,-5.873288],[-35.899242,-5.875294],[-35.900697,-5.879308],[-35.90165,-5.881315],[-35.904104,-5.885329],[-35.905664,-5.887335],[-35.907506,-5.889342],[-35.910848,-5.892257],[-35.912855,-5.893667],[-35.916868,-5.895901],[-35.920882,-5.897517],[-35.924896,-5.898647],[-35.92891,-5.899364],[-35.932923,-5.89973],[-35.938944,-5.899663],[-35.944964,-5.89887],[-35.946971,-5.898921],[-35.950985,-5.89778],[-35.954999,-5.896213],[-35.959012,-5.894135],[-35.963026,-5.891419],[-35.965033,-5.889752],[-35.967528,-5.887335],[-35.970817,-5.883322],[-35.972159,-5.881315],[-35.974346,-5.877301],[-35.97598,-5.873288],[-35.97713,-5.869274],[-35.977856,-5.86526],[-35.978062,-5.863253],[-35.978172,-5.85924],[-35.97788,-5.855226],[-35.977171,-5.851212],[-35.97603,-5.847199],[-35.9744,-5.843185],[-35.972209,-5.839171],[-35.96933,-5.835157],[-35.96704,-5.832604],[-35.963026,-5.829044],[-35.960282,-5.82713],[-35.959012,-5.826839],[-35.957005,-5.827592],[-35.955802,-5.827425],[-35.949655,-5.825123]]}},{"type":"Feature","id":4,"properties":{"precipitacao_mm":500.0,"tipo":1,"fonte":"Acervo geoespacial do Projeto Potengi"},"geometry":{"type":"LineString","coordinates":[[-35.956982,-5.805184],[-35.961019,-5.806224],[-35.96704,-5.808712],[-35.971053,-5.810887],[-35.975067,-5.813571],[-35.977074,-5.813562],[-35.978372,-5.812656],[-35.979081,-5.812346],[-35.983094,-5.812859],[-35.985304,-5.815089],[-35.988704,-5.819103],[-35.991506,-5.823116],[-35.99382,-5.82713],[-35.995716,-5.831144],[-35.997883,-5.837164],[-35.99892,-5.841178],[-35.999927,-5.847199],[-36.000305,-5.853219],[-36.000082,-5.85924],[-35.9996,-5.863253],[-35.998382,-5.869274],[-35.996536,-5.875294],[-35.99493,-5.879308],[-35.991905,-5.885329],[-35.989401,-5.889342],[-35.986428,-5.893356],[-35.983094,-5.897109],[-35.979081,-5.90082],[-35.975672,-5.90339],[-35.972468,-5.905397],[-35.968499,-5.907404],[-35.965033,-5.908791],[-35.959012,-5.910488],[-35.954999,-5.911212],[-35.948978,-5.911875],[-35.946971,-5.911283],[-35.938944,-5.911489],[-35.930916,-5.911233],[-35.924896,-5.910703],[-35.920882,-5.910109],[-35.916868,-5.909245],[-35.912855,-5.908065],[-35.908841,-5.906444],[-35.904827,-5.904275],[-35.901799,-5.90218],[-35.898544,-5.899377],[-35.895753,-5.896384],[-35.892786,-5.892349],[-35.890779,-5.888886],[-35.888773,-5.884415],[-35.887126,-5.879308],[-35.886262,-5.875294],[-35.885732,-5.871281],[-35.885518,-5.86526],[-35.885952,-5.85924],[-35.887006,-5.853219],[-35.888664,-5.847199],[-35.890779,-5.84155],[-35.892808,-5.837164],[-35.896209,-5.831144],[-35.900435,-5.825123],[-35.903823,-5.82111],[-35.908841,-5.816125],[-35.912855,-5.812831],[-35.916868,-5.810027],[-35.920882,-5.807667],[-35.922889,-5.808499],[-35.928645,-5.806207]]}},{"type":"Feature","id":5,"properties":{"precipitacao_mm":520.0,"tipo":1,"fonte":"Acervo geoespacial do Projeto Potengi"},"geometry":{"type":"LineString","coordinates":[[-35.916107,-5.789607],[-35.912855,-5.79188],[-35.908841,-5.794972],[-35.902821,-5.800404],[-35.898807,-5.804676],[-35.895185,-5.809068],[-35.892786,-5.812293],[-35.889578,-5.817096],[-35.888291,-5.817716],[-35.886766,-5.819757],[-35.884759,-5.820593],[-35.884327,-5.82111],[-35.883722,-5.822294],[-35.882558,-5.823116],[-35.879868,-5.829137],[-35.877484,-5.835157],[-35.875399,-5.841178],[-35.873625,-5.847199],[-35.872197,-5.853219],[-35.871142,-5.85924],[-35.870489,-5.86526],[-35.870251,-5.871281],[-35.870453,-5.877301],[-35.871098,-5.883322],[-35.871782,-5.887335],[-35.873216,-5.893356],[-35.874725,-5.898145],[-35.876777,-5.90339],[-35.879725,-5.909411],[-35.882752,-5.91446],[-35.88483,-5.917438],[-35.888773,-5.922364],[-35.892786,-5.926586],[-35.8968,-5.930213],[-35.900814,-5.933356],[-35.904827,-5.936147],[-35.910848,-5.939678],[-35.916868,-5.942631],[-35.922889,-5.944978],[-35.92891,-5.946895],[-35.930916,-5.947351],[-35.932773,-5.947541],[-35.932923,-5.948519],[-35.936937,-5.94834],[-35.942957,-5.948624],[-35.950985,-5.948483],[-35.954999,-5.947684],[-35.959012,-5.946614],[-35.965033,-5.944371],[-35.969046,-5.942451],[-35.97306,-5.940171],[-35.977074,-5.937512],[-35.981088,-5.93451],[-35.985101,-5.931109],[-35.990967,-5.925466],[-35.996024,-5.923459],[-36.001156,-5.917321],[-36.00517,-5.912162],[-36.012802,-5.901383],[-36.016628,-5.895363],[-36.020116,-5.889342],[-36.022239,-5.885329],[-36.025098,-5.879308],[-36.026786,-5.875294],[-36.028966,-5.869274],[-36.030189,-5.86526],[-36.031663,-5.85924],[-36.032413,-5.855226],[-36.033181,-5.849205],[-36.033537,-5.843185],[-36.033479,-5.839577]]}},{"type":"Feature","id":6,"properties":{"precipitacao_mm":520.0,"tipo":1,"fonte":"Acervo geoespacial do Projeto Potengi"},"geometry":{"type":"LineString","coordinates":[[-35.696479,-6.104075],[-35.698122,-6.105077],[-35.702136,-6.105787],[-35.704143,-6.104512],[-35.704552,-6.104075],[-35.705662,-6.102068],[-35.705973,-6.100061],[-35.705496,-6.098054],[-35.704213,-6.096047],[-35.702136,-6.094815],[-35.700129,-6.094402],[-35.696818,-6.096047],[-35.696115,-6.096713],[-35.695257,-6.098054],[-35.694799,-6.100061],[-35.695157,-6.102068],[-35.696115,-6.103715],[-35.696479,-6.104075]]}},{"type":"Feature","id":7,"properties":{"precipitacao_mm":540.0,"tipo":1,"fonte":"Acervo geoespacial do Projeto Potengi"},"geometry":{"type":"LineString","coordinates":[[-35.893187,-5.767164],[-35.888235,-5.772945],[-35.88367,-5.778966],[-35.879664,-5.784986],[-35.876147,-5.791007],[-35.8721,-5.799034],[-35.867851,-5.809068],[-35.863534,-5.82111],[-35.859715,-5.833151],[-35.85824,-5.833832],[-35.856663,-5.836088],[-35.854656,-5.83683],[-35.854388,-5.837164],[-35.853961,-5.838462],[-35.853179,-5.839171],[-35.851127,-5.847199],[-35.849483,-5.855226],[-35.848363,-5.863253],[-35.847833,-5.869274],[-35.847538,-5.875294],[-35.84742,-5.883322],[-35.847979,-5.911418],[-35.847963,-5.921452],[-35.847446,-5.931486],[-35.846416,-5.939513],[-35.845613,-5.943527],[-35.844622,-5.947341],[-35.842518,-5.953561],[-35.839941,-5.959582],[-35.833228,-5.97363],[-35.830057,-5.981657],[-35.828305,-5.987678],[-35.827473,-5.991691],[-35.826912,-5.995705],[-35.826596,-6.001726],[-35.826743,-6.005739],[-35.827183,-6.009753],[-35.827921,-6.013767],[-35.828972,-6.01778],[-35.830574,-6.022351],[-35.832581,-6.026799],[-35.835457,-6.031828],[-35.838275,-6.035842],[-35.840608,-6.038695],[-35.844622,-6.042844],[-35.848636,-6.04627],[-35.852649,-6.049136],[-35.856663,-6.051525],[-35.860677,-6.053509],[-35.864691,-6.05513],[-35.868704,-6.056408],[-35.872718,-6.057375],[-35.878738,-6.05828],[-35.882752,-6.058562],[-35.890779,-6.058481],[-35.910848,-6.056774],[-35.916868,-6.056458],[-35.922889,-6.056387],[-35.932923,-6.056803],[-35.948978,-6.058168],[-35.950985,-6.059171],[-35.957005,-6.058965],[-35.963026,-6.058272],[-35.96704,-6.057468],[-35.971053,-6.056329],[-35.975067,-6.054808],[-35.979081,-6.052833],[-35.983094,-6.050325],[-35.986258,-6.047883],[-35.989115,-6.045294],[-35.993129,-6.04078],[-35.995135,-6.038033],[-35.997142,-6.03486],[-35.999149,-6.031118],[-36.00065,-6.027815],[-36.003163,-6.020935],[-36.005095,-6.013767],[-36.006345,-6.007746],[-36.007688,-5.999719],[-36.010358,-5.981657],[-36.01265,-5.969616],[-36.014146,-5.963596],[-36.015958,-5.957575],[-36.018147,-5.951554],[-36.020769,-5.945534],[-36.023231,-5.940692],[-36.02624,-5.9355],[-36.029252,-5.930881],[-36.033191,-5.925466],[-36.03747,-5.923459],[-36.041293,-5.919157],[-36.045307,-5.914946],[-36.06091,-5.899377],[-36.064569,-5.895363],[-36.06788,-5.891349],[-36.070814,-5.887335],[-36.073366,-5.883322],[-36.075567,-5.879308],[-36.078281,-5.873288],[-36.079748,-5.869274],[-36.081527,-5.863253],[-36.082885,-5.857233],[-36.083891,-5.851212],[-36.084607,-5.845192],[-36.085046,-5.839545]]}},{"type":"Feature","id":8,"properties":{"precipitacao_mm":540.0,"tipo":1,"fonte":"Acervo geoespacial do Projeto Potengi"},"geometry":{"type":"LineString","coordinates":[[-35.681109,-6.084732],[-35.684138,-6.081999],[-35.688088,-6.079489],[-35.692102,-6.077767],[-35.696115,-6.076717],[-35.696783,-6.075979],[-35.69725,-6.074922],[-35.698122,-6.074356],[-35.702136,-6.074112],[-35.70615,-6.074283],[-35.708157,-6.074524],[-35.71217,-6.07533],[-35.716184,-6.07661],[-35.719324,-6.077986],[-35.722835,-6.079993],[-35.726218,-6.082534],[-35.729747,-6.086013],[-35.731357,-6.08802],[-35.733884,-6.092034],[-35.735687,-6.096047],[-35.736882,-6.100061],[-35.73754,-6.104075],[-35.737693,-6.108088],[-35.737355,-6.112102],[-35.736504,-6.116116],[-35.735114,-6.12013],[-35.733098,-6.124143],[-35.730232,-6.128266],[-35.72857,-6.130164],[-35.726508,-6.132171],[-35.724211,-6.134053],[-35.722204,-6.135445],[-35.718191,-6.137658],[-35.716184,-6.138518],[-35.71217,-6.139811],[-35.711547,-6.138191],[-35.710977,-6.137648],[-35.709094,-6.136844],[-35.708157,-6.136022],[-35.707164,-6.135855]]}},{"type":"Feature","id":9,"properties":{"precipitacao_mm":560.0,"tipo":1,"fonte":"Acervo geoespacial do Projeto Potengi"},"geometry":{"type":"LineString","coordinates":[[-35.858009,-5.723745],[-35.843208,-5.740836],[-35.837643,-5.746856],[-35.83369,-5.75087],[-35.828567,-5.755707],[-35.822609,-5.760904],[-35.808499,-5.772753],[-35.806492,-5.773922],[-35.802478,-5.778009],[-35.798465,-5.782737],[-35.796458,-5.785468],[-35.794451,-5.788563],[-35.792444,-5.792192],[-35.791134,-5.795021],[-35.79031,-5.797027],[-35.788986,-5.801041],[-35.787923,-5.805055],[-35.787588,-5.807062],[-35.787174,-5.811075],[-35.787104,-5.815089],[-35.787378,-5.819103],[-35.787996,-5.823116],[-35.789608,-5.829137],[-35.790437,-5.831432],[-35.792076,-5.835157],[-35.79547,-5.841178],[-35.798465,-5.845546],[-35.807502,-5.857233],[-35.810176,-5.861246],[-35.812376,-5.86526],[-35.814101,-5.869274],[-35.813352,-5.869908],[-35.813005,-5.871281],[-35.813357,-5.877301],[-35.812997,-5.877968],[-35.811884,-5.879308],[-35.812022,-5.883322],[-35.811834,-5.88412],[-35.811387,-5.884886],[-35.810615,-5.885329],[-35.81086,-5.889342],[-35.810879,-5.893356],[-35.810683,-5.89737],[-35.810277,-5.901383],[-35.80889,-5.909411],[-35.806492,-5.918607],[-35.802854,-5.929479],[-35.79405,-5.953561],[-35.790094,-5.965602],[-35.786039,-5.97965],[-35.77928,-6.005739],[-35.776389,-6.015297],[-35.774382,-6.020646],[-35.772376,-6.025021],[-35.770369,-6.028575],[-35.770145,-6.029485],[-35.769539,-6.029821],[-35.768362,-6.031463],[-35.768058,-6.035842],[-35.767841,-6.036538],[-35.767309,-6.037185],[-35.766355,-6.037547],[-35.766044,-6.037849],[-35.765712,-6.041863],[-35.765194,-6.042685],[-35.764348,-6.04319],[-35.763627,-6.043869],[-35.763017,-6.04989],[-35.762341,-6.050521],[-35.76137,-6.05102],[-35.760817,-6.051897],[-35.760335,-6.055751],[-35.756321,-6.055312],[-35.752307,-6.054602],[-35.742273,-6.052181],[-35.732239,-6.049156],[-35.728851,-6.047883],[-35.726218,-6.046571],[-35.725043,-6.045876],[-35.723442,-6.044577],[-35.721747,-6.042561],[-35.720388,-6.039856],[-35.718313,-6.033835],[-35.716457,-6.029821],[-35.715162,-6.027815],[-35.713485,-6.025808],[-35.71217,-6.024606],[-35.710163,-6.02312],[-35.708157,-6.022021],[-35.70615,-6.021295],[-35.704143,-6.020861],[-35.702136,-6.020695],[-35.700129,-6.020805],[-35.698122,-6.021194],[-35.696115,-6.021876],[-35.694109,-6.022999],[-35.692102,-6.024579],[-35.690095,-6.026936],[-35.689296,-6.029821],[-35.689342,-6.031828],[-35.689055,-6.033835],[-35.689075,-6.035842],[-35.689392,-6.037849],[-35.691025,-6.043869],[-35.691501,-6.044574],[-35.692783,-6.045876],[-35.693182,-6.047883],[-35.693442,-6.051897],[-35.693342,-6.053904],[-35.692754,-6.057917],[-35.692918,-6.05936],[-35.693339,-6.059924],[-35.688088,-6.062787],[-35.682068,-6.066637],[-35.676047,-6.071366],[-35.671496,-6.075875]]}},{"type":"Feature","id":10,"properties":{"precipitacao_mm":560.0,"tipo":1,"fonte":"Acervo geoespacial do Projeto Potengi"},"geometry":{"type":"LineString","coordinates":[[-36.138323,-5.858061],[-36.139847,-5.875294],[-36.140845,-5.883322],[-36.142049,-5.891349],[-36.145063,-5.907404],[-36.148842,-5.923459],[-36.144119,-5.925466],[-36.147135,-5.937507],[-36.152447,-5.957575],[-36.159021,-5.981657],[-36.164746,-6.001726],[-36.170261,-6.019787],[-36.176198,-6.037849],[-36.182549,-6.05591],[-36.189248,-6.073972],[-36.212316,-6.133278]]}},{"type":"Feature","id":11,"properties":{"precipitacao_mm":560.0,"tipo":1,"fonte":"Acervo geoespacial do Projeto Potengi"},"geometry":{"type":"LineString","coordinates":[[-36.224124,-6.164962],[-36.227612,-6.174657]]}},{"type":"Feature","id":12,"properties":{"precipitacao_mm":560.0,"tipo":1,"fonte":"Acervo geoespacial do Projeto Potengi"},"geometry":{"type":"LineString","coordinates":[[-36.227697,-6.174903],[-36.230004,-6.181572]]}},{"type":"Feature","id":13,"properties":{"precipitacao_mm":580.0,"tipo":1,"fonte":"Acervo geoespacial do Projeto Potengi"},"geometry":{"type":"LineString","coordinates":[[-35.78322,-5.725625],[-35.780403,-5.732894],[-35.776844,-5.742843],[-35.774382,-5.750457],[-35.772532,-5.75689],[-35.771015,-5.762911],[-35.769727,-5.768932],[-35.767488,-5.782979],[-35.766978,-5.791007],[-35.766902,-5.801041],[-35.767201,-5.809068],[-35.768339,-5.82713],[-35.768526,-5.833151],[-35.768315,-5.839171],[-35.767799,-5.843185],[-35.767377,-5.845192],[-35.766355,-5.848477],[-35.765199,-5.851212],[-35.762809,-5.855226],[-35.759684,-5.85924],[-35.7503,-5.869937],[-35.747793,-5.873288],[-35.745252,-5.877301],[-35.744169,-5.879308],[-35.742399,-5.883322],[-35.741124,-5.887335],[-35.740302,-5.891349],[-35.739923,-5.895363],[-35.739947,-5.899377],[-35.740349,-5.90339],[-35.741113,-5.907404],[-35.742178,-5.911418],[-35.743529,-5.915431],[-35.749228,-5.929479],[-35.751368,-5.9355],[-35.752894,-5.94152],[-35.753516,-5.945534],[-35.753847,-5.951554],[-35.753497,-5.957575],[-35.752481,-5.963596],[-35.750769,-5.969616],[-35.749173,-5.97363],[-35.748209,-5.975637],[-35.746287,-5.97899],[-35.744428,-5.981657],[-35.742757,-5.983664],[-35.740266,-5.986137],[-35.738259,-5.987785],[-35.735429,-5.989685],[-35.731551,-5.991691],[-35.726199,-5.993698],[-35.722204,-5.994847],[-35.710163,-5.997883],[-35.70615,-5.999061],[-35.702136,-6.000456],[-35.698122,-6.002138],[-35.694109,-6.004188],[-35.690095,-6.006705],[-35.688088,-6.008176],[-35.686081,-6.012867],[-35.683106,-6.015774],[-35.680061,-6.01953],[-35.678054,-6.022704],[-35.676446,-6.025808],[-35.674816,-6.029821],[-35.673566,-6.033835],[-35.670545,-6.047883],[-35.669399,-6.051897],[-35.668665,-6.053904],[-35.666824,-6.057917],[-35.664526,-6.061931],[-35.654965,-6.076691]]}},{"type":"Feature","id":14,"properties":{"precipitacao_mm":580.0,"tipo":1,"fonte":"Acervo geoespacial do Projeto Potengi"},"geometry":{"type":"LineString","coordinates":[[-36.173468,-5.850434],[-36.173711,-5.857233],[-36.174307,-5.86526],[-36.175278,-5.873288],[-36.17662,-5.881315],[-36.178823,-5.891349],[-36.180425,-5.89737],[-36.182237,-5.90339],[-36.185724,-5.913424],[-36.189796,-5.923459],[-36.187597,-5.925466],[-36.192144,-5.9355],[-36.197827,-5.946622],[-36.203847,-5.957101],[-36.20926,-5.965602],[-36.215888,-5.975046],[-36.221909,-5.982828],[-36.22793,-5.989956],[-36.235957,-5.998595],[-36.241977,-6.004498],[-36.250005,-6.011694],[-36.258032,-6.018219],[-36.26606,-6.024136],[-36.276094,-6.030779],[-36.284121,-6.035539],[-36.294155,-6.040872],[-36.302183,-6.044675],[-36.312217,-6.048892],[-36.322251,-6.052547],[-36.330279,-6.05509],[-36.340313,-6.057808],[-36.350347,-6.060042],[-36.360381,-6.061804],[-36.370416,-6.063109],[-36.381855,-6.064025]]}},{"type":"Feature","id":15,"properties":{"precipitacao_mm":600.0,"tipo":1,"fonte":"Acervo geoespacial do Projeto Potengi"},"geometry":{"type":"LineString","coordinates":[[-35.749055,-5.713515],[-35.749358,-5.714747],[-35.748831,-5.744849],[-35.748293,-5.745435],[-35.747471,-5.745968],[-35.746977,-5.746856],[-35.746725,-5.762911],[-35.746287,-5.76341],[-35.745439,-5.763966],[-35.744943,-5.764918],[-35.744924,-5.768932],[-35.743625,-5.770189],[-35.743182,-5.770938],[-35.743209,-5.774952],[-35.742817,-5.775602],[-35.741848,-5.776462],[-35.741514,-5.776959],[-35.741605,-5.780973],[-35.74113,-5.78204],[-35.739972,-5.782979],[-35.740245,-5.789],[-35.746269,-5.807062],[-35.747862,-5.813082],[-35.748694,-5.817096],[-35.749294,-5.82111],[-35.749632,-5.825123],[-35.749668,-5.829137],[-35.74936,-5.833151],[-35.748665,-5.837164],[-35.747535,-5.841178],[-35.745934,-5.845192],[-35.743834,-5.849205],[-35.74124,-5.853219],[-35.738259,-5.857174],[-35.727871,-5.869274],[-35.723368,-5.875294],[-35.720994,-5.879308],[-35.720006,-5.881315],[-35.718377,-5.885329],[-35.717167,-5.889342],[-35.716319,-5.893356],[-35.715765,-5.89737],[-35.715464,-5.901383],[-35.715399,-5.907404],[-35.715847,-5.915431],[-35.717846,-5.9355],[-35.718119,-5.943527],[-35.717968,-5.947541],[-35.717563,-5.951554],[-35.716851,-5.955568],[-35.715785,-5.959582],[-35.71431,-5.963596],[-35.712376,-5.967609],[-35.711226,-5.969616],[-35.708493,-5.97363],[-35.705218,-5.977643],[-35.701426,-5.981657],[-35.686081,-5.996164],[-35.68505,-5.999719],[-35.685021,-6.001726],[-35.682068,-6.004459],[-35.678054,-6.008772],[-35.67415,-6.013767],[-35.672033,-6.016916],[-35.669161,-6.021794],[-35.666148,-6.027815],[-35.659398,-6.043869],[-35.655586,-6.051897],[-35.651965,-6.058331],[-35.643445,-6.071965],[-35.639997,-6.077776]]}},{"type":"Feature","id":16,"properties":{"precipitacao_mm":600.0,"tipo":1,"fonte":"Acervo geoespacial do Projeto Potengi"},"geometry":{"type":"LineString","coordinates":[[-36.200215,-5.856069],[-36.200477,-5.86526],[-36.201302,-5.873288],[-36.202698,-5.881315],[-36.204682,-5.889342],[-36.205901,-5.893356],[-36.207861,-5.898947],[-36.211428,-5.907404],[-36.215544,-5.915431],[-36.220455,-5.923459],[-36.219451,-5.925466],[-36.223686,-5.931486],[-36.22681,-5.9355],[-36.231943,-5.94146],[-36.235957,-5.945646],[-36.240053,-5.949548],[-36.245991,-5.954637],[-36.250005,-5.95773],[-36.256025,-5.961915],[-36.264053,-5.966732],[-36.270073,-5.969826],[-36.276094,-5.972525],[-36.284121,-5.975537],[-36.290142,-5.977393],[-36.298169,-5.979354],[-36.306196,-5.980757],[-36.314224,-5.981613],[-36.322251,-5.981946],[-36.330279,-5.981752],[-36.338306,-5.981035],[-36.346333,-5.979779],[-36.354361,-5.977973],[-36.362245,-5.975637],[-36.370416,-5.972596],[-36.376373,-5.969938]]}},{"type":"Feature","id":17,"properties":{"precipitacao_mm":620.0,"tipo":1,"fonte":"Acervo geoespacial do Projeto Potengi"},"geometry":{"type":"LineString","coordinates":[[-36.225874,-5.85041],[-36.225041,-5.857233],[-36.224813,-5.863253],[-36.225091,-5.869274],[-36.225876,-5.875294],[-36.227194,-5.881315],[-36.229063,-5.887335],[-36.231529,-5.893356],[-36.233539,-5.89737],[-36.237176,-5.90339],[-36.239971,-5.907281],[-36.241977,-5.909769],[-36.245991,-5.914155],[-36.249475,-5.917438],[-36.254019,-5.921144],[-36.257304,-5.923459],[-36.257721,-5.925466],[-36.264053,-5.929186],[-36.270073,-5.932],[-36.276094,-5.934197],[-36.282114,-5.93583],[-36.288135,-5.936937],[-36.294155,-5.93754],[-36.298169,-5.937668],[-36.302183,-5.937579],[-36.308203,-5.937035],[-36.314224,-5.935989],[-36.320244,-5.934418],[-36.326265,-5.932286],[-36.330279,-5.930527],[-36.334292,-5.928473],[-36.339282,-5.925466],[-36.337103,-5.923459],[-36.34232,-5.919616],[-36.347052,-5.915431],[-36.350898,-5.911418],[-36.355384,-5.905857]]}},{"type":"Feature","id":18,"properties":{"precipitacao_mm":620.0,"tipo":1,"fonte":"Acervo geoespacial do Projeto Potengi"},"geometry":{"type":"LineString","coordinates":[[-35.725015,-5.694773],[-35.720198,-5.716057],[-35.716074,-5.736822],[-35.712704,-5.75689],[-35.709711,-5.778966],[-35.707536,-5.799034],[-35.704912,-5.82713],[-35.702136,-5.853584],[-35.701156,-5.86526],[-35.700576,-5.875294],[-35.700397,-5.883322],[-35.700528,-5.891349],[-35.700998,-5.899377],[-35.700514,-5.899967],[-35.700391,-5.900522],[-35.700379,-5.905397],[-35.69923,-5.906295],[-35.698745,-5.907404],[-35.698861,-5.913424],[-35.697596,-5.914783],[-35.697212,-5.915431],[-35.697294,-5.919445],[-35.696837,-5.920311],[-35.695633,-5.921452],[-35.695713,-5.925466],[-35.695523,-5.926282],[-35.695033,-5.92701],[-35.694046,-5.927472],[-35.694109,-5.930877],[-35.695032,-5.94152],[-35.695101,-5.947541],[-35.694893,-5.951554],[-35.694443,-5.955568],[-35.693277,-5.961589],[-35.691444,-5.967609],[-35.689836,-5.971623],[-35.686896,-5.977643],[-35.684074,-5.982501],[-35.683568,-5.985671],[-35.684675,-5.987678],[-35.684074,-5.990322],[-35.676047,-5.999892],[-35.672033,-6.0052],[-35.66802,-6.011014],[-35.6626,-6.019787],[-35.651965,-6.038791],[-35.647951,-6.045417],[-35.641931,-6.054358],[-35.633229,-6.066331]]}},{"type":"Feature","id":19,"properties":{"precipitacao_mm":640.0,"tipo":1,"fonte":"Acervo geoespacial do Projeto Potengi"},"geometry":{"type":"LineString","coordinates":[[-36.286798,-5.838173],[-36.282114,-5.838322],[-36.278101,-5.839085],[-36.274087,-5.840512],[-36.27208,-5.84149],[-36.269352,-5.843185],[-36.266808,-5.845192],[-36.264053,-5.848001],[-36.261692,-5.851212],[-36.2596,-5.855226],[-36.258244,-5.85924],[-36.257539,-5.863253],[-36.257415,-5.867267],[-36.257858,-5.871281],[-36.258934,-5.875294],[-36.26068,-5.879308],[-36.261844,-5.881315],[-36.263278,-5.883322],[-36.26606,-5.886412],[-36.269676,-5.889342],[-36.27208,-5.890806],[-36.276094,-5.892589],[-36.280107,-5.893689],[-36.282114,-5.893999],[-36.286128,-5.894188],[-36.290142,-5.893804],[-36.294155,-5.89281],[-36.297761,-5.891349],[-36.301206,-5.889342],[-36.30419,-5.887006],[-36.305904,-5.885329],[-36.307606,-5.883322],[-36.310205,-5.879308],[-36.31194,-5.875294],[-36.312989,-5.871281],[-36.313436,-5.867267],[-36.313454,-5.864281]]}},{"type":"Feature","id":20,"properties":{"precipitacao_mm":640.0,"tipo":1,"fonte":"Acervo geoespacial do Projeto Potengi"},"geometry":{"type":"LineString","coordinates":[[-35.680605,-5.722188],[-35.679,-5.740836],[-35.676892,-5.758897],[-35.674796,-5.772945],[-35.670349,-5.799034],[-35.668949,-5.809068],[-35.668066,-5.819103],[-35.667866,-5.82713],[-35.668037,-5.833151],[-35.668478,-5.839171],[-35.669422,-5.847199],[-35.67065,-5.855226],[-35.677494,-5.895363],[-35.679544,-5.905397],[-35.684974,-5.929479],[-35.686054,-5.9355],[-35.686836,-5.94152],[-35.68701,-5.943527],[-35.686489,-5.94412],[-35.686356,-5.944676],[-35.686293,-5.949548],[-35.685165,-5.950422],[-35.684879,-5.950902],[-35.684668,-5.951554],[-35.68464,-5.955568],[-35.68345,-5.956801],[-35.683017,-5.957575],[-35.682843,-5.963596],[-35.681215,-5.965602],[-35.681098,-5.969616],[-35.681491,-5.970442],[-35.682509,-5.971623],[-35.682068,-5.976045],[-35.679176,-5.981657],[-35.673262,-5.991691],[-35.653972,-6.022371],[-35.647951,-6.031408],[-35.641931,-6.039569],[-35.63591,-6.046896],[-35.618754,-6.065784]]}},{"type":"Feature","id":21,"properties":{"precipitacao_mm":660.0,"tipo":1,"fonte":"Acervo geoespacial do Projeto Potengi"},"geometry":{"type":"LineString","coordinates":[[-35.652343,-5.70155],[-35.649958,-5.702243],[-35.649283,-5.70413],[-35.648796,-5.70443],[-35.647951,-5.704603],[-35.647581,-5.706324],[-35.64722,-5.706589],[-35.646491,-5.706719],[-35.648339,-5.722774],[-35.649541,-5.738829],[-35.650013,-5.754884],[-35.649801,-5.768932],[-35.649428,-5.776959],[-35.648732,-5.786993],[-35.646512,-5.809068],[-35.645244,-5.819103],[-35.643938,-5.827832],[-35.642502,-5.835157],[-35.641463,-5.839171],[-35.639924,-5.843531],[-35.638511,-5.846147],[-35.637917,-5.84704],[-35.636889,-5.848149],[-35.63591,-5.84901],[-35.634764,-5.849638],[-35.633903,-5.850038],[-35.631896,-5.850487],[-35.621862,-5.850684],[-35.617849,-5.851246],[-35.613835,-5.852582],[-35.611828,-5.853607],[-35.609821,-5.85497],[-35.607454,-5.857233],[-35.605936,-5.85924],[-35.604889,-5.861246],[-35.604116,-5.863253],[-35.603649,-5.86526],[-35.603475,-5.867267],[-35.60355,-5.869274],[-35.603887,-5.871281],[-35.604561,-5.873288],[-35.605807,-5.875791],[-35.607814,-5.878352],[-35.609821,-5.880126],[-35.611828,-5.88144],[-35.613835,-5.882377],[-35.615842,-5.883075],[-35.619855,-5.883807],[-35.623869,-5.88388],[-35.633903,-5.882855],[-35.63591,-5.882971],[-35.637917,-5.883476],[-35.639924,-5.884469],[-35.641931,-5.886079],[-35.643938,-5.888274],[-35.645944,-5.890984],[-35.647951,-5.894049],[-35.651965,-5.900838],[-35.659992,-5.915475],[-35.66495,-5.925466],[-35.667567,-5.931486],[-35.669104,-5.9355],[-35.670449,-5.939513],[-35.671582,-5.943527],[-35.672851,-5.949548],[-35.673552,-5.955568],[-35.673688,-5.959582],[-35.673554,-5.963596],[-35.674171,-5.965602],[-35.67404,-5.966855],[-35.673155,-5.971623],[-35.671503,-5.977643],[-35.669337,-5.983664],[-35.666723,-5.989685],[-35.662665,-5.997712],[-35.659267,-6.003732],[-35.654306,-6.01176],[-35.649958,-6.018169],[-35.645944,-6.023575],[-35.641931,-6.028516],[-35.637917,-6.033018],[-35.633903,-6.037145],[-35.625876,-6.04456],[-35.610997,-6.056899]]}},{"type":"Feature","id":22,"properties":{"precipitacao_mm":680.0,"tipo":1,"fonte":"Acervo geoespacial do Projeto Potengi"},"geometry":{"type":"LineString","coordinates":[[-35.646199,-5.700147],[-35.644963,-5.700699],[-35.644715,-5.704713],[-35.644331,-5.704853],[-35.644134,-5.705128],[-35.643983,-5.706719],[-35.642747,-5.707055],[-35.642377,-5.707451],[-35.642109,-5.708726],[-35.642105,-5.710733],[-35.640722,-5.71144],[-35.640426,-5.711944],[-35.64024,-5.71274],[-35.639924,-5.713082],[-35.639075,-5.713448],[-35.638719,-5.713832],[-35.638379,-5.714747],[-35.638382,-5.716754],[-35.637917,-5.717259],[-35.637026,-5.717796],[-35.636249,-5.719131],[-35.635156,-5.719948],[-35.634893,-5.72031],[-35.634685,-5.720767],[-35.634696,-5.722774],[-35.63435,-5.723265],[-35.633288,-5.724109],[-35.632459,-5.725401],[-35.631405,-5.72625],[-35.630584,-5.727556],[-35.629517,-5.728386],[-35.629215,-5.728795],[-35.62924,-5.730802],[-35.629032,-5.731357],[-35.628754,-5.731771],[-35.627883,-5.732312],[-35.627432,-5.732808],[-35.627528,-5.738829],[-35.627345,-5.739646],[-35.626854,-5.740344],[-35.62575,-5.740836],[-35.625876,-5.747081],[-35.62752,-5.75689],[-35.628669,-5.766925],[-35.629175,-5.774952],[-35.629296,-5.780973],[-35.62908,-5.789],[-35.628358,-5.797027],[-35.626993,-5.805055],[-35.62538,-5.811075],[-35.623912,-5.815089],[-35.622038,-5.819103],[-35.620918,-5.82111],[-35.618202,-5.825123],[-35.616609,-5.82713],[-35.612946,-5.831144],[-35.603801,-5.840117],[-35.603052,-5.841672],[-35.601399,-5.843185],[-35.599787,-5.8468],[-35.59778,-5.8493],[-35.595158,-5.853219],[-35.593035,-5.857233],[-35.59176,-5.860359],[-35.590847,-5.863253],[-35.590005,-5.867267],[-35.589766,-5.869274],[-35.589668,-5.873288],[-35.589806,-5.875294],[-35.590488,-5.879308],[-35.591719,-5.883322],[-35.591204,-5.884109],[-35.590873,-5.885329],[-35.59176,-5.890865],[-35.593319,-5.893356],[-35.594816,-5.895363],[-35.59778,-5.898626],[-35.601794,-5.902028],[-35.603801,-5.903439],[-35.607814,-5.905839],[-35.613835,-5.90878],[-35.627883,-5.914903],[-35.631896,-5.916976],[-35.63591,-5.91939],[-35.639924,-5.922207],[-35.643938,-5.925562],[-35.647951,-5.929532],[-35.651965,-5.934291],[-35.655554,-5.939513],[-35.657831,-5.943527],[-35.659992,-5.948196],[-35.661881,-5.953561],[-35.662897,-5.957575],[-35.663792,-5.963596],[-35.664547,-5.965602],[-35.664511,-5.969616],[-35.664175,-5.97363],[-35.663146,-5.97965],[-35.662109,-5.983664],[-35.660083,-5.989685],[-35.657513,-5.995705],[-35.654414,-6.001726],[-35.651965,-6.005882],[-35.647951,-6.011884],[-35.643938,-6.017098],[-35.639924,-6.021668],[-35.63591,-6.025711],[-35.631896,-6.029317],[-35.627883,-6.032556],[-35.623869,-6.035492],[-35.617849,-6.039471],[-35.611828,-6.043088],[-35.601982,-6.048567]]}},{"type":"Feature","id":23,"properties":{"precipitacao_mm":700.0,"tipo":1,"fonte":"Acervo geoespacial do Projeto Potengi"},"geometry":{"type":"LineString","coordinates":[[-35.618372,-5.727744],[-35.619918,-5.744849],[-35.620745,-5.75689],[-35.620282,-5.757238],[-35.620065,-5.75798],[-35.620034,-5.764918],[-35.618845,-5.765724],[-35.618348,-5.766925],[-35.618399,-5.772945],[-35.617195,-5.774158],[-35.616756,-5.774952],[-35.616794,-5.780973],[-35.616395,-5.781671],[-35.615193,-5.782979],[-35.615185,-5.789],[-35.614691,-5.7901],[-35.613619,-5.791007],[-35.613439,-5.799034],[-35.612963,-5.80036],[-35.612034,-5.801041],[-35.611828,-5.802179],[-35.611515,-5.807062],[-35.611052,-5.808363],[-35.610198,-5.809068],[-35.609821,-5.810219],[-35.609229,-5.815089],[-35.608673,-5.816134],[-35.607577,-5.817096],[-35.606368,-5.823116],[-35.605124,-5.824348],[-35.604603,-5.825123],[-35.603801,-5.827891],[-35.595773,-5.838071],[-35.589753,-5.846393],[-35.58558,-5.853219],[-35.582597,-5.85924],[-35.580993,-5.863253],[-35.579717,-5.867267],[-35.578445,-5.873288],[-35.577979,-5.879308],[-35.578363,-5.885329],[-35.57912,-5.889342],[-35.579657,-5.891349],[-35.581083,-5.895363],[-35.583021,-5.899377],[-35.585739,-5.903623],[-35.586849,-5.909411],[-35.58645,-5.910451],[-35.585487,-5.911418],[-35.585739,-5.913052],[-35.586144,-5.913424],[-35.58857,-5.915431],[-35.591481,-5.917438],[-35.595049,-5.919445],[-35.59778,-5.920733],[-35.604821,-5.923459],[-35.619855,-5.928459],[-35.625876,-5.930892],[-35.62989,-5.932841],[-35.633903,-5.935156],[-35.637917,-5.937936],[-35.641931,-5.941333],[-35.645944,-5.945583],[-35.648915,-5.949548],[-35.650187,-5.951554],[-35.651965,-5.95484],[-35.653192,-5.957575],[-35.653972,-5.959643],[-35.655147,-5.963596],[-35.656048,-5.965602],[-35.656709,-5.971623],[-35.656563,-5.977643],[-35.655658,-5.983664],[-35.654649,-5.987678],[-35.65253,-5.993698],[-35.649958,-5.999172],[-35.647331,-6.003732],[-35.643938,-6.008642],[-35.639924,-6.013475],[-35.63591,-6.017529],[-35.631896,-6.020984],[-35.625876,-6.02528],[-35.621862,-6.027668],[-35.615842,-6.030705],[-35.609821,-6.033209],[-35.603801,-6.035328],[-35.586549,-6.040472]]}},{"type":"Feature","id":24,"properties":{"precipitacao_mm":720.0,"tipo":1,"fonte":"Acervo geoespacial do Projeto Potengi"},"geometry":{"type":"LineString","coordinates":[[-35.598057,-5.742042],[-35.597534,-5.742843],[-35.600211,-5.752877],[-35.602085,-5.760904],[-35.603608,-5.768932],[-35.604683,-5.776959],[-35.605128,-5.782979],[-35.605212,-5.789],[-35.60488,-5.795021],[-35.604066,-5.801041],[-35.602721,-5.807062],[-35.60078,-5.813082],[-35.599143,-5.817096],[-35.596193,-5.823116],[-35.592741,-5.829137],[-35.590223,-5.833151],[-35.5796,-5.849205],[-35.575705,-5.85543],[-35.574405,-5.861246],[-35.573698,-5.865497],[-35.573085,-5.867267],[-35.572406,-5.868033],[-35.571987,-5.869274],[-35.571691,-5.872548],[-35.570911,-5.877301],[-35.570645,-5.881315],[-35.570725,-5.885329],[-35.570267,-5.886028],[-35.570021,-5.887335],[-35.570724,-5.901383],[-35.570311,-5.902225],[-35.569243,-5.90339],[-35.569684,-5.90862],[-35.570372,-5.909411],[-35.571691,-5.912072],[-35.573674,-5.915431],[-35.575705,-5.918268],[-35.577712,-5.920622],[-35.579718,-5.922613],[-35.583732,-5.92575],[-35.584042,-5.927472],[-35.583,-5.928459],[-35.582599,-5.929479],[-35.583732,-5.935403],[-35.589753,-5.936453],[-35.607814,-5.938306],[-35.613835,-5.939338],[-35.617849,-5.940288],[-35.623869,-5.942266],[-35.627883,-5.944048],[-35.62989,-5.945112],[-35.633903,-5.947665],[-35.637917,-5.95094],[-35.640472,-5.953561],[-35.643588,-5.957575],[-35.646516,-5.962548],[-35.648005,-5.965602],[-35.64913,-5.969616],[-35.649783,-5.97363],[-35.649996,-5.977643],[-35.649944,-5.97965],[-35.649534,-5.983664],[-35.648156,-5.989685],[-35.646713,-5.993698],[-35.644828,-5.997712],[-35.641931,-6.002504],[-35.639924,-6.005229],[-35.637917,-6.007612],[-35.633903,-6.011596],[-35.62989,-6.0148],[-35.625876,-6.017403],[-35.621862,-6.019518],[-35.615842,-6.021936],[-35.611828,-6.023125],[-35.605807,-6.024365],[-35.601794,-6.024881],[-35.595773,-6.02527],[-35.589753,-6.025306],[-35.577712,-6.025011],[-35.573698,-6.025082],[-35.567677,-6.025716],[-35.563664,-6.026665],[-35.55965,-6.028178],[-35.559462,-6.028917],[-35.559139,-6.029349],[-35.557569,-6.029821],[-35.556896,-6.035842],[-35.556393,-6.036571],[-35.555197,-6.037409],[-35.554845,-6.037849],[-35.554517,-6.039351]]}},{"type":"Feature","id":25,"properties":{"precipitacao_mm":740.0,"tipo":1,"fonte":"Acervo geoespacial do Projeto Potengi"},"geometry":{"type":"LineString","coordinates":[[-35.592947,-5.743677],[-35.593766,-5.744431],[-35.5939,-5.744849],[-35.59279,-5.745355],[-35.592294,-5.74605],[-35.592108,-5.746856],[-35.59217,-5.75087],[-35.59176,-5.751347],[-35.590899,-5.751899],[-35.590622,-5.752318],[-35.590414,-5.752877],[-35.590513,-5.75689],[-35.590181,-5.757401],[-35.589201,-5.758257],[-35.588805,-5.758897],[-35.588954,-5.762911],[-35.588501,-5.763839],[-35.587309,-5.764918],[-35.587522,-5.768932],[-35.5874,-5.770366],[-35.587094,-5.770938],[-35.589191,-5.776959],[-35.590833,-5.782979],[-35.59176,-5.787618],[-35.592452,-5.793014],[-35.592692,-5.799034],[-35.592525,-5.803048],[-35.592083,-5.807062],[-35.590893,-5.813082],[-35.589046,-5.819103],[-35.586547,-5.825123],[-35.58453,-5.829137],[-35.582248,-5.833151],[-35.577712,-5.840126],[-35.575705,-5.846144],[-35.568171,-5.857233],[-35.565759,-5.861246],[-35.563632,-5.86526],[-35.56109,-5.871281],[-35.559872,-5.875294],[-35.559015,-5.879308],[-35.558506,-5.883322],[-35.558314,-5.887335],[-35.558411,-5.891349],[-35.559044,-5.89737],[-35.559758,-5.901383],[-35.561241,-5.907404],[-35.563201,-5.913424],[-35.565671,-5.919442],[-35.565831,-5.921452],[-35.564759,-5.92226],[-35.564301,-5.923459],[-35.564895,-5.931486],[-35.564446,-5.932457],[-35.563664,-5.933014],[-35.563286,-5.933493],[-35.563664,-5.939037],[-35.565671,-5.941822],[-35.567677,-5.944009],[-35.570666,-5.946297],[-35.573698,-5.947748],[-35.575705,-5.948308],[-35.579718,-5.948769],[-35.581725,-5.957523],[-35.587746,-5.954534],[-35.593766,-5.952261],[-35.599787,-5.950717],[-35.605807,-5.949911],[-35.611828,-5.949879],[-35.615842,-5.950325],[-35.617849,-5.950702],[-35.621862,-5.9518],[-35.623869,-5.952537],[-35.627883,-5.954465],[-35.631896,-5.95714],[-35.63465,-5.959582],[-35.638361,-5.963596],[-35.640668,-5.967609],[-35.642228,-5.971623],[-35.643149,-5.975637],[-35.643511,-5.97965],[-35.643491,-5.981657],[-35.643057,-5.985671],[-35.641931,-5.990192],[-35.640572,-5.993698],[-35.639583,-5.995705],[-35.637917,-5.998485],[-35.63591,-6.001225],[-35.633903,-6.003502],[-35.631896,-6.005429],[-35.627883,-6.008516],[-35.625876,-6.009759],[-35.621862,-6.011742],[-35.617849,-6.013161],[-35.615842,-6.013686],[-35.611828,-6.014392],[-35.607814,-6.014672],[-35.601794,-6.014338],[-35.59778,-6.013624],[-35.591639,-6.01176],[-35.585739,-6.009043],[-35.580315,-6.005739],[-35.575037,-6.001726],[-35.567677,-5.995132],[-35.567225,-5.995434],[-35.565671,-5.995522],[-35.565473,-5.995705],[-35.564847,-6.001726],[-35.564364,-6.002331],[-35.563051,-6.003161],[-35.562609,-6.003732],[-35.561942,-6.009753],[-35.561657,-6.010007],[-35.560577,-6.010345],[-35.560168,-6.010734],[-35.559811,-6.01176],[-35.55965,-6.013264],[-35.557643,-6.014571],[-35.555636,-6.016161],[-35.553629,-6.018015],[-35.549616,-6.02245],[-35.547609,-6.024993],[-35.543595,-6.030615],[-35.536741,-6.041499]]}},{"type":"Feature","id":26,"properties":{"precipitacao_mm":740.0,"tipo":1,"fonte":"Acervo geoespacial do Projeto Potengi"},"geometry":{"type":"LineString","coordinates":[[-35.53607,-6.042576],[-35.535126,-6.044145]]}},{"type":"Feature","id":27,"properties":{"precipitacao_mm":740.0,"tipo":1,"fonte":"Acervo geoespacial do Projeto Potengi"},"geometry":{"type":"LineString","coordinates":[[-35.534062,-6.045953],[-35.532988,-6.047795]]}},{"type":"Feature","id":28,"properties":{"precipitacao_mm":740.0,"tipo":1,"fonte":"Acervo geoespacial do Projeto Potengi"},"geometry":{"type":"LineString","coordinates":[[-35.531194,-6.050885],[-35.529551,-6.053769]]}},{"type":"Feature","id":29,"properties":{"precipitacao_mm":760.0,"tipo":1,"fonte":"Acervo geoespacial do Projeto Potengi"},"geometry":{"type":"LineString","coordinates":[[-35.569166,-5.730014],[-35.569751,-5.735129]]}},{"type":"Feature","id":30,"properties":{"precipitacao_mm":760.0,"tipo":1,"fonte":"Acervo geoespacial do Projeto Potengi"},"geometry":{"type":"LineString","coordinates":[[-35.569967,-5.736676],[-35.570622,-5.740836],[-35.571854,-5.746856],[-35.574555,-5.75689],[-35.579844,-5.772945],[-35.581518,-5.774952],[-35.582067,-5.776959],[-35.581873,-5.778966],[-35.582777,-5.795021],[-35.582362,-5.796048],[-35.58152,-5.797027],[-35.582067,-5.803048],[-35.582248,-5.807062],[-35.582066,-5.811075],[-35.581633,-5.814517],[-35.58058,-5.819103],[-35.579718,-5.821828],[-35.578078,-5.829137],[-35.577712,-5.830484],[-35.577336,-5.831144],[-35.576492,-5.831966],[-35.575705,-5.833801],[-35.573698,-5.836777],[-35.569684,-5.842024],[-35.565671,-5.846689],[-35.557872,-5.855226],[-35.553006,-5.861246],[-35.550432,-5.86526],[-35.549373,-5.867267],[-35.547662,-5.871281],[-35.546441,-5.875294],[-35.545373,-5.881315],[-35.545002,-5.887335],[-35.545154,-5.893356],[-35.545949,-5.901383],[-35.546871,-5.907404],[-35.548396,-5.915431],[-35.551623,-5.929904],[-35.55726,-5.953561],[-35.557643,-5.955299],[-35.557705,-5.957575],[-35.556451,-5.958191],[-35.556063,-5.959105],[-35.556074,-5.965602],[-35.55479,-5.966642],[-35.554302,-5.967609],[-35.5543,-5.97363],[-35.552942,-5.974864],[-35.552487,-5.975637],[-35.55235,-5.983664],[-35.550721,-5.985273],[-35.550518,-5.985671],[-35.550458,-5.987678],[-35.550091,-5.98818],[-35.549026,-5.989034],[-35.548604,-5.989685],[-35.548533,-5.991691],[-35.548138,-5.99225],[-35.547073,-5.993107],[-35.546674,-5.993698],[-35.546594,-5.995705],[-35.546177,-5.996312],[-35.54511,-5.997169],[-35.544733,-5.997712],[-35.544555,-6.001726],[-35.544147,-6.002307],[-35.543079,-6.003166],[-35.542689,-6.003732],[-35.542593,-6.005739],[-35.54217,-6.006354],[-35.541101,-6.007212],[-35.540726,-6.007746],[-35.540626,-6.009753],[-35.540191,-6.010397],[-35.539119,-6.011253],[-35.538757,-6.01176],[-35.538654,-6.013767],[-35.538209,-6.014438],[-35.537133,-6.015291],[-35.536784,-6.015774],[-35.536679,-6.01778],[-35.536224,-6.018475],[-35.535145,-6.019326],[-35.534807,-6.019787],[-35.534592,-6.023801],[-35.53416,-6.024434],[-35.533086,-6.025291],[-35.532717,-6.025808],[-35.532608,-6.027815],[-35.53217,-6.028465],[-35.531092,-6.02932],[-35.53073,-6.029821],[-35.530621,-6.031828],[-35.530177,-6.032493],[-35.529096,-6.033346],[-35.52874,-6.033835],[-35.528631,-6.035842],[-35.528427,-6.03621],[-35.526747,-6.037849],[-35.526638,-6.039856],[-35.526185,-6.040542],[-35.525097,-6.041392],[-35.52475,-6.041863],[-35.524535,-6.045876],[-35.523842,-6.04673],[-35.522931,-6.047102]]}},{"type":"Feature","id":31,"properties":{"precipitacao_mm":760.0,"tipo":1,"fonte":"Acervo geoespacial do Projeto Potengi"},"geometry":{"type":"LineString","coordinates":[[-35.621614,-5.961589],[-35.617849,-5.96051],[-35.613835,-5.96017],[-35.611828,-5.960223],[-35.607814,-5.960756],[-35.603801,-5.9619],[-35.599787,-5.963962],[-35.597473,-5.965602],[-35.595773,-5.967114],[-35.593513,-5.969616],[-35.592122,-5.971623],[-35.591019,-5.97363],[-35.590175,-5.975637],[-35.589559,-5.977643],[-35.589146,-5.97965],[-35.588937,-5.981657],[-35.589107,-5.985671],[-35.590078,-5.989685],[-35.590882,-5.991691],[-35.59194,-5.993698],[-35.593273,-5.995705],[-35.594953,-5.997712],[-35.59778,-6.000264],[-35.599787,-6.00167],[-35.601794,-6.002772],[-35.603801,-6.003673],[-35.605807,-6.004344],[-35.609821,-6.005158],[-35.613835,-6.005295],[-35.615842,-6.005111],[-35.619855,-6.004229],[-35.621862,-6.003509],[-35.623869,-6.002566],[-35.625876,-6.001394],[-35.628134,-5.999719],[-35.62989,-5.998095],[-35.631896,-5.99577],[-35.633267,-5.993698],[-35.634343,-5.991691],[-35.63517,-5.989685],[-35.63591,-5.987213],[-35.636459,-5.983664],[-35.636512,-5.981657],[-35.636075,-5.977643],[-35.635552,-5.975637],[-35.634812,-5.97363],[-35.633859,-5.971623],[-35.632588,-5.969616],[-35.62989,-5.966456],[-35.627883,-5.964736],[-35.626224,-5.963596],[-35.623869,-5.962434],[-35.621614,-5.961589]]}},{"type":"Feature","id":32,"properties":{"precipitacao_mm":780.0,"tipo":1,"fonte":"Acervo geoespacial do Projeto Potengi"},"geometry":{"type":"LineString","coordinates":[[-35.541362,-5.722836],[-35.541275,-5.732808],[-35.541667,-5.740836],[-35.54267,-5.748863],[-35.544011,-5.754884],[-35.545602,-5.756063],[-35.546153,-5.75689],[-35.546651,-5.758081],[-35.547377,-5.758897],[-35.548934,-5.762911],[-35.549883,-5.764918],[-35.550946,-5.766925],[-35.553448,-5.770938],[-35.55636,-5.774952],[-35.561657,-5.781623],[-35.565671,-5.787068],[-35.567677,-5.790193],[-35.569684,-5.793855],[-35.571691,-5.798547],[-35.573001,-5.803048],[-35.573703,-5.807062],[-35.573913,-5.811075],[-35.573846,-5.813082],[-35.573336,-5.817096],[-35.572316,-5.82111],[-35.571618,-5.823116],[-35.569684,-5.827232],[-35.567677,-5.830426],[-35.565671,-5.833062],[-35.561657,-5.837207],[-35.557643,-5.840439],[-35.553629,-5.843146],[-35.543672,-5.849205],[-35.540956,-5.851212],[-35.538767,-5.853219],[-35.536332,-5.856206],[-35.534575,-5.85924],[-35.533561,-5.861666],[-35.532492,-5.86526],[-35.531755,-5.869274],[-35.531365,-5.873288],[-35.531241,-5.879308],[-35.531511,-5.885329],[-35.532797,-5.89737],[-35.53703,-5.925466],[-35.538657,-5.939513],[-35.539193,-5.947541],[-35.539366,-5.953561],[-35.539263,-5.961589],[-35.538921,-5.967609],[-35.538091,-5.975637],[-35.536852,-5.983664],[-35.53476,-5.993698],[-35.532697,-6.001726],[-35.53033,-6.009753],[-35.526297,-6.021794],[-35.522562,-6.031828],[-35.518035,-6.043104]]}},{"type":"Feature","id":33,"properties":{"precipitacao_mm":780.0,"tipo":1,"fonte":"Acervo geoespacial do Projeto Potengi"},"geometry":{"type":"LineString","coordinates":[[-35.620938,-5.97363],[-35.619855,-5.973126],[-35.617849,-5.972589],[-35.615842,-5.972432],[-35.613835,-5.97265],[-35.611828,-5.973246],[-35.609821,-5.974348],[-35.608251,-5.975637],[-35.606684,-5.977643],[-35.605705,-5.97965],[-35.605226,-5.981657],[-35.605126,-5.983664],[-35.605402,-5.985671],[-35.6061,-5.987678],[-35.607327,-5.989685],[-35.609821,-5.992026],[-35.611828,-5.993081],[-35.613835,-5.993712],[-35.615842,-5.993895],[-35.617976,-5.993698],[-35.619855,-5.99313],[-35.622427,-5.991691],[-35.62447,-5.989685],[-35.625743,-5.987678],[-35.62643,-5.985671],[-35.626723,-5.983664],[-35.626643,-5.981657],[-35.62619,-5.97965],[-35.62524,-5.977643],[-35.623869,-5.975778],[-35.621862,-5.974139],[-35.620938,-5.97363]]}},{"type":"Feature","id":34,"properties":{"precipitacao_mm":800.0,"tipo":1,"fonte":"Acervo geoespacial do Projeto Potengi"},"geometry":{"type":"LineString","coordinates":[[-35.516447,-5.71912],[-35.514015,-5.738829],[-35.51437,-5.739666],[-35.514965,-5.742011],[-35.515445,-5.742843],[-35.513493,-5.757282],[-35.511867,-5.770938],[-35.510863,-5.780973],[-35.510073,-5.791007],[-35.509452,-5.805055],[-35.509451,-5.813082],[-35.509644,-5.819103],[-35.510152,-5.82713],[-35.510891,-5.835157],[-35.511573,-5.841178],[-35.513275,-5.853219],[-35.516028,-5.869274],[-35.523022,-5.905397],[-35.52473,-5.915431],[-35.525868,-5.923459],[-35.526753,-5.931486],[-35.527319,-5.939513],[-35.527542,-5.947541],[-35.527476,-5.953561],[-35.526914,-5.963596],[-35.525777,-5.97363],[-35.52411,-5.983664],[-35.521924,-5.993698],[-35.51925,-6.003732],[-35.516115,-6.013767],[-35.512538,-6.023801],[-35.507209,-6.037143]]}},{"type":"Feature","id":35,"properties":{"precipitacao_mm":820.0,"tipo":1,"fonte":"Acervo geoespacial do Projeto Potengi"},"geometry":{"type":"LineString","coordinates":[[-35.494415,-5.738847],[-35.493948,-5.741981]]}},{"type":"Feature","id":36,"properties":{"precipitacao_mm":820.0,"tipo":1,"fonte":"Acervo geoespacial do Projeto Potengi"},"geometry":{"type":"LineString","coordinates":[[-35.493667,-5.743729],[-35.491417,-5.758127],[-35.490236,-5.766926]]}},{"type":"Feature","id":37,"properties":{"precipitacao_mm":820.0,"tipo":1,"fonte":"Acervo geoespacial do Projeto Potengi"},"geometry":{"type":"LineString","coordinates":[[-35.489912,-5.769535],[-35.489255,-5.774952],[-35.488535,-5.782979],[-35.488089,-5.791007],[-35.487978,-5.797027],[-35.488086,-5.803048],[-35.488431,-5.809068],[-35.489021,-5.815089],[-35.489875,-5.82111],[-35.49186,-5.831144],[-35.494478,-5.841178],[-35.497438,-5.850876],[-35.506677,-5.879308],[-35.510137,-5.891349],[-35.512654,-5.901383],[-35.514775,-5.911418],[-35.516439,-5.921452],[-35.517573,-5.931486],[-35.518148,-5.94152],[-35.518117,-5.951554],[-35.517806,-5.957575],[-35.517282,-5.963596],[-35.516556,-5.969616],[-35.515613,-5.975637],[-35.514484,-5.981657],[-35.513149,-5.987678],[-35.509913,-5.999719],[-35.505923,-6.01176],[-35.502036,-6.021794],[-35.496161,-6.035128]]}},{"type":"Feature","id":38,"properties":{"precipitacao_mm":840.0,"tipo":1,"fonte":"Acervo geoespacial do Projeto Potengi"},"geometry":{"type":"LineString","coordinates":[[-35.47479,-5.762198],[-35.474079,-5.770938],[-35.473632,-5.778966],[-35.473448,-5.786993],[-35.473518,-5.793014],[-35.473928,-5.801041],[-35.474494,-5.807062],[-35.475296,-5.813082],[-35.476359,-5.819103],[-35.477671,-5.825123],[-35.479235,-5.831144],[-35.482368,-5.841178],[-35.48602,-5.851212],[-35.497073,-5.879308],[-35.500608,-5.889342],[-35.503103,-5.89737],[-35.505749,-5.907404],[-35.507824,-5.917438],[-35.509281,-5.927472],[-35.510099,-5.937507],[-35.510252,-5.947541],[-35.510025,-5.953561],[-35.509559,-5.959582],[-35.508873,-5.965602],[-35.507953,-5.971623],[-35.506811,-5.977643],[-35.505443,-5.983664],[-35.502696,-5.993698],[-35.500754,-5.999719],[-35.498596,-6.005739],[-35.49622,-6.01176],[-35.493626,-6.01778],[-35.487719,-6.029967]]}},{"type":"Feature","id":39,"properties":{"precipitacao_mm":860.0,"tipo":1,"fonte":"Acervo geoespacial do Projeto Potengi"},"geometry":{"type":"LineString","coordinates":[[-35.4617,-5.757885],[-35.461205,-5.766925],[-35.460965,-5.774952],[-35.46095,-5.782979],[-35.461214,-5.791007],[-35.461816,-5.799034],[-35.462516,-5.805055],[-35.463448,-5.811075],[-35.46509,-5.819103],[-35.4678,-5.829137],[-35.469771,-5.835157],[-35.47198,-5.841178],[-35.476971,-5.853219],[-35.488617,-5.879308],[-35.492637,-5.889342],[-35.495459,-5.89737],[-35.498434,-5.907404],[-35.500319,-5.915431],[-35.502038,-5.925466],[-35.502891,-5.933493],[-35.503293,-5.943527],[-35.503188,-5.949548],[-35.502823,-5.955568],[-35.501636,-5.965602],[-35.500593,-5.971623],[-35.499291,-5.977643],[-35.496579,-5.987678],[-35.494616,-5.993698],[-35.492402,-5.999719],[-35.489932,-6.005739],[-35.487404,-6.011337],[-35.481486,-6.022974]]}},{"type":"Feature","id":40,"properties":{"precipitacao_mm":880.0,"tipo":1,"fonte":"Acervo geoespacial do Projeto Potengi"},"geometry":{"type":"LineString","coordinates":[[-35.44967,-5.759025],[-35.449483,-5.768932],[-35.449516,-5.776959],[-35.449771,-5.784986],[-35.450305,-5.793014],[-35.451175,-5.801041],[-35.452091,-5.807062],[-35.453287,-5.813242],[-35.455224,-5.82111],[-35.458404,-5.831144],[-35.460687,-5.837164],[-35.463226,-5.843185],[-35.467918,-5.853219],[-35.480908,-5.879308],[-35.484536,-5.887335],[-35.487779,-5.895363],[-35.49058,-5.90339],[-35.493386,-5.913424],[-35.495068,-5.921452],[-35.496441,-5.931486],[-35.497,-5.94152],[-35.496949,-5.947541],[-35.496612,-5.953561],[-35.495987,-5.959582],[-35.495078,-5.965602],[-35.492939,-5.975637],[-35.490012,-5.985671],[-35.487872,-5.991691],[-35.485397,-5.997806],[-35.482706,-6.003732],[-35.479662,-6.009753],[-35.473304,-6.020791]]}},{"type":"Feature","id":41,"properties":{"precipitacao_mm":900.0,"tipo":1,"fonte":"Acervo geoespacial do Projeto Potengi"},"geometry":{"type":"LineString","coordinates":[[-35.438789,-5.75418],[-35.438757,-5.766925],[-35.438955,-5.776959],[-35.43933,-5.784986],[-35.439966,-5.793014],[-35.440926,-5.801041],[-35.441907,-5.807062],[-35.443621,-5.815089],[-35.445251,-5.82111],[-35.4472,-5.82713],[-35.448682,-5.831144],[-35.451175,-5.837164],[-35.453973,-5.843185],[-35.459184,-5.853219],[-35.473669,-5.879308],[-35.477689,-5.887335],[-35.481269,-5.895363],[-35.484344,-5.90339],[-35.486289,-5.909411],[-35.487403,-5.913424],[-35.489217,-5.921452],[-35.490204,-5.927472],[-35.49068,-5.931486],[-35.491011,-5.9355],[-35.491242,-5.94152],[-35.491157,-5.947541],[-35.490758,-5.953561],[-35.49004,-5.959582],[-35.489006,-5.965602],[-35.488144,-5.969616],[-35.486582,-5.975637],[-35.484697,-5.981657],[-35.482482,-5.987678],[-35.479928,-5.993698],[-35.478031,-5.997712],[-35.475362,-6.00286],[-35.472576,-6.007746],[-35.469342,-6.012929],[-35.465374,-6.018734]]}},{"type":"Feature","id":42,"properties":{"precipitacao_mm":920.0,"tipo":1,"fonte":"Acervo geoespacial do Projeto Potengi"},"geometry":{"type":"LineString","coordinates":[[-35.428618,-5.762007],[-35.428856,-5.772945],[-35.429306,-5.782979],[-35.4299,-5.791007],[-35.430775,-5.799034],[-35.432023,-5.807062],[-35.43326,-5.813082],[-35.434805,-5.819103],[-35.436697,-5.825123],[-35.438167,-5.829137],[-35.440699,-5.835157],[-35.442603,-5.839171],[-35.445762,-5.845192],[-35.450442,-5.853219],[-35.461315,-5.870471],[-35.466681,-5.879308],[-35.471151,-5.887335],[-35.474171,-5.893356],[-35.47769,-5.901383],[-35.480596,-5.909411],[-35.482867,-5.917438],[-35.484154,-5.923459],[-35.484813,-5.927472],[-35.485503,-5.933493],[-35.485772,-5.937507],[-35.485884,-5.94152],[-35.485758,-5.947541],[-35.485283,-5.953561],[-35.484464,-5.959582],[-35.48372,-5.963596],[-35.482312,-5.969616],[-35.480542,-5.975637],[-35.479156,-5.97965],[-35.477369,-5.984227],[-35.474948,-5.989685],[-35.471885,-5.995705],[-35.469604,-5.999719],[-35.467122,-6.003732],[-35.463626,-6.008911]]}},{"type":"Feature","id":43,"properties":{"precipitacao_mm":940.0,"tipo":1,"fonte":"Acervo geoespacial do Projeto Potengi"},"geometry":{"type":"LineString","coordinates":[[-35.419131,-5.765214],[-35.419949,-5.784986],[-35.420558,-5.793014],[-35.421434,-5.801041],[-35.422679,-5.809068],[-35.423928,-5.815089],[-35.425511,-5.82111],[-35.42749,-5.82713],[-35.430835,-5.835157],[-35.43283,-5.839171],[-35.43622,-5.845192],[-35.442768,-5.855226],[-35.453287,-5.869913],[-35.459308,-5.878634],[-35.463561,-5.885329],[-35.468117,-5.893356],[-35.470145,-5.89737],[-35.47286,-5.90339],[-35.475857,-5.911418],[-35.478143,-5.919445],[-35.479721,-5.927472],[-35.480252,-5.931486],[-35.480722,-5.937507],[-35.480807,-5.943527],[-35.48051,-5.949548],[-35.480098,-5.953561],[-35.479156,-5.959582],[-35.478314,-5.963596],[-35.476716,-5.969616],[-35.474708,-5.975637],[-35.473133,-5.97965],[-35.470399,-5.985671],[-35.468317,-5.989685],[-35.466015,-5.993698],[-35.463321,-5.997955],[-35.460699,-6.001726],[-35.457038,-6.006544]]}},{"type":"Feature","id":44,"properties":{"precipitacao_mm":960.0,"tipo":1,"fonte":"Acervo geoespacial do Projeto Potengi"},"geometry":{"type":"LineString","coordinates":[[-35.410029,-5.765971],[-35.41061,-5.780973],[-35.411176,-5.791007],[-35.411837,-5.799034],[-35.412783,-5.807062],[-35.413758,-5.813082],[-35.415157,-5.819595],[-35.416691,-5.825123],[-35.418819,-5.831144],[-35.421504,-5.837164],[-35.423636,-5.841178],[-35.426051,-5.845192],[-35.42874,-5.849205],[-35.434799,-5.857233],[-35.447267,-5.872388],[-35.452668,-5.879308],[-35.457301,-5.885758],[-35.462127,-5.893356],[-35.466441,-5.901383],[-35.469932,-5.909411],[-35.472611,-5.917438],[-35.4741,-5.923459],[-35.47485,-5.927472],[-35.475616,-5.933493],[-35.475891,-5.937507],[-35.475951,-5.943527],[-35.475756,-5.947541],[-35.475111,-5.953561],[-35.474445,-5.957575],[-35.473356,-5.962497],[-35.471921,-5.967609],[-35.469795,-5.97363],[-35.468108,-5.977643],[-35.466194,-5.981657],[-35.463321,-5.986915],[-35.460322,-5.991691],[-35.457495,-5.995705],[-35.454351,-5.999719],[-35.450984,-6.003633]]}},{"type":"Feature","id":45,"properties":{"precipitacao_mm":980.0,"tipo":1,"fonte":"Acervo geoespacial do Projeto Potengi"},"geometry":{"type":"LineString","coordinates":[[-35.401208,-5.764291],[-35.40247,-5.795021],[-35.40303,-5.803048],[-35.40386,-5.811075],[-35.405106,-5.819103],[-35.406436,-5.825123],[-35.408227,-5.831144],[-35.409745,-5.835157],[-35.411571,-5.839171],[-35.413746,-5.843185],[-35.416298,-5.847199],[-35.419244,-5.851212],[-35.422544,-5.855226],[-35.426149,-5.85924],[-35.439239,-5.872813],[-35.44526,-5.879395],[-35.45128,-5.886695],[-35.456061,-5.893356],[-35.45861,-5.89737],[-35.460909,-5.901383],[-35.462963,-5.905397],[-35.464777,-5.909411],[-35.466357,-5.913424],[-35.467709,-5.917438],[-35.468839,-5.921452],[-35.469751,-5.925466],[-35.470449,-5.929479],[-35.471101,-5.9355],[-35.471275,-5.939513],[-35.471151,-5.945534],[-35.47056,-5.951554],[-35.469903,-5.955568],[-35.46903,-5.959582],[-35.467938,-5.963596],[-35.465869,-5.969616],[-35.464188,-5.97363],[-35.462251,-5.977643],[-35.46004,-5.981657],[-35.457301,-5.986025],[-35.454705,-5.989685],[-35.45152,-5.993698],[-35.448422,-5.997232]]}},{"type":"Feature","id":46,"properties":{"precipitacao_mm":1000.0,"tipo":1,"fonte":"Acervo geoespacial do Projeto Potengi"},"geometry":{"type":"LineString","coordinates":[[-35.392526,-5.759714],[-35.393024,-5.770938],[-35.394021,-5.803048],[-35.394486,-5.811075],[-35.39502,-5.817096],[-35.396127,-5.825123],[-35.397394,-5.831144],[-35.399102,-5.836857],[-35.40082,-5.841178],[-35.40284,-5.845192],[-35.405123,-5.848871],[-35.406799,-5.851212],[-35.410138,-5.855226],[-35.416176,-5.861246],[-35.431212,-5.87419],[-35.437232,-5.87965],[-35.443253,-5.88571],[-35.447267,-5.890261],[-35.449742,-5.893356],[-35.452669,-5.89737],[-35.455285,-5.901383],[-35.457595,-5.905397],[-35.459619,-5.909411],[-35.46137,-5.913424],[-35.462857,-5.917438],[-35.464091,-5.921452],[-35.46508,-5.925466],[-35.465829,-5.929479],[-35.466345,-5.933493],[-35.466629,-5.937507],[-35.466625,-5.943527],[-35.466105,-5.949548],[-35.465466,-5.953561],[-35.464588,-5.957575],[-35.463465,-5.961589],[-35.461315,-5.967559],[-35.459501,-5.971623],[-35.457411,-5.975637],[-35.455294,-5.979182],[-35.452216,-5.983664],[-35.449274,-5.987405],[-35.445398,-5.991691],[-35.442977,-5.994087]]}},{"type":"Feature","id":47,"properties":{"precipitacao_mm":1020.0,"tipo":1,"fonte":"Acervo geoespacial do Projeto Potengi"},"geometry":{"type":"LineString","coordinates":[[-35.383785,-5.752211],[-35.384503,-5.762911],[-35.384915,-5.772945],[-35.385159,-5.784986],[-35.385341,-5.811075],[-35.385576,-5.819103],[-35.385938,-5.825123],[-35.386559,-5.831144],[-35.387574,-5.837164],[-35.389068,-5.842834],[-35.39072,-5.847199],[-35.392779,-5.851212],[-35.395511,-5.855226],[-35.399092,-5.85924],[-35.401239,-5.861246],[-35.403629,-5.863253],[-35.409074,-5.867267],[-35.423185,-5.87669],[-35.429205,-5.881037],[-35.433219,-5.884212],[-35.437232,-5.887703],[-35.443253,-5.893737],[-35.446358,-5.89737],[-35.449274,-5.901199],[-35.452052,-5.905397],[-35.454348,-5.909411],[-35.456314,-5.913424],[-35.457971,-5.917438],[-35.459335,-5.921452],[-35.460415,-5.925466],[-35.461228,-5.929479],[-35.461777,-5.933493],[-35.462067,-5.937507],[-35.462025,-5.943527],[-35.461406,-5.949548],[-35.460663,-5.953561],[-35.45965,-5.957575],[-35.458352,-5.961589],[-35.456755,-5.965602],[-35.454836,-5.969616],[-35.452564,-5.97363],[-35.449901,-5.977643],[-35.44679,-5.981657],[-35.443253,-5.985575],[-35.439239,-5.989371],[-35.436987,-5.991225]]}},{"type":"Feature","id":48,"properties":{"precipitacao_mm":1040.0,"tipo":1,"fonte":"Acervo geoespacial do Projeto Potengi"},"geometry":{"type":"LineString","coordinates":[[-35.375776,-5.753111],[-35.376727,-5.766925],[-35.377107,-5.782979],[-35.376931,-5.797027],[-35.37603,-5.825123],[-35.376146,-5.837164],[-35.376621,-5.843185],[-35.377613,-5.849205],[-35.378716,-5.853219],[-35.380355,-5.857233],[-35.38145,-5.85924],[-35.382785,-5.861246],[-35.384419,-5.863253],[-35.387061,-5.865811],[-35.391075,-5.86877],[-35.397096,-5.872126],[-35.41315,-5.879537],[-35.421178,-5.883714],[-35.425191,-5.886118],[-35.429205,-5.888806],[-35.433219,-5.891845],[-35.437232,-5.895323],[-35.441246,-5.899365],[-35.443253,-5.90166],[-35.446151,-5.905397],[-35.449274,-5.910162],[-35.45128,-5.91383],[-35.453287,-5.918265],[-35.455117,-5.923459],[-35.456158,-5.927472],[-35.456899,-5.931486],[-35.457347,-5.9355],[-35.457473,-5.94152],[-35.457199,-5.945534],[-35.456629,-5.949548],[-35.455762,-5.953561],[-35.454579,-5.957575],[-35.453066,-5.961589],[-35.451192,-5.965602],[-35.448914,-5.969616],[-35.446183,-5.97363],[-35.443253,-5.977277],[-35.441065,-5.97965],[-35.437232,-5.983264],[-35.433219,-5.986445],[-35.429295,-5.989066]]}},{"type":"Feature","id":49,"properties":{"precipitacao_mm":1060.0,"tipo":1,"fonte":"Acervo geoespacial do Projeto Potengi"},"geometry":{"type":"LineString","coordinates":[[-35.368806,-5.764897],[-35.369159,-5.772945],[-35.369275,-5.780973],[-35.369166,-5.789],[-35.368849,-5.797027],[-35.367688,-5.813082],[-35.364697,-5.843185],[-35.364177,-5.853219],[-35.364316,-5.85924],[-35.364746,-5.863253],[-35.365626,-5.867267],[-35.366313,-5.869274],[-35.367238,-5.871281],[-35.369,-5.873905],[-35.371007,-5.875918],[-35.373013,-5.877359],[-35.377027,-5.879264],[-35.383048,-5.880963],[-35.399102,-5.884013],[-35.405123,-5.885431],[-35.409137,-5.886576],[-35.415157,-5.888694],[-35.419171,-5.890422],[-35.423185,-5.892452],[-35.427198,-5.894838],[-35.431212,-5.897649],[-35.435226,-5.900989],[-35.439239,-5.905019],[-35.442803,-5.909411],[-35.445471,-5.913424],[-35.447647,-5.917438],[-35.449398,-5.921452],[-35.451298,-5.927472],[-35.452112,-5.931486],[-35.452594,-5.9355],[-35.452697,-5.94152],[-35.452353,-5.945534],[-35.451676,-5.949548],[-35.450644,-5.953561],[-35.449247,-5.957575],[-35.447437,-5.961589],[-35.44526,-5.965467],[-35.443253,-5.968448],[-35.440751,-5.971623],[-35.436935,-5.975637],[-35.433219,-5.978831],[-35.429205,-5.981671],[-35.425191,-5.983997],[-35.421326,-5.985818]]}},{"type":"Feature","id":50,"properties":{"precipitacao_mm":1080.0,"tipo":1,"fonte":"Acervo geoespacial do Projeto Potengi"},"geometry":{"type":"LineString","coordinates":[[-35.361199,-5.766731],[-35.361532,-5.774952],[-35.361528,-5.784986],[-35.361207,-5.793014],[-35.360425,-5.803048],[-35.359507,-5.811075],[-35.358019,-5.82111],[-35.356185,-5.831144],[-35.354054,-5.841178],[-35.350938,-5.854174],[-35.347496,-5.867267],[-35.344032,-5.879308],[-35.341343,-5.887335],[-35.339748,-5.891349],[-35.338344,-5.894386],[-35.336102,-5.898403],[-35.334049,-5.901383],[-35.330652,-5.905397],[-35.329537,-5.907103]]}},{"type":"Feature","id":51,"properties":{"precipitacao_mm":1080.0,"tipo":1,"fonte":"Acervo geoespacial do Projeto Potengi"},"geometry":{"type":"LineString","coordinates":[[-35.353914,-5.913425],[-35.354952,-5.912355],[-35.356212,-5.910423],[-35.357896,-5.908371],[-35.361059,-5.905397],[-35.36372,-5.90339],[-35.365959,-5.901964],[-35.371007,-5.899342],[-35.377027,-5.896977],[-35.381041,-5.895779],[-35.385054,-5.894853],[-35.389068,-5.894187],[-35.393082,-5.893778],[-35.399102,-5.893649],[-35.405123,-5.894122],[-35.411143,-5.895246],[-35.417164,-5.897093],[-35.423185,-5.89979],[-35.425957,-5.901383],[-35.428985,-5.90339],[-35.433219,-5.906826],[-35.435226,-5.908772],[-35.437602,-5.911418],[-35.439239,-5.9135],[-35.441246,-5.91648],[-35.443899,-5.921452],[-35.44526,-5.924825],[-35.446106,-5.927472],[-35.447361,-5.933493],[-35.447719,-5.939513],[-35.447221,-5.945534],[-35.445812,-5.951554],[-35.445137,-5.953561],[-35.44342,-5.957575],[-35.44118,-5.961589],[-35.439239,-5.964398],[-35.437232,-5.966881],[-35.433219,-5.970919],[-35.429205,-5.974066],[-35.426762,-5.975637],[-35.423185,-5.977578],[-35.421178,-5.978484],[-35.417164,-5.979965],[-35.411143,-5.981425],[-35.40713,-5.981937],[-35.403116,-5.982099],[-35.399102,-5.98192],[-35.397366,-5.981655]]}},{"type":"Feature","id":52,"properties":{"precipitacao_mm":1100.0,"tipo":1,"fonte":"Acervo geoespacial do Projeto Potengi"},"geometry":{"type":"LineString","coordinates":[[-35.353493,-5.766311],[-35.353903,-5.774952],[-35.35393,-5.782979],[-35.353614,-5.791007],[-35.352955,-5.799034],[-35.351955,-5.807062],[-35.350224,-5.817096],[-35.348453,-5.825123],[-35.346335,-5.833151],[-35.34386,-5.841178],[-35.341007,-5.849205],[-35.337748,-5.857233],[-35.334883,-5.863481],[-35.33087,-5.871226],[-35.327291,-5.877301],[-35.323283,-5.883322],[-35.3191,-5.888994]]}},{"type":"Feature","id":53,"properties":{"precipitacao_mm":1100.0,"tipo":1,"fonte":"Acervo geoespacial do Projeto Potengi"},"geometry":{"type":"LineString","coordinates":[[-35.368184,-5.937286],[-35.36866,-5.931486],[-35.369507,-5.927472],[-35.370134,-5.925466],[-35.371851,-5.921452],[-35.374288,-5.917438],[-35.375838,-5.915431],[-35.377661,-5.913424],[-35.379819,-5.911418],[-35.382412,-5.909411],[-35.387061,-5.906645],[-35.389836,-5.905397],[-35.393082,-5.904256],[-35.396523,-5.90339],[-35.399102,-5.902945],[-35.401109,-5.902724],[-35.405123,-5.902587],[-35.409137,-5.902857],[-35.411143,-5.903146],[-35.41315,-5.903543],[-35.417164,-5.904676],[-35.419171,-5.905418],[-35.423185,-5.907314],[-35.427198,-5.909846],[-35.431212,-5.913191],[-35.433219,-5.915277],[-35.435226,-5.917752],[-35.437631,-5.921452],[-35.439239,-5.924665],[-35.440333,-5.927472],[-35.441246,-5.930624],[-35.441812,-5.933493],[-35.442186,-5.937507],[-35.442199,-5.939513],[-35.441877,-5.943527],[-35.441542,-5.945534],[-35.441081,-5.947541],[-35.439755,-5.951554],[-35.438885,-5.953561],[-35.437232,-5.956644],[-35.435269,-5.959582],[-35.433639,-5.961589],[-35.431212,-5.96412],[-35.429533,-5.965602],[-35.427198,-5.96739],[-35.425191,-5.968691],[-35.423185,-5.969822],[-35.419171,-5.97161],[-35.417164,-5.972289],[-35.41315,-5.973285],[-35.411143,-5.973609],[-35.40713,-5.973914],[-35.403116,-5.973787],[-35.401109,-5.97356],[-35.397096,-5.972766],[-35.395089,-5.972198],[-35.393082,-5.971511],[-35.391672,-5.970736]]}},{"type":"Feature","id":54,"properties":{"precipitacao_mm":1120.0,"tipo":1,"fonte":"Acervo geoespacial do Projeto Potengi"},"geometry":{"type":"LineString","coordinates":[[-35.345714,-5.765887],[-35.346166,-5.772945],[-35.346312,-5.780973],[-35.346053,-5.789],[-35.345593,-5.795021],[-35.344619,-5.803048],[-35.343228,-5.811075],[-35.341408,-5.819103],[-35.339753,-5.825123],[-35.337144,-5.833151],[-35.334872,-5.839171],[-35.331393,-5.847199],[-35.328419,-5.853219],[-35.324849,-5.859675],[-35.320835,-5.866143],[-35.316822,-5.871938],[-35.312764,-5.877237]]}},{"type":"Feature","id":55,"properties":{"precipitacao_mm":1120.0,"tipo":1,"fonte":"Acervo geoespacial do Projeto Potengi"},"geometry":{"type":"LineString","coordinates":[[-35.383273,-5.948083],[-35.382288,-5.945534],[-35.381769,-5.943527],[-35.381411,-5.94152],[-35.381157,-5.937507],[-35.381518,-5.933493],[-35.381936,-5.931486],[-35.383293,-5.927472],[-35.385462,-5.923459],[-35.386923,-5.921452],[-35.388718,-5.919445],[-35.390937,-5.917438],[-35.393082,-5.915886],[-35.397096,-5.913713],[-35.401109,-5.912324],[-35.403116,-5.911871],[-35.40713,-5.911417],[-35.411143,-5.911553],[-35.41315,-5.911843],[-35.417164,-5.912876],[-35.421178,-5.914596],[-35.423185,-5.915751],[-35.425544,-5.917438],[-35.427198,-5.918863],[-35.429205,-5.920946],[-35.431147,-5.923459],[-35.432365,-5.925466],[-35.433394,-5.927472],[-35.434193,-5.929479],[-35.435226,-5.933123],[-35.435603,-5.9355],[-35.435746,-5.939513],[-35.435594,-5.94152],[-35.43481,-5.945534],[-35.433352,-5.949548],[-35.431065,-5.953561],[-35.429205,-5.955946],[-35.427198,-5.958008],[-35.425191,-5.959695],[-35.423185,-5.961067],[-35.419171,-5.963127],[-35.417164,-5.963866],[-35.41315,-5.964826],[-35.411143,-5.965077],[-35.40713,-5.965131],[-35.403116,-5.96459],[-35.399563,-5.963596],[-35.397096,-5.962584],[-35.395089,-5.961561],[-35.393082,-5.960289],[-35.389723,-5.957575],[-35.386582,-5.953902]]}},{"type":"Feature","id":56,"properties":{"precipitacao_mm":1140.0,"tipo":1,"fonte":"Acervo geoespacial do Projeto Potengi"},"geometry":{"type":"LineString","coordinates":[[-35.337561,-5.763822],[-35.33822,-5.770938],[-35.3385,-5.776959],[-35.338467,-5.784986],[-35.338135,-5.791007],[-35.337279,-5.799034],[-35.336319,-5.805055],[-35.334883,-5.811916],[-35.332982,-5.819103],[-35.331058,-5.825123],[-35.328821,-5.831144],[-35.326254,-5.837164],[-35.322842,-5.844146],[-35.320057,-5.849205],[-35.316372,-5.855226],[-35.312251,-5.861246],[-35.307786,-5.867151]]}},{"type":"Feature","id":57,"properties":{"precipitacao_mm":1140.0,"tipo":1,"fonte":"Acervo geoespacial do Projeto Potengi"},"geometry":{"type":"LineString","coordinates":[[-35.417451,-5.923459],[-35.415157,-5.922628],[-35.41315,-5.92219],[-35.411143,-5.922006],[-35.409137,-5.922075],[-35.40713,-5.922396],[-35.405123,-5.922972],[-35.403116,-5.923853],[-35.401109,-5.925096],[-35.399102,-5.926831],[-35.397096,-5.929286],[-35.395891,-5.931486],[-35.395089,-5.93362],[-35.394664,-5.9355],[-35.394462,-5.937507],[-35.394508,-5.939513],[-35.394802,-5.94152],[-35.39537,-5.943527],[-35.396245,-5.945534],[-35.397096,-5.946987],[-35.399131,-5.949548],[-35.401562,-5.951554],[-35.403116,-5.952482],[-35.405123,-5.9534],[-35.40713,-5.953987],[-35.409137,-5.95431],[-35.411143,-5.954388],[-35.41315,-5.95422],[-35.415157,-5.953806],[-35.417164,-5.953094],[-35.419947,-5.951554],[-35.422347,-5.949548],[-35.424027,-5.947541],[-35.42527,-5.945534],[-35.426092,-5.943527],[-35.426655,-5.94152],[-35.426956,-5.939513],[-35.426992,-5.937507],[-35.426764,-5.9355],[-35.426274,-5.933493],[-35.425191,-5.930821],[-35.424408,-5.929479],[-35.422903,-5.927472],[-35.420754,-5.925466],[-35.419171,-5.924379],[-35.417451,-5.923459]]}},{"type":"Feature","id":58,"properties":{"precipitacao_mm":1160.0,"tipo":1,"fonte":"Acervo geoespacial do Projeto Potengi"},"geometry":{"type":"LineString","coordinates":[[-35.328913,-5.761501],[-35.329876,-5.768932],[-35.33033,-5.774952],[-35.330488,-5.780973],[-35.330346,-5.786993],[-35.329903,-5.793014],[-35.328863,-5.800884],[-35.327664,-5.807062],[-35.326166,-5.813082],[-35.32433,-5.819103],[-35.322141,-5.825123],[-35.319581,-5.831144],[-35.316633,-5.837164],[-35.313265,-5.843185],[-35.309449,-5.849205],[-35.305146,-5.855226],[-35.301527,-5.859806]]}},{"type":"Feature","id":59,"properties":{"precipitacao_mm":1180.0,"tipo":1,"fonte":"Acervo geoespacial do Projeto Potengi"},"geometry":{"type":"LineString","coordinates":[[-35.318809,-5.75609],[-35.320217,-5.762911],[-35.321114,-5.768932],[-35.321672,-5.774952],[-35.321896,-5.780973],[-35.321669,-5.789],[-35.321099,-5.795021],[-35.320169,-5.801041],[-35.318829,-5.807275],[-35.317211,-5.813082],[-35.314815,-5.819977],[-35.311754,-5.82713],[-35.308794,-5.832978],[-35.305166,-5.839171],[-35.301121,-5.845192],[-35.296753,-5.850915],[-35.293379,-5.854897]]}},{"type":"Feature","id":60,"properties":{"precipitacao_mm":1200.0,"tipo":1,"fonte":"Acervo geoespacial do Projeto Potengi"},"geometry":{"type":"LineString","coordinates":[[-35.305811,-5.747474],[-35.308244,-5.754884],[-35.309807,-5.760904],[-35.310998,-5.766925],[-35.311984,-5.774952],[-35.312305,-5.782979],[-35.312093,-5.789],[-35.311202,-5.797027],[-35.310053,-5.803048],[-35.308489,-5.809068],[-35.30648,-5.815089],[-35.304007,-5.82111],[-35.300767,-5.827662],[-35.296753,-5.834446],[-35.29274,-5.840253],[-35.288726,-5.845359],[-35.283419,-5.851253]]}},{"type":"Feature","id":61,"properties":{"precipitacao_mm":1220.0,"tipo":1,"fonte":"Acervo geoespacial do Projeto Potengi"},"geometry":{"type":"LineString","coordinates":[[-35.2936,-5.748325],[-35.295984,-5.754884],[-35.29816,-5.762911],[-35.299302,-5.768932],[-35.300183,-5.776959],[-35.300336,-5.784986],[-35.299955,-5.791007],[-35.2988,-5.799034],[-35.297386,-5.805055],[-35.294802,-5.813082],[-35.29274,-5.818068],[-35.289215,-5.825123],[-35.285581,-5.831144],[-35.281302,-5.837164],[-35.276266,-5.843185],[-35.270664,-5.848869],[-35.265421,-5.853436]]}},{"type":"Feature","id":62,"properties":{"precipitacao_mm":1240.0,"tipo":1,"fonte":"Acervo geoespacial do Projeto Potengi"},"geometry":{"type":"LineString","coordinates":[[-35.280076,-5.766252],[-35.280113,-5.766925],[-35.279607,-5.768932],[-35.27883,-5.770938],[-35.278112,-5.772119],[-35.276685,-5.773766],[-35.274678,-5.774945],[-35.272671,-5.77547],[-35.262637,-5.776122],[-35.26063,-5.77651],[-35.258623,-5.777104],[-35.256616,-5.777957],[-35.25461,-5.779144],[-35.25247,-5.780973],[-35.250596,-5.783365],[-35.249823,-5.784986],[-35.249114,-5.786993],[-35.248726,-5.789],[-35.248707,-5.791007],[-35.249055,-5.793014],[-35.249722,-5.795021],[-35.250596,-5.796936],[-35.252603,-5.799543],[-35.25461,-5.801314],[-35.256616,-5.802618],[-35.258623,-5.803617],[-35.26063,-5.80439],[-35.267706,-5.806392],[-35.27007,-5.807418],[-35.27139,-5.808405],[-35.272046,-5.809068],[-35.272671,-5.810024],[-35.273184,-5.811075],[-35.273709,-5.813082],[-35.273881,-5.815089],[-35.273804,-5.817096],[-35.273096,-5.82111],[-35.271792,-5.825123],[-35.269969,-5.829137],[-35.267639,-5.833151],[-35.264786,-5.837164],[-35.261354,-5.841178],[-35.256215,-5.846114]]}},{"type":"Feature","id":63,"properties":{"precipitacao_mm":1260.0,"tipo":1,"fonte":"Acervo geoespacial do Projeto Potengi"},"geometry":{"type":"LineString","coordinates":[[-35.262063,-5.753768],[-35.261397,-5.75689],[-35.260819,-5.758897],[-35.260029,-5.760904],[-35.257739,-5.764918],[-35.252603,-5.77173],[-35.250596,-5.774613],[-35.248589,-5.778018],[-35.246582,-5.782779],[-35.246012,-5.784986],[-35.245397,-5.789],[-35.245316,-5.791007],[-35.245391,-5.793014],[-35.24597,-5.797027],[-35.246582,-5.799555],[-35.248589,-5.804855],[-35.251583,-5.811075],[-35.25323,-5.815089],[-35.253832,-5.817096],[-35.254222,-5.819103],[-35.254398,-5.82111],[-35.254354,-5.823116],[-35.254083,-5.825123],[-35.253582,-5.82713],[-35.252845,-5.829137],[-35.251891,-5.831144],[-35.250697,-5.833151],[-35.249268,-5.835157],[-35.247578,-5.837164],[-35.243623,-5.841019]]}},{"type":"Feature","id":64,"properties":{"precipitacao_mm":1280.0,"tipo":1,"fonte":"Acervo geoespacial do Projeto Potengi"},"geometry":{"type":"LineString","coordinates":[[-35.249558,-5.754201],[-35.249562,-5.758897],[-35.249055,-5.762911],[-35.24759,-5.768932],[-35.244575,-5.779291],[-35.243464,-5.784986],[-35.242983,-5.789],[-35.242812,-5.795021],[-35.243022,-5.799034],[-35.244108,-5.811075],[-35.24412,-5.815089],[-35.243957,-5.817096],[-35.243164,-5.82111],[-35.242487,-5.823116],[-35.2416,-5.825123],[-35.240031,-5.827893]]}},{"type":"Feature","id":65,"properties":{"precipitacao_mm":1300.0,"tipo":1,"fonte":"Acervo geoespacial do Projeto Potengi"},"geometry":{"type":"LineString","coordinates":[[-35.213785,-5.737994],[-35.216479,-5.738259],[-35.220493,-5.73906],[-35.224507,-5.740388],[-35.226514,-5.74127],[-35.228521,-5.742321],[-35.232266,-5.744849],[-35.235572,-5.747747]]}},{"type":"Feature","id":66,"properties":{"precipitacao_mm":1300.0,"tipo":1,"fonte":"Acervo geoespacial do Projeto Potengi"},"geometry":{"type":"LineString","coordinates":[[-35.241369,-5.757451],[-35.242354,-5.762911],[-35.242554,-5.764918],[-35.2426,-5.770938],[-35.239763,-5.803048],[-35.238826,-5.809068],[-35.237731,-5.813082],[-35.236548,-5.816071],[-35.23488,-5.819103],[-35.234354,-5.820379]]}},{"type":"Feature","id":67,"properties":{"precipitacao_mm":1320.0,"tipo":1,"fonte":"Acervo geoespacial do Projeto Potengi"},"geometry":{"type":"LineString","coordinates":[[-35.202809,-5.749888],[-35.206445,-5.748989],[-35.208452,-5.748682],[-35.212466,-5.748456],[-35.214473,-5.748543],[-35.218486,-5.749132],[-35.220493,-5.749647],[-35.224507,-5.751208],[-35.226514,-5.752291],[-35.228521,-5.753628],[-35.230527,-5.755284],[-35.232534,-5.757355],[-35.235061,-5.760904],[-35.237006,-5.764918],[-35.237699,-5.766925],[-35.238555,-5.770292],[-35.238991,-5.772945],[-35.239349,-5.776959],[-35.239427,-5.780973],[-35.239291,-5.784986],[-35.238759,-5.791007],[-35.238171,-5.795021],[-35.237361,-5.799034],[-35.236548,-5.80213],[-35.234541,-5.807354],[-35.233094,-5.810009],[-35.231673,-5.812103],[-35.230527,-5.813551],[-35.228594,-5.815575]]}},{"type":"Feature","id":68,"properties":{"precipitacao_mm":1340.0,"tipo":1,"fonte":"Acervo geoespacial do Projeto Potengi"},"geometry":{"type":"LineString","coordinates":[[-35.200024,-5.762584],[-35.202832,-5.760904],[-35.206445,-5.759328],[-35.208452,-5.758726],[-35.212466,-5.75805],[-35.216479,-5.758062],[-35.218486,-5.758334],[-35.2225,-5.759458],[-35.224507,-5.760352],[-35.226514,-5.761514],[-35.228521,-5.763011],[-35.230527,-5.764926],[-35.232534,-5.767434],[-35.233994,-5.76991],[-35.235328,-5.772945],[-35.236503,-5.776959],[-35.236858,-5.778966],[-35.237215,-5.782979],[-35.237153,-5.786993],[-35.236696,-5.791007],[-35.235768,-5.795021],[-35.234541,-5.798648],[-35.232534,-5.802615],[-35.230527,-5.805442],[-35.228521,-5.80759],[-35.226514,-5.809252],[-35.224507,-5.810565],[-35.2225,-5.811576],[-35.220493,-5.812338],[-35.218486,-5.812871],[-35.214473,-5.813359],[-35.212466,-5.813326],[-35.208452,-5.812729],[-35.204438,-5.811395],[-35.202491,-5.810199]]}},{"type":"Feature","id":69,"properties":{"precipitacao_mm":1360.0,"tipo":1,"fonte":"Acervo geoespacial do Projeto Potengi"},"geometry":{"type":"LineString","coordinates":[[-35.198787,-5.781608],[-35.199593,-5.778966],[-35.200475,-5.776959],[-35.201646,-5.774952],[-35.203168,-5.772945],[-35.205174,-5.770938],[-35.20796,-5.768932],[-35.210459,-5.767688],[-35.212794,-5.766925],[-35.214473,-5.766565],[-35.216479,-5.766364],[-35.218486,-5.766392],[-35.220493,-5.766657],[-35.2225,-5.767171],[-35.224507,-5.767954],[-35.226514,-5.769072],[-35.228521,-5.770582],[-35.230527,-5.772655],[-35.232534,-5.775658],[-35.233905,-5.778966],[-35.234483,-5.780973],[-35.234952,-5.784986],[-35.234735,-5.789],[-35.234346,-5.791007],[-35.232944,-5.795021],[-35.232534,-5.795918],[-35.230527,-5.799046],[-35.228521,-5.801218],[-35.226514,-5.802814],[-35.224507,-5.803998],[-35.2225,-5.804839],[-35.220493,-5.805402],[-35.218486,-5.805708],[-35.216479,-5.805772],[-35.214473,-5.805601],[-35.212466,-5.805194],[-35.210459,-5.804529],[-35.208452,-5.803591],[-35.206445,-5.802324],[-35.204438,-5.80066],[-35.20291,-5.799034],[-35.202019,-5.797728]]}},{"type":"Feature","id":70,"properties":{"precipitacao_mm":1380.0,"tipo":1,"fonte":"Acervo geoespacial do Projeto Potengi"},"geometry":{"type":"LineString","coordinates":[[-35.224799,-5.774952],[-35.2225,-5.774219],[-35.220493,-5.774002],[-35.218486,-5.774131],[-35.216479,-5.774609],[-35.214473,-5.775503],[-35.212368,-5.776959],[-35.210521,-5.778966],[-35.209326,-5.780973],[-35.20856,-5.782979],[-35.208164,-5.784986],[-35.208093,-5.786993],[-35.208343,-5.789],[-35.20894,-5.791007],[-35.209937,-5.793014],[-35.21148,-5.795021],[-35.212466,-5.795936],[-35.214473,-5.79734],[-35.216479,-5.798201],[-35.218486,-5.798681],[-35.220493,-5.798796],[-35.2225,-5.798554],[-35.224507,-5.79794],[-35.226514,-5.7969],[-35.228521,-5.795251],[-35.230224,-5.793014],[-35.231183,-5.791007],[-35.231778,-5.789],[-35.232058,-5.786993],[-35.232003,-5.784986],[-35.231615,-5.782979],[-35.230918,-5.780973],[-35.229726,-5.778966],[-35.228521,-5.777459],[-35.226514,-5.775838],[-35.224799,-5.774952]]}},{"type":"Feature","id":71,"properties":{"precipitacao_mm":1400.0,"tipo":1,"fonte":"Acervo geoespacial do Projeto Potengi"},"geometry":{"type":"LineString","coordinates":[[-35.22081,-5.789],[-35.2225,-5.789779],[-35.224507,-5.789494],[-35.225119,-5.789],[-35.226204,-5.786993],[-35.225629,-5.784986],[-35.224507,-5.783892],[-35.2225,-5.783547],[-35.220493,-5.784706],[-35.220267,-5.784986],[-35.219857,-5.786993],[-35.220493,-5.788597],[-35.22081,-5.789]]}}]}