{"type":"FeatureCollection","features":[{"type":"Feature","id":1,"properties":{"nome":"LIXÃO BARCELONA","fonte":"PERS (2015)"},"geometry":{"type":"Point","coordinates":[-35.94825,-5.980111]}},{"type":"Feature","id":2,"properties":{"nome":"LIXÃO BENTO FERNANDES","fonte":"PERS (2015)"},"geometry":{"type":"Point","coordinates":[-35.825587,-5.69278]}},{"type":"Feature","id":3,"properties":{"nome":"TRANSBORDO BODÓ","fonte":"PERS (2015)"},"geometry":{"type":"Point","coordinates":[-36.413886,-5.979826]}},{"type":"Feature","id":4,"properties":{"nome":"LIXÃO BOM JESUS","fonte":"PERS (2015)"},"geometry":{"type":"Point","coordinates":[-35.591141,-5.950847]}},{"type":"Feature","id":5,"properties":{"nome":"ATERRO CERRO-CORÁ","fonte":"PERS (2015)"},"geometry":{"type":"Point","coordinates":[-36.353713,-6.025537]}},{"type":"Feature","id":6,"properties":{"nome":"ATERRO CURRAIS NOVOS","fonte":"PERS (2015)"},"geometry":{"type":"Point","coordinates":[-36.520376,-6.23103]}},{"type":"Feature","id":7,"properties":{"nome":"ATERRO IELMO MARINHO","fonte":"PERS (2015)"},"geometry":{"type":"Point","coordinates":[-36.304675,-5.686084]}},{"type":"Feature","id":8,"properties":{"nome":"LIXÃO LAGOA DE VELHOS","fonte":"PERS (2015)"},"geometry":{"type":"Point","coordinates":[-35.88173,-5.996478]}},{"type":"Feature","id":9,"properties":{"nome":"TRANSBORDO LAJES","fonte":"PERS (2015)"},"geometry":{"type":"Point","coordinates":[-36.244588,-5.72189]}},{"type":"Feature","id":10,"properties":{"nome":"ATERRO MACAIBA","fonte":"PERS (2015)"},"geometry":{"type":"Point","coordinates":[-35.3487,-5.880698]}},{"type":"Feature","id":11,"properties":{"nome":"ATERRO NATAL","fonte":"PERS (2015)"},"geometry":{"type":"Point","coordinates":[-35.348694,-5.880694]}},{"type":"Feature","id":12,"properties":{"nome":"LIXÃO RIACHUELO","fonte":"PERS (2015)"},"geometry":{"type":"Point","coordinates":[-35.827755,-5.846256]}},{"type":"Feature","id":13,"properties":{"nome":"LIXÃO RUY BARBOSA","fonte":"PERS (2015)"},"geometry":{"type":"Point","coordinates":[-35.944752,-5.899112]}},{"type":"Feature","id":14,"properties":{"nome":"LIXÃO SANTA CRUZ","fonte":"PERS (2015)"},"geometry":{"type":"Point","coordinates":[-36.026153,-6.245513]}},{"type":"Feature","id":15,"properties":{"nome":"ATERRO SANTA MARIA","fonte":"PERS (2015)"},"geometry":{"type":"Point","coordinates":[-35.693176,-5.859334]}},{"type":"Feature","id":16,"properties":{"nome":"LIXÃO SANTANA DO MATOS","fonte":"PERS (2015)"},"geometry":{"type":"Point","coordinates":[-36.670312,-5.951336]}},{"type":"Feature","id":17,"properties":{"nome":"ATERRO SÃO GONÇALO DO AMARANTE","fonte":"PERS (2015)"},"geometry":{"type":"Point","coordinates":[-35.3487,-5.880698]}},{"type":"Feature","id":18,"properties":{"nome":"LIXÃO SÃO PAULO DO POTENGI","fonte":"PERS (2015)"},"geometry":{"type":"Point","coordinates":[-35.731057,-5.907368]}},{"type":"Feature","id":19,"properties":{"nome":"LIXÃO SÃO PEDRO","fonte":"PERS (2015)"},"geometry":{"type":"Point","coordinates":[-35.639806,-5.904808]}},{"type":"Feature","id":20,"properties":{"nome":"LIXÃO SÃO TOMÉ","fonte":"PERS (2015)"},"geometry":{"type":"Point","coordinates":[-36.094335,-5.954005]}},{"type":"Feature","id":21,"properties":{"nome":"LIXÃO SENADOR ELOI DE SOUZA","fonte":"PERS (2015)"},"geometry":{"type":"Point","coordinates":[-35.693953,-6.026586]}},{"type":"Feature","id":22,"properties":{"nome":"LIXÃO SÍTIO NOVO","fonte":"PERS (2015)"},"geometry":{"type":"Point","coordinates":[-35.907653,-6.083536]}},{"type":"Feature","id":23,"properties":{"nome":"LIXÃO TANGARÁ","fonte":"PERS (2015)"},"geometry":{"type":"Point","coordinates":[-35.799339,-6.21153]}},{"type":"Feature","id":24,"properties":{"nome":"LIXÃO VERA CRUZ","fonte":"PERS (2015)"},"geometry":{"type":"Point","coordinates":[-35.433841,-6.021556]}}]}