{"type":"FeatureCollection","features":[{"type":"Feature","id":1,"properties":{"valor_referencia":656,"faixa":"573mm - 656 mm","fonte":"Interpolação de dados a partir de estações pluviométricas - EMPARN (2022)"},"geometry":{"type":"MultiPolygon","coordinates":[[[[-36.411918,-6.044156],[-36.412769,-6.044391],[-36.413547,-6.044009],[-36.413438,-6.043395],[-36.411556,-6.042866],[-36.411918,-6.044156]]],[[[-35.616845,-5.876298],[-35.625592,-5.871544],[-35.627673,-5.862262],[-35.616627,-5.857623],[-35.610334,-5.861967],[-35.608546,-5.869946],[-35.616025,-5.875111],[-35.616845,-5.876298]]],[[[-36.411556,-6.042866],[-36.410557,-6.039711],[-36.410022,-6.039621],[-36.410272,-6.038809],[-36.409303,-6.03575],[-36.407529,-6.035871],[-36.406937,-6.035422],[-36.402782,-6.039817],[-36.399524,-6.03684],[-36.398421,-6.036772],[-36.39807,-6.035851],[-36.397057,-6.034938],[-36.395692,-6.035073],[-36.395273,-6.034636],[-36.395136,-6.03393],[-36.395819,-6.032681],[-36.395833,-6.031449],[-36.396491,-6.031743],[-36.398886,-6.027217],[-36.398423,-6.024468],[-36.399494,-6.02193],[-36.39855,-6.019749],[-36.396164,-6.016282],[-36.395438,-6.016217],[-36.394203,-6.015101],[-36.393901,-6.012194],[-36.393083,-6.010785],[-36.393321,-6.008881],[-36.39287,-6.007622],[-36.393216,-6.00729],[-36.392392,-6.002976],[-36.391841,-6.002446],[-36.392074,-6.001746],[-36.390512,-6.000473],[-36.384643,-6.003579],[-36.382298,-6.005786],[-36.38055,-6.0065],[-36.379447,-6.006328],[-36.378113,-6.007034],[-36.378163,-6.005777],[-36.377302,-6.00393],[-36.377266,-6.002824],[-36.378,-5.998219],[-36.378484,-5.997679],[-36.37798,-5.995286],[-36.374549,-5.991876],[-36.373955,-5.992007],[-36.3739,-5.991274],[-36.372461,-5.989941],[-36.372977,-5.98664],[-36.372783,-5.984169],[-36.376686,-5.968697],[-36.378633,-5.950892],[-36.378529,-5.941467],[-36.379446,-5.941528],[-36.379775,-5.93773],[-36.379262,-5.935334],[-36.379375,-5.933202],[-36.38013,-5.932482],[-36.380641,-5.927758],[-36.38036,-5.927455],[-36.379169,-5.927551],[-36.378606,-5.926966],[-36.378491,-5.925438],[-36.377218,-5.924797],[-36.376181,-5.923421],[-36.36479,-5.919621],[-36.362878,-5.920427],[-36.361788,-5.917849],[-36.361795,-5.916301],[-36.358805,-5.909966],[-36.354675,-5.905497],[-36.347567,-5.904541],[-36.340762,-5.905615],[-36.336583,-5.903227],[-36.334677,-5.902999],[-36.334271,-5.901062],[-36.333058,-5.89919],[-36.332225,-5.895799],[-36.332891,-5.894467],[-36.332266,-5.891479],[-36.331518,-5.890403],[-36.332328,-5.88928],[-36.332457,-5.886028],[-36.331548,-5.884912],[-36.330774,-5.884766],[-36.330614,-5.883292],[-36.330978,-5.882585],[-36.330306,-5.881611],[-36.330532,-5.879949],[-36.326899,-5.869037],[-36.325903,-5.869076],[-36.324882,-5.868152],[-36.324797,-5.867253],[-36.312679,-5.864367],[-36.309497,-5.864719],[-36.304244,-5.862358],[-36.300704,-5.861514],[-36.293292,-5.855653],[-36.292386,-5.853808],[-36.290268,-5.851845],[-36.293219,-5.846686],[-36.294443,-5.845778],[-36.297158,-5.841832],[-36.296242,-5.84115],[-36.294191,-5.840661],[-36.293132,-5.841248],[-36.291671,-5.840605],[-36.289881,-5.84084],[-36.288949,-5.840496],[-36.287911,-5.839082],[-36.281826,-5.834895],[-36.278931,-5.834526],[-36.272909,-5.839071],[-36.26961,-5.842341],[-36.266587,-5.84363],[-36.264151,-5.837254],[-36.263173,-5.836737],[-36.261531,-5.834344],[-36.26191,-5.833185],[-36.258206,-5.833038],[-36.253333,-5.834746],[-36.251061,-5.836223],[-36.249961,-5.835195],[-36.245952,-5.835037],[-36.247571,-5.836377],[-36.247579,-5.837256],[-36.248719,-5.838316],[-36.24891,-5.839493],[-36.251973,-5.843945],[-36.250899,-5.84466],[-36.251157,-5.845084],[-36.249614,-5.846506],[-36.247496,-5.846432],[-36.244768,-5.847787],[-36.245203,-5.8493],[-36.244529,-5.849518],[-36.24357,-5.849109],[-36.242714,-5.850373],[-36.241595,-5.851045],[-36.240367,-5.850116],[-36.238817,-5.850936],[-36.238979,-5.851725],[-36.238506,-5.852179],[-36.23777,-5.852391],[-36.236996,-5.8519],[-36.234896,-5.853189],[-36.231581,-5.853194],[-36.231359,-5.853755],[-36.229225,-5.853744],[-36.228242,-5.852402],[-36.225923,-5.851154],[-36.218335,-5.855169],[-36.216516,-5.855565],[-36.21494,-5.855303],[-36.213918,-5.855815],[-36.213405,-5.855247],[-36.210871,-5.855146],[-36.206806,-5.855672],[-36.205872,-5.855345],[-36.205194,-5.856141],[-36.200899,-5.856513],[-36.198482,-5.855035],[-36.185158,-5.852755],[-36.17633,-5.853001],[-36.173521,-5.850482],[-36.169727,-5.849152],[-36.162737,-5.852487],[-36.165577,-5.878629],[-36.171204,-5.901713],[-36.177788,-5.92347],[-36.175138,-5.926016],[-36.191305,-5.962655],[-36.207346,-5.99095],[-36.230474,-6.022149],[-36.2555,-6.048197],[-36.284762,-6.071818],[-36.310236,-6.087843],[-36.335296,-6.101064],[-36.338417,-6.100172],[-36.3396,-6.098908],[-36.346444,-6.096158],[-36.353555,-6.090472],[-36.353549,-6.089997],[-36.354554,-6.089126],[-36.355648,-6.088798],[-36.357113,-6.087626],[-36.356918,-6.086881],[-36.357264,-6.086561],[-36.358556,-6.086472],[-36.35802,-6.084465],[-36.359591,-6.082103],[-36.361661,-6.08316],[-36.367722,-6.081849],[-36.367835,-6.081492],[-36.369307,-6.081506],[-36.36994,-6.079905],[-36.37055,-6.080065],[-36.372034,-6.077621],[-36.372027,-6.076918],[-36.372972,-6.076078],[-36.372699,-6.075107],[-36.373851,-6.074631],[-36.374365,-6.073833],[-36.374298,-6.072856],[-36.376445,-6.072569],[-36.377596,-6.071783],[-36.378461,-6.069862],[-36.37959,-6.069582],[-36.380393,-6.070171],[-36.380819,-6.069913],[-36.380179,-6.065541],[-36.380745,-6.065142],[-36.384707,-6.058641],[-36.385636,-6.058537],[-36.385971,-6.058898],[-36.388299,-6.056847],[-36.388904,-6.05706],[-36.38978,-6.05585],[-36.390285,-6.055699],[-36.39071,-6.056157],[-36.392531,-6.054679],[-36.392629,-6.053953],[-36.394667,-6.053877],[-36.395793,-6.051205],[-36.395024,-6.050496],[-36.39594,-6.050371],[-36.39647,-6.049597],[-36.397137,-6.04996],[-36.397214,-6.050527],[-36.39856,-6.052086],[-36.400139,-6.050114],[-36.400633,-6.048582],[-36.401699,-6.049235],[-36.404643,-6.047994],[-36.408304,-6.045278],[-36.408995,-6.043832],[-36.410707,-6.043496],[-36.411556,-6.042866]],[[-36.251295,-5.845123],[-36.251196,-5.845222],[-36.251157,-5.845084],[-36.251295,-5.845123]]],[[[-35.652968,-5.702107],[-35.652514,-5.701702],[-35.650961,-5.701702],[-35.650961,-5.703709],[-35.652968,-5.703709],[-35.652968,-5.702107]]],[[[-35.655115,-5.755332],[-35.64811,-5.832154],[-35.646833,-5.864379],[-35.652047,-5.88627],[-35.657947,-5.901422],[-35.66954,-5.927987],[-35.676009,-5.950083],[-35.673684,-5.978493],[-35.653708,-6.015477],[-35.636769,-6.037018],[-35.619894,-6.051935],[-35.610825,-6.058921],[-35.612735,-6.061793],[-35.613803,-6.062084],[-35.614251,-6.062966],[-35.62181,-6.066211],[-35.625544,-6.06527],[-35.626313,-6.064537],[-35.62741,-6.0648],[-35.630029,-6.06414],[-35.631984,-6.065654],[-35.632686,-6.065321],[-35.634105,-6.067297],[-35.637434,-6.069876],[-35.638075,-6.071642],[-35.638779,-6.072053],[-35.63901,-6.074147],[-35.639717,-6.074561],[-35.639363,-6.075191],[-35.641374,-6.080733],[-35.643562,-6.07995],[-35.644886,-6.080383],[-35.64573,-6.079716],[-35.646168,-6.080619],[-35.648153,-6.080195],[-35.648321,-6.078966],[-35.650032,-6.078476],[-35.65037,-6.077566],[-35.651395,-6.077796],[-35.652385,-6.076676],[-35.661076,-6.07673],[-35.661961,-6.073934],[-35.67515,-6.054767],[-35.678467,-6.030495],[-35.684419,-6.019247],[-35.688129,-6.015809],[-35.688047,-6.013731],[-35.698468,-6.006087],[-35.745813,-6.003695],[-35.757165,-5.99499],[-35.767135,-5.973865],[-35.772337,-5.944835],[-35.768183,-5.928982],[-35.756283,-5.913463],[-35.750949,-5.905204],[-35.748332,-5.890798],[-35.752804,-5.878037],[-35.773803,-5.858581],[-35.777442,-5.85087],[-35.77365,-5.814491],[-35.774549,-5.791826],[-35.779047,-5.774661],[-35.784234,-5.759861],[-35.799468,-5.731805],[-35.797453,-5.72955],[-35.783074,-5.725589],[-35.779781,-5.725006],[-35.778847,-5.724424],[-35.777031,-5.72427],[-35.774976,-5.722945],[-35.775141,-5.721497],[-35.772794,-5.71887],[-35.771784,-5.718666],[-35.771124,-5.719255],[-35.767294,-5.716815],[-35.765245,-5.716461],[-35.764999,-5.716168],[-35.765923,-5.714383],[-35.764196,-5.71245],[-35.759719,-5.712717],[-35.758863,-5.713653],[-35.757505,-5.712956],[-35.757305,-5.714183],[-35.756171,-5.714017],[-35.755309,-5.71277],[-35.755759,-5.712231],[-35.754343,-5.710646],[-35.749841,-5.712261],[-35.749237,-5.713597],[-35.747848,-5.712976],[-35.746808,-5.713349],[-35.746246,-5.712544],[-35.745446,-5.712328],[-35.745268,-5.711145],[-35.743904,-5.709192],[-35.74152,-5.708104],[-35.740845,-5.708354],[-35.740351,-5.707102],[-35.741377,-5.704947],[-35.73988,-5.701685],[-35.73899,-5.701557],[-35.738262,-5.702183],[-35.736649,-5.702403],[-35.735498,-5.703029],[-35.734685,-5.704393],[-35.731668,-5.70511],[-35.730783,-5.703718],[-35.729691,-5.7036],[-35.729679,-5.701981],[-35.728765,-5.700544],[-35.727649,-5.700314],[-35.727495,-5.699428],[-35.727923,-5.69922],[-35.726275,-5.696629],[-35.723762,-5.695475],[-35.722949,-5.695548],[-35.72178,-5.694562],[-35.721211,-5.694791],[-35.720629,-5.694193],[-35.720882,-5.693557],[-35.719943,-5.69307],[-35.719954,-5.692519],[-35.718064,-5.690403],[-35.717148,-5.692397],[-35.717347,-5.69306],[-35.71686,-5.693025],[-35.715309,-5.697256],[-35.714124,-5.698988],[-35.712789,-5.698908],[-35.712126,-5.699863],[-35.710869,-5.69952],[-35.709692,-5.699858],[-35.709115,-5.698689],[-35.708111,-5.698629],[-35.707166,-5.699143],[-35.707141,-5.700279],[-35.70587,-5.700435],[-35.705155,-5.701558],[-35.704185,-5.700762],[-35.699459,-5.702931],[-35.699423,-5.703644],[-35.696907,-5.705494],[-35.695054,-5.708048],[-35.694792,-5.709389],[-35.693313,-5.711873],[-35.691725,-5.713002],[-35.691741,-5.713786],[-35.69084,-5.714546],[-35.690612,-5.715917],[-35.689855,-5.716946],[-35.686299,-5.720112],[-35.684607,-5.722443],[-35.678987,-5.722778],[-35.67774,-5.723233],[-35.676226,-5.722943],[-35.675653,-5.721889],[-35.674266,-5.720996],[-35.667759,-5.705971],[-35.666209,-5.704794],[-35.663003,-5.704593],[-35.655897,-5.705125],[-35.652968,-5.703709],[-35.655115,-5.755332]]]]}},{"type":"Feature","id":2,"properties":{"valor_referencia":1402,"faixa":"1273mm - 1402 mm","fonte":"Interpolação de dados a partir de estações pluviométricas - EMPARN (2022)"},"geometry":{"type":"Polygon","coordinates":[[[-35.244542,-5.827842],[-35.247237,-5.818163],[-35.243177,-5.793445],[-35.245138,-5.780174],[-35.252184,-5.762251],[-35.253606,-5.75388],[-35.246526,-5.754827],[-35.244678,-5.756358],[-35.239139,-5.758841],[-35.235188,-5.756527],[-35.231115,-5.755288],[-35.230687,-5.754788],[-35.231476,-5.752066],[-35.233268,-5.751057],[-35.236178,-5.745518],[-35.23033,-5.743081],[-35.229901,-5.741511],[-35.230577,-5.741004],[-35.230721,-5.738587],[-35.229442,-5.736817],[-35.219403,-5.736219],[-35.21481,-5.737671],[-35.204809,-5.742261],[-35.203479,-5.74571],[-35.203267,-5.749129],[-35.202033,-5.751176],[-35.20089,-5.752201],[-35.197725,-5.753602],[-35.195168,-5.755887],[-35.199565,-5.759839],[-35.200271,-5.764065],[-35.199176,-5.771891],[-35.198378,-5.77462],[-35.198014,-5.780719],[-35.199467,-5.782017],[-35.20369,-5.784557],[-35.204126,-5.788654],[-35.202425,-5.792111],[-35.202079,-5.797926],[-35.203404,-5.80483],[-35.203161,-5.806019],[-35.204406,-5.815329],[-35.205022,-5.815585],[-35.206069,-5.817108],[-35.210536,-5.818129],[-35.216536,-5.817152],[-35.22263,-5.815205],[-35.227257,-5.814281],[-35.236519,-5.822185],[-35.240401,-5.829029],[-35.241565,-5.83014],[-35.244542,-5.827842]]]}},{"type":"Feature","id":3,"properties":{"valor_referencia":1273,"faixa":"1144mm - 1273 mm","fonte":"Interpolação de dados a partir de estações pluviométricas - EMPARN (2022)"},"geometry":{"type":"MultiPolygon","coordinates":[[[[-35.404119,-5.950551],[-35.418952,-5.949567],[-35.425062,-5.939438],[-35.422481,-5.930473],[-35.411068,-5.923588],[-35.399347,-5.930834],[-35.397871,-5.940823],[-35.404119,-5.950551]]],[[[-35.283267,-5.756432],[-35.280299,-5.766814],[-35.279506,-5.766434],[-35.277312,-5.767312],[-35.276055,-5.766512],[-35.27123,-5.760007],[-35.271321,-5.759468],[-35.26722,-5.754346],[-35.260593,-5.755013],[-35.258981,-5.756212],[-35.257801,-5.754833],[-35.253606,-5.75388],[-35.252184,-5.762251],[-35.245138,-5.780174],[-35.243177,-5.793445],[-35.247237,-5.818163],[-35.244542,-5.827842],[-35.241565,-5.83014],[-35.243639,-5.841002],[-35.249402,-5.842375],[-35.253054,-5.841878],[-35.256321,-5.846257],[-35.264826,-5.853444],[-35.274429,-5.853317],[-35.286152,-5.850543],[-35.286741,-5.850742],[-35.305901,-5.862441],[-35.306225,-5.863252],[-35.307791,-5.864257],[-35.321964,-5.84277],[-35.331165,-5.819925],[-35.334999,-5.80176],[-35.335887,-5.763914],[-35.326745,-5.761015],[-35.316933,-5.754773],[-35.313367,-5.753753],[-35.312367,-5.754022],[-35.308429,-5.75268],[-35.307106,-5.749011],[-35.304982,-5.747006],[-35.304716,-5.747278],[-35.304048,-5.74689],[-35.296798,-5.745988],[-35.296262,-5.74633],[-35.295877,-5.747634],[-35.29301,-5.748503],[-35.283267,-5.756432]]]]}},{"type":"Feature","id":4,"properties":{"valor_referencia":1144,"faixa":"1004mm - 1144 mm","fonte":"Interpolação de dados a partir de estações pluviométricas - EMPARN (2022)"},"geometry":{"type":"Polygon","coordinates":[[[-35.44225,-5.992695],[-35.451132,-5.983586],[-35.462132,-5.964044],[-35.465749,-5.945101],[-35.465162,-5.930298],[-35.460932,-5.914156],[-35.453559,-5.900221],[-35.436353,-5.880383],[-35.411259,-5.859762],[-35.401333,-5.849049],[-35.393428,-5.82875],[-35.391113,-5.7709],[-35.390072,-5.757894],[-35.386905,-5.754096],[-35.379468,-5.749823],[-35.377521,-5.750785],[-35.374122,-5.762367],[-35.371346,-5.76341],[-35.370321,-5.764499],[-35.362239,-5.766832],[-35.345144,-5.765856],[-35.335887,-5.763914],[-35.334999,-5.80176],[-35.331165,-5.819925],[-35.321964,-5.84277],[-35.307791,-5.864257],[-35.308649,-5.86931],[-35.310185,-5.873148],[-35.315029,-5.88083],[-35.318837,-5.887968],[-35.322943,-5.903995],[-35.326072,-5.905587],[-35.332747,-5.907533],[-35.348997,-5.90997],[-35.349604,-5.910397],[-35.352303,-5.910855],[-35.354528,-5.913856],[-35.355417,-5.914481],[-35.355222,-5.914793],[-35.356643,-5.916709],[-35.357425,-5.917251],[-35.357325,-5.917959],[-35.35893,-5.922358],[-35.359669,-5.922492],[-35.361278,-5.923922],[-35.360343,-5.924002],[-35.359718,-5.924518],[-35.360818,-5.927533],[-35.361455,-5.927397],[-35.363143,-5.929376],[-35.362523,-5.933571],[-35.364223,-5.934075],[-35.364338,-5.935236],[-35.365144,-5.935709],[-35.370065,-5.937079],[-35.37104,-5.936932],[-35.372429,-5.93846],[-35.373774,-5.938183],[-35.373511,-5.939861],[-35.37621,-5.943359],[-35.376651,-5.943431],[-35.377007,-5.944391],[-35.378063,-5.944637],[-35.378324,-5.946097],[-35.379502,-5.947093],[-35.381888,-5.94807],[-35.382171,-5.947522],[-35.383592,-5.948306],[-35.384689,-5.948],[-35.385411,-5.949088],[-35.388476,-5.958354],[-35.389563,-5.960066],[-35.388734,-5.962804],[-35.38905,-5.963565],[-35.387696,-5.964207],[-35.386807,-5.96568],[-35.390342,-5.966413],[-35.390586,-5.967186],[-35.391541,-5.967302],[-35.392443,-5.968426],[-35.391905,-5.969193],[-35.392256,-5.969358],[-35.39213,-5.970019],[-35.39496,-5.977773],[-35.39539,-5.978486],[-35.396407,-5.97859],[-35.396745,-5.98057],[-35.39712,-5.980555],[-35.397765,-5.982849],[-35.398676,-5.982922],[-35.398291,-5.984132],[-35.399102,-5.986116],[-35.401328,-5.985787],[-35.401716,-5.984781],[-35.402643,-5.984744],[-35.403032,-5.985535],[-35.41063,-5.986633],[-35.411616,-5.984783],[-35.412189,-5.984613],[-35.412999,-5.983292],[-35.414743,-5.983368],[-35.415591,-5.984929],[-35.417035,-5.9858],[-35.418682,-5.98608],[-35.422478,-5.985887],[-35.422655,-5.986755],[-35.423838,-5.986118],[-35.423982,-5.985214],[-35.425161,-5.985995],[-35.425377,-5.98668],[-35.426861,-5.985837],[-35.427473,-5.986351],[-35.429091,-5.986572],[-35.428645,-5.987475],[-35.429039,-5.988581],[-35.431083,-5.989814],[-35.438221,-5.991655],[-35.438992,-5.991507],[-35.439064,-5.991873],[-35.44225,-5.992695]],[[-35.397871,-5.940823],[-35.399347,-5.930834],[-35.411068,-5.923588],[-35.422481,-5.930473],[-35.425062,-5.939438],[-35.418952,-5.949567],[-35.404119,-5.950551],[-35.397871,-5.940823]]]}},{"type":"Feature","id":5,"properties":{"valor_referencia":864,"faixa":"751mm - 864 mm","fonte":"Interpolação de dados a partir de estações pluviométricas - EMPARN (2022)"},"geometry":{"type":"MultiPolygon","coordinates":[[[[-35.60079,-6.00875],[-35.621503,-6.007786],[-35.633375,-6.000575],[-35.639813,-5.985661],[-35.637485,-5.969826],[-35.630082,-5.960581],[-35.61733,-5.955679],[-35.599939,-5.957663],[-35.587692,-5.964587],[-35.579829,-5.977962],[-35.58288,-5.994759],[-35.595662,-6.00585],[-35.599898,-6.007635],[-35.60079,-6.00875]]],[[[-35.557053,-5.717197],[-35.547177,-5.720824],[-35.547149,-5.721506],[-35.545889,-5.721974],[-35.544639,-5.72181],[-35.543518,-5.722168],[-35.543434,-5.722881],[-35.542731,-5.723035],[-35.539444,-5.722557],[-35.53732,-5.719875],[-35.535334,-5.718467],[-35.533025,-5.718576],[-35.527734,-5.724717],[-35.52768,-5.725655],[-35.526915,-5.725668],[-35.518785,-5.721446],[-35.516964,-5.72172],[-35.517407,-5.720813],[-35.514854,-5.71785],[-35.514075,-5.7176],[-35.509866,-5.722486],[-35.509739,-5.723657],[-35.508349,-5.724285],[-35.506567,-5.727109],[-35.504291,-5.72853],[-35.503069,-5.730106],[-35.502081,-5.729779],[-35.500066,-5.731041],[-35.49997,-5.731811],[-35.499106,-5.731642],[-35.497352,-5.732741],[-35.497444,-5.733893],[-35.499664,-5.735142],[-35.499003,-5.73649],[-35.498164,-5.736485],[-35.497233,-5.737138],[-35.493314,-5.740514],[-35.494355,-5.741777],[-35.495907,-5.742161],[-35.495576,-5.743488],[-35.494644,-5.743302],[-35.494106,-5.743941],[-35.493733,-5.743708],[-35.489131,-5.745762],[-35.487951,-5.747764],[-35.48886,-5.748685],[-35.489014,-5.749588],[-35.488432,-5.750681],[-35.488698,-5.751005],[-35.488352,-5.752746],[-35.488792,-5.758225],[-35.489081,-5.758508],[-35.488828,-5.758674],[-35.489354,-5.765216],[-35.491004,-5.768417],[-35.490219,-5.769488],[-35.489703,-5.769567],[-35.489808,-5.770864],[-35.479493,-5.768172],[-35.477708,-5.766566],[-35.476941,-5.764581],[-35.474973,-5.762298],[-35.471244,-5.760421],[-35.461947,-5.757877],[-35.459992,-5.757942],[-35.458304,-5.759901],[-35.459445,-5.80531],[-35.465087,-5.828454],[-35.472788,-5.847978],[-35.493112,-5.894244],[-35.50128,-5.926116],[-35.501831,-5.953093],[-35.497605,-5.979053],[-35.491987,-5.996367],[-35.48038,-6.020791],[-35.484212,-6.025926],[-35.486276,-6.027188],[-35.486155,-6.027876],[-35.485487,-6.028206],[-35.485179,-6.03029],[-35.4882,-6.029852],[-35.489309,-6.029027],[-35.495455,-6.032334],[-35.495397,-6.033435],[-35.496361,-6.034104],[-35.496251,-6.034601],[-35.497541,-6.036272],[-35.499907,-6.035922],[-35.500382,-6.035186],[-35.507304,-6.037078],[-35.50849,-6.036657],[-35.509397,-6.03711],[-35.509535,-6.037677],[-35.510189,-6.03745],[-35.511186,-6.03794],[-35.511649,-6.038793],[-35.51411,-6.040397],[-35.514808,-6.039998],[-35.515056,-6.04051],[-35.515856,-6.040399],[-35.516527,-6.039719],[-35.517105,-6.041761],[-35.516724,-6.042322],[-35.520459,-6.044919],[-35.521498,-6.044338],[-35.52322,-6.045663],[-35.523073,-6.04637],[-35.524027,-6.045487],[-35.555486,-5.986068],[-35.557662,-5.958828],[-35.562231,-5.93699],[-35.554804,-5.915799],[-35.551005,-5.895901],[-35.551722,-5.877799],[-35.557993,-5.862532],[-35.575563,-5.839621],[-35.584408,-5.819443],[-35.587708,-5.804209],[-35.583056,-5.781976],[-35.586366,-5.766158],[-35.582729,-5.745853],[-35.579362,-5.744026],[-35.57682,-5.743379],[-35.575926,-5.742879],[-35.575784,-5.74212],[-35.572536,-5.741788],[-35.571944,-5.740963],[-35.570964,-5.740487],[-35.571162,-5.739182],[-35.570452,-5.738067],[-35.570525,-5.736848],[-35.569577,-5.736373],[-35.569446,-5.735269],[-35.570234,-5.734593],[-35.570141,-5.733174],[-35.569574,-5.732667],[-35.570053,-5.732022],[-35.569759,-5.730727],[-35.566839,-5.729848],[-35.563681,-5.72948],[-35.563585,-5.728868],[-35.561956,-5.728609],[-35.560717,-5.727457],[-35.560179,-5.724917],[-35.55893,-5.724026],[-35.558863,-5.722899],[-35.559518,-5.72272],[-35.557053,-5.717197]]]]}},{"type":"Feature","id":6,"properties":{"valor_referencia":1004,"faixa":"864mm - 1004 mm","fonte":"Interpolação de dados a partir de estações pluviométricas - EMPARN (2022)"},"geometry":{"type":"Polygon","coordinates":[[[-35.491987,-5.996367],[-35.497605,-5.979053],[-35.501831,-5.953093],[-35.50128,-5.926116],[-35.493112,-5.894244],[-35.472788,-5.847978],[-35.465087,-5.828454],[-35.459445,-5.80531],[-35.458304,-5.759901],[-35.457182,-5.760808],[-35.452614,-5.760903],[-35.44573,-5.757015],[-35.435303,-5.752727],[-35.434219,-5.752866],[-35.43134,-5.758543],[-35.428546,-5.762351],[-35.420632,-5.765087],[-35.418564,-5.765262],[-35.413303,-5.766796],[-35.397559,-5.763483],[-35.390072,-5.757894],[-35.391113,-5.7709],[-35.393428,-5.82875],[-35.401333,-5.849049],[-35.411259,-5.859762],[-35.436353,-5.880383],[-35.453559,-5.900221],[-35.460932,-5.914156],[-35.465162,-5.930298],[-35.465749,-5.945101],[-35.462132,-5.964044],[-35.451132,-5.983586],[-35.44225,-5.992695],[-35.443178,-5.993773],[-35.444664,-5.993788],[-35.447836,-5.995769],[-35.451326,-6.004077],[-35.463579,-6.008879],[-35.464608,-6.009605],[-35.464383,-6.009903],[-35.46521,-6.010272],[-35.464214,-6.011129],[-35.463962,-6.01224],[-35.463103,-6.012444],[-35.462591,-6.013547],[-35.461605,-6.013377],[-35.460386,-6.014428],[-35.459356,-6.016174],[-35.459158,-6.018637],[-35.460183,-6.018266],[-35.462474,-6.018987],[-35.4634,-6.018232],[-35.4644,-6.018754],[-35.465988,-6.018722],[-35.465816,-6.019746],[-35.468339,-6.019948],[-35.470746,-6.019755],[-35.470964,-6.019101],[-35.471647,-6.019087],[-35.472005,-6.019783],[-35.48038,-6.020791],[-35.491987,-5.996367]]]}},{"type":"Feature","id":7,"properties":{"valor_referencia":751,"faixa":"656mm - 751 mm","fonte":"Interpolação de dados a partir de estações pluviométricas - EMPARN (2022)"},"geometry":{"type":"MultiPolygon","coordinates":[[[[-35.611193,-6.058637],[-35.61071,-6.058639],[-35.610698,-6.058694],[-35.610825,-6.058921],[-35.611193,-6.058637]]],[[[-35.619894,-6.051935],[-35.636769,-6.037018],[-35.653708,-6.015477],[-35.673684,-5.978493],[-35.676009,-5.950083],[-35.66954,-5.927987],[-35.657947,-5.901422],[-35.652047,-5.88627],[-35.646833,-5.864379],[-35.64811,-5.832154],[-35.655115,-5.755332],[-35.652968,-5.703709],[-35.650961,-5.703709],[-35.650961,-5.701702],[-35.645951,-5.700099],[-35.643536,-5.700329],[-35.63905,-5.706695],[-35.636725,-5.707675],[-35.636719,-5.708633],[-35.634684,-5.708225],[-35.633939,-5.70853],[-35.633612,-5.709149],[-35.632956,-5.708932],[-35.631957,-5.709367],[-35.626368,-5.71368],[-35.625236,-5.719045],[-35.625011,-5.724327],[-35.623904,-5.725358],[-35.623649,-5.726567],[-35.612576,-5.728904],[-35.611388,-5.729821],[-35.610639,-5.731085],[-35.607848,-5.732554],[-35.605812,-5.735106],[-35.600998,-5.738675],[-35.598857,-5.742484],[-35.597969,-5.741975],[-35.596802,-5.742001],[-35.593146,-5.744496],[-35.58974,-5.745],[-35.588249,-5.745606],[-35.587753,-5.744999],[-35.583862,-5.744424],[-35.582729,-5.745853],[-35.586366,-5.766158],[-35.583056,-5.781976],[-35.587708,-5.804209],[-35.584408,-5.819443],[-35.575563,-5.839621],[-35.557993,-5.862532],[-35.551722,-5.877799],[-35.551005,-5.895901],[-35.554804,-5.915799],[-35.562231,-5.93699],[-35.557662,-5.958828],[-35.555486,-5.986068],[-35.524027,-6.045487],[-35.523073,-6.04637],[-35.522882,-6.047289],[-35.524126,-6.048558],[-35.525598,-6.048689],[-35.525395,-6.049554],[-35.528292,-6.053167],[-35.52907,-6.05359],[-35.531718,-6.052005],[-35.530928,-6.050494],[-35.531174,-6.048787],[-35.531996,-6.048794],[-35.534166,-6.045983],[-35.533131,-6.045682],[-35.532744,-6.045112],[-35.534218,-6.044245],[-35.535589,-6.044139],[-35.536335,-6.043172],[-35.536028,-6.042482],[-35.536252,-6.041756],[-35.538965,-6.039945],[-35.541222,-6.040847],[-35.542613,-6.040775],[-35.542814,-6.041599],[-35.546116,-6.042087],[-35.54975,-6.03696],[-35.550578,-6.036676],[-35.552749,-6.037019],[-35.552988,-6.037483],[-35.552589,-6.037881],[-35.560296,-6.039362],[-35.560391,-6.037562],[-35.56118,-6.038134],[-35.56174,-6.037942],[-35.561884,-6.038824],[-35.563647,-6.040006],[-35.564924,-6.038931],[-35.565068,-6.038339],[-35.56798,-6.038468],[-35.568164,-6.039339],[-35.571498,-6.038582],[-35.571942,-6.039263],[-35.573407,-6.038812],[-35.573876,-6.039492],[-35.577017,-6.040198],[-35.577894,-6.039776],[-35.578524,-6.040181],[-35.580899,-6.039829],[-35.580888,-6.039266],[-35.582063,-6.039473],[-35.583327,-6.038728],[-35.583853,-6.039393],[-35.584684,-6.03927],[-35.586199,-6.04044],[-35.588477,-6.040863],[-35.588642,-6.04183],[-35.588055,-6.042173],[-35.589546,-6.044066],[-35.589237,-6.044829],[-35.589602,-6.045954],[-35.590722,-6.045881],[-35.591786,-6.045269],[-35.592048,-6.04581],[-35.593337,-6.045769],[-35.595385,-6.047122],[-35.599791,-6.048608],[-35.600117,-6.048119],[-35.601247,-6.047739],[-35.601749,-6.047982],[-35.601973,-6.049004],[-35.603417,-6.049423],[-35.605514,-6.050833],[-35.605494,-6.051787],[-35.606316,-6.052518],[-35.606854,-6.052529],[-35.607001,-6.052074],[-35.608312,-6.052289],[-35.609016,-6.052965],[-35.60843,-6.054644],[-35.609339,-6.056266],[-35.610821,-6.055922],[-35.611139,-6.057689],[-35.61166,-6.058277],[-35.619894,-6.051935]],[[-35.616025,-5.875111],[-35.608546,-5.869946],[-35.610334,-5.861967],[-35.616627,-5.857623],[-35.627673,-5.862262],[-35.625592,-5.871544],[-35.616845,-5.876298],[-35.616025,-5.875111]],[[-35.599898,-6.007635],[-35.595662,-6.00585],[-35.58288,-5.994759],[-35.579829,-5.977962],[-35.587692,-5.964587],[-35.599939,-5.957663],[-35.61733,-5.955679],[-35.630082,-5.960581],[-35.637485,-5.969826],[-35.639813,-5.985661],[-35.633375,-6.000575],[-35.621503,-6.007786],[-35.60079,-6.00875],[-35.599898,-6.007635]]]]}},{"type":"Feature","id":8,"properties":{"valor_referencia":573,"faixa":"437mm - 573 mm","fonte":"Interpolação de dados a partir de estações pluviométricas - EMPARN (2022)"},"geometry":{"type":"Polygon","coordinates":[[[-36.310236,-6.087843],[-36.284762,-6.071818],[-36.2555,-6.048197],[-36.230474,-6.022149],[-36.207346,-5.99095],[-36.191305,-5.962655],[-36.175138,-5.926016],[-36.177788,-5.92347],[-36.171204,-5.901713],[-36.165577,-5.878629],[-36.162737,-5.852487],[-36.162148,-5.852906],[-36.157199,-5.850907],[-36.15598,-5.84995],[-36.152827,-5.848791],[-36.151659,-5.848777],[-36.150955,-5.852637],[-36.151706,-5.858374],[-36.150388,-5.859949],[-36.148851,-5.859611],[-36.146329,-5.857496],[-36.141844,-5.854993],[-36.140789,-5.855582],[-36.140571,-5.85628],[-36.139238,-5.857613],[-36.132943,-5.859959],[-36.125802,-5.855552],[-36.121904,-5.853882],[-36.121388,-5.852721],[-36.120051,-5.851884],[-36.11876,-5.84957],[-36.117026,-5.848027],[-36.117035,-5.846281],[-36.115419,-5.842659],[-36.11188,-5.83961],[-36.110771,-5.839455],[-36.108027,-5.837553],[-36.107215,-5.834966],[-36.104696,-5.832042],[-36.101621,-5.829276],[-36.10163,-5.828816],[-36.099806,-5.828813],[-36.098547,-5.829751],[-36.09788,-5.831099],[-36.096998,-5.831081],[-36.094727,-5.832139],[-36.092442,-5.834378],[-36.091149,-5.83463],[-36.089859,-5.836154],[-36.088352,-5.836146],[-36.085664,-5.837867],[-36.085031,-5.839573],[-36.083548,-5.840552],[-36.082762,-5.839726],[-36.08058,-5.840946],[-36.075023,-5.841128],[-36.075167,-5.841461],[-36.066663,-5.841098],[-36.065399,-5.842677],[-36.064815,-5.845247],[-36.065146,-5.846436],[-36.064429,-5.84698],[-36.06539,-5.850452],[-36.064586,-5.85332],[-36.063338,-5.852053],[-36.06008,-5.851831],[-36.059818,-5.851169],[-36.056349,-5.851709],[-36.056269,-5.85138],[-36.053001,-5.85006],[-36.050655,-5.850459],[-36.050485,-5.849763],[-36.049607,-5.849337],[-36.0484,-5.847689],[-36.044675,-5.845913],[-36.043819,-5.846386],[-36.043147,-5.845808],[-36.042181,-5.845828],[-36.025939,-5.834104],[-36.02444,-5.833584],[-36.023136,-5.832116],[-36.020093,-5.829959],[-36.01409,-5.829128],[-36.009496,-5.829333],[-36.008405,-5.827356],[-35.999373,-5.816872],[-35.996926,-5.814764],[-35.994754,-5.814089],[-35.993861,-5.811486],[-35.9889,-5.804576],[-35.987962,-5.804572],[-35.98589,-5.803532],[-35.985584,-5.802756],[-35.984142,-5.802147],[-35.981887,-5.799473],[-35.979173,-5.797549],[-35.977455,-5.797079],[-35.977161,-5.796122],[-35.975185,-5.794722],[-35.973449,-5.797086],[-35.968972,-5.79896],[-35.965307,-5.80183],[-35.963138,-5.804518],[-35.96201,-5.804701],[-35.960934,-5.805604],[-35.959466,-5.805499],[-35.947363,-5.808249],[-35.943585,-5.815056],[-35.943074,-5.815097],[-35.941869,-5.817021],[-35.935618,-5.811788],[-35.932759,-5.810416],[-35.929914,-5.807676],[-35.926576,-5.803812],[-35.926583,-5.802574],[-35.924061,-5.796921],[-35.923389,-5.796852],[-35.920847,-5.793554],[-35.902671,-5.780118],[-35.896875,-5.770864],[-35.893565,-5.767286],[-35.893006,-5.767105],[-35.892088,-5.765274],[-35.889382,-5.763194],[-35.889025,-5.761726],[-35.887503,-5.760651],[-35.885102,-5.756828],[-35.885514,-5.756335],[-35.884242,-5.753482],[-35.883299,-5.752381],[-35.881906,-5.752187],[-35.880984,-5.750403],[-35.880866,-5.748842],[-35.876566,-5.745408],[-35.877118,-5.744878],[-35.87724,-5.743739],[-35.87674,-5.742619],[-35.860737,-5.724044],[-35.857247,-5.723661],[-35.852575,-5.724706],[-35.849489,-5.727026],[-35.847944,-5.72729],[-35.845521,-5.728642],[-35.843495,-5.728805],[-35.841809,-5.729532],[-35.837696,-5.729662],[-35.832516,-5.728709],[-35.831354,-5.730057],[-35.831576,-5.731505],[-35.830365,-5.731758],[-35.827234,-5.731499],[-35.820465,-5.732734],[-35.811777,-5.734895],[-35.811201,-5.734754],[-35.808623,-5.735928],[-35.8052,-5.734764],[-35.803409,-5.733554],[-35.799468,-5.731805],[-35.784234,-5.759861],[-35.779047,-5.774661],[-35.774549,-5.791826],[-35.77365,-5.814491],[-35.777442,-5.85087],[-35.773803,-5.858581],[-35.752804,-5.878037],[-35.748332,-5.890798],[-35.750949,-5.905204],[-35.756283,-5.913463],[-35.768183,-5.928982],[-35.772337,-5.944835],[-35.767135,-5.973865],[-35.757165,-5.99499],[-35.745813,-6.003695],[-35.698468,-6.006087],[-35.688047,-6.013731],[-35.688129,-6.015809],[-35.684419,-6.019247],[-35.678467,-6.030495],[-35.67515,-6.054767],[-35.661961,-6.073934],[-35.661076,-6.07673],[-35.671021,-6.075374],[-35.672306,-6.076731],[-35.673106,-6.079064],[-35.674002,-6.080031],[-35.676932,-6.080958],[-35.681371,-6.079895],[-35.681728,-6.081037],[-35.680943,-6.084107],[-35.681942,-6.08789],[-35.680932,-6.090657],[-35.681137,-6.092791],[-35.6821,-6.094441],[-35.681447,-6.096031],[-35.682029,-6.102106],[-35.683784,-6.10453],[-35.684709,-6.104311],[-35.685669,-6.106249],[-35.685402,-6.106767],[-35.686633,-6.10733],[-35.686317,-6.108032],[-35.697866,-6.12365],[-35.699694,-6.126579],[-35.702221,-6.132471],[-35.704942,-6.134992],[-35.705797,-6.134961],[-35.707136,-6.1358],[-35.70692,-6.136371],[-35.707714,-6.137793],[-35.709023,-6.139205],[-35.709929,-6.139209],[-35.70964,-6.139771],[-35.712153,-6.143473],[-35.714139,-6.148264],[-35.715309,-6.148961],[-35.715604,-6.149621],[-35.716751,-6.149278],[-35.717344,-6.149847],[-35.716495,-6.150489],[-35.718153,-6.152277],[-35.720991,-6.153176],[-35.72217,-6.153292],[-35.723494,-6.152839],[-35.724207,-6.153581],[-35.724775,-6.153288],[-35.725834,-6.155298],[-35.728807,-6.157344],[-35.729348,-6.157333],[-35.72948,-6.157807],[-35.73265,-6.159936],[-35.732497,-6.160534],[-35.734207,-6.164318],[-35.736697,-6.166468],[-35.744148,-6.166133],[-35.744941,-6.165444],[-35.74742,-6.166292],[-35.749173,-6.166362],[-35.753757,-6.171309],[-35.754563,-6.171575],[-35.759361,-6.175511],[-35.75946,-6.175798],[-35.758828,-6.176003],[-35.758828,-6.176782],[-35.760296,-6.178366],[-35.762341,-6.179331],[-35.76284,-6.178592],[-35.766317,-6.18238],[-35.768697,-6.18305],[-35.774399,-6.182414],[-35.776325,-6.179431],[-35.777342,-6.176439],[-35.784746,-6.172158],[-35.808127,-6.164318],[-35.810457,-6.165335],[-35.812432,-6.165104],[-35.819037,-6.168849],[-35.826556,-6.172361],[-35.829828,-6.171214],[-35.834738,-6.168568],[-35.835416,-6.168906],[-35.836803,-6.168401],[-35.837522,-6.168771],[-35.839219,-6.168672],[-35.843773,-6.167283],[-35.845999,-6.164881],[-35.846087,-6.163703],[-35.847791,-6.161842],[-35.85522,-6.160605],[-35.857484,-6.161172],[-35.864729,-6.160305],[-35.877909,-6.156944],[-35.884502,-6.15821],[-35.890417,-6.158234],[-35.892156,-6.156675],[-35.893193,-6.157158],[-35.89957,-6.153829],[-35.900036,-6.154255],[-35.902346,-6.153964],[-35.904858,-6.154287],[-35.906343,-6.153766],[-35.906865,-6.153046],[-35.908519,-6.152853],[-35.910976,-6.150274],[-35.915659,-6.151558],[-35.915762,-6.152235],[-35.916986,-6.152283],[-35.916929,-6.153734],[-35.917821,-6.154399],[-35.916862,-6.155402],[-35.916739,-6.158508],[-35.919524,-6.161088],[-35.919984,-6.161092],[-35.920893,-6.162357],[-35.922336,-6.161821],[-35.923251,-6.162331],[-35.922714,-6.169699],[-35.929736,-6.171796],[-35.933978,-6.170863],[-35.937669,-6.16891],[-35.940685,-6.16624],[-35.954034,-6.171421],[-35.956493,-6.168335],[-35.957462,-6.168188],[-35.958099,-6.168902],[-35.959277,-6.169257],[-35.960031,-6.170085],[-35.967001,-6.174353],[-35.969439,-6.17532],[-35.971214,-6.175359],[-35.971016,-6.170242],[-35.970479,-6.169678],[-35.968737,-6.169307],[-35.9695,-6.168752],[-35.971062,-6.169073],[-35.971325,-6.162454],[-35.967959,-6.156094],[-35.965729,-6.154277],[-35.965908,-6.152217],[-35.965304,-6.151076],[-35.980673,-6.147308],[-35.980882,-6.148257],[-35.984885,-6.148115],[-35.984912,-6.146648],[-35.98554,-6.146244],[-35.985451,-6.144],[-35.985036,-6.143213],[-35.985407,-6.142886],[-35.985126,-6.1358],[-35.984758,-6.135791],[-35.983443,-6.125688],[-35.983471,-6.120711],[-35.985458,-6.120757],[-35.986856,-6.119492],[-35.989208,-6.116034],[-35.988786,-6.115412],[-35.989185,-6.114885],[-35.988733,-6.110436],[-35.989145,-6.110336],[-35.989077,-6.108052],[-35.988753,-6.107599],[-35.989106,-6.107298],[-35.989113,-6.105038],[-35.987974,-6.104199],[-35.988029,-6.094248],[-35.98869,-6.094643],[-35.990775,-6.094436],[-35.993043,-6.092334],[-35.994659,-6.088911],[-35.994629,-6.08743],[-35.996399,-6.087035],[-35.998762,-6.08688],[-36.000297,-6.087327],[-36.00392,-6.086871],[-36.005226,-6.086103],[-36.007424,-6.08643],[-36.01043,-6.086051],[-36.019213,-6.092095],[-36.022915,-6.090136],[-36.023325,-6.089369],[-36.023256,-6.08765],[-36.021741,-6.085225],[-36.021884,-6.083583],[-36.023029,-6.080088],[-36.022414,-6.078977],[-36.022978,-6.077704],[-36.021992,-6.075601],[-36.023213,-6.075431],[-36.023355,-6.071851],[-36.024905,-6.071912],[-36.025089,-6.070971],[-36.026373,-6.07197],[-36.029665,-6.071989],[-36.030231,-6.070993],[-36.031778,-6.07149],[-36.034104,-6.074349],[-36.035159,-6.074132],[-36.035688,-6.073583],[-36.035444,-6.075982],[-36.048738,-6.089978],[-36.057732,-6.091411],[-36.062077,-6.091619],[-36.063338,-6.09254],[-36.066591,-6.09728],[-36.068309,-6.099134],[-36.077199,-6.101949],[-36.077828,-6.101362],[-36.079842,-6.103293],[-36.081354,-6.104093],[-36.083436,-6.101065],[-36.083302,-6.099439],[-36.084054,-6.097321],[-36.084878,-6.097325],[-36.085103,-6.097788],[-36.086498,-6.097334],[-36.0879,-6.098522],[-36.095452,-6.100102],[-36.095746,-6.099521],[-36.096539,-6.099214],[-36.099509,-6.100022],[-36.107402,-6.100287],[-36.110323,-6.102431],[-36.113646,-6.10419],[-36.116503,-6.104077],[-36.117705,-6.102902],[-36.117553,-6.099045],[-36.116304,-6.097789],[-36.117717,-6.095577],[-36.117146,-6.09487],[-36.119826,-6.089196],[-36.121024,-6.089447],[-36.121002,-6.088559],[-36.122625,-6.088233],[-36.124604,-6.090196],[-36.128295,-6.090968],[-36.129588,-6.090601],[-36.131329,-6.091167],[-36.131887,-6.09172],[-36.133582,-6.092074],[-36.135582,-6.091715],[-36.136769,-6.091908],[-36.138497,-6.093042],[-36.139057,-6.094471],[-36.141447,-6.096303],[-36.142524,-6.096282],[-36.144237,-6.097398],[-36.15173,-6.104189],[-36.156954,-6.108157],[-36.158157,-6.10811],[-36.159128,-6.106742],[-36.162383,-6.107942],[-36.163616,-6.109851],[-36.164155,-6.10964],[-36.164252,-6.110837],[-36.167686,-6.116154],[-36.169431,-6.116978],[-36.16962,-6.116208],[-36.171213,-6.117801],[-36.172814,-6.118493],[-36.173019,-6.11895],[-36.172677,-6.119614],[-36.173706,-6.122175],[-36.184598,-6.126758],[-36.185146,-6.126408],[-36.185625,-6.126772],[-36.187287,-6.126738],[-36.18841,-6.127427],[-36.189919,-6.129224],[-36.191768,-6.130202],[-36.19731,-6.131085],[-36.201565,-6.130928],[-36.202053,-6.13184],[-36.21203,-6.13343],[-36.212948,-6.132942],[-36.21342,-6.133186],[-36.214043,-6.132526],[-36.215858,-6.133775],[-36.216305,-6.13494],[-36.216817,-6.135065],[-36.219664,-6.142058],[-36.221053,-6.143345],[-36.223033,-6.144319],[-36.22496,-6.148173],[-36.225036,-6.151846],[-36.225868,-6.156206],[-36.227173,-6.158096],[-36.227673,-6.162664],[-36.226102,-6.164092],[-36.224673,-6.164746],[-36.2234,-6.167152],[-36.223202,-6.169357],[-36.2262,-6.173714],[-36.227643,-6.174663],[-36.228048,-6.176452],[-36.229898,-6.180373],[-36.231216,-6.182864],[-36.233306,-6.185091],[-36.234877,-6.188752],[-36.239702,-6.191372],[-36.242104,-6.191371],[-36.247905,-6.182388],[-36.249746,-6.178878],[-36.251673,-6.177724],[-36.252564,-6.177742],[-36.254384,-6.176006],[-36.254156,-6.174076],[-36.25618,-6.174097],[-36.259828,-6.170717],[-36.261366,-6.17144],[-36.263556,-6.173282],[-36.264489,-6.173453],[-36.264687,-6.17406],[-36.268028,-6.176359],[-36.271922,-6.178133],[-36.274051,-6.180376],[-36.280024,-6.179634],[-36.281061,-6.180098],[-36.284756,-6.179952],[-36.285549,-6.179217],[-36.286946,-6.178983],[-36.288862,-6.179789],[-36.2919,-6.17651],[-36.291865,-6.175619],[-36.293118,-6.175349],[-36.294988,-6.173617],[-36.294155,-6.170251],[-36.293223,-6.169649],[-36.29289,-6.168943],[-36.293478,-6.166397],[-36.291134,-6.155196],[-36.289367,-6.149012],[-36.28948,-6.147292],[-36.288332,-6.141801],[-36.28963,-6.140599],[-36.289362,-6.139671],[-36.290752,-6.139559],[-36.295312,-6.135334],[-36.300286,-6.129918],[-36.300187,-6.127424],[-36.299584,-6.127073],[-36.29939,-6.124781],[-36.300147,-6.124088],[-36.302298,-6.120023],[-36.301881,-6.115607],[-36.302265,-6.113031],[-36.304613,-6.113646],[-36.30526,-6.113303],[-36.306226,-6.114069],[-36.312466,-6.115704],[-36.312992,-6.115534],[-36.313158,-6.115885],[-36.315439,-6.116483],[-36.317344,-6.11576],[-36.317677,-6.116763],[-36.319925,-6.11654],[-36.321457,-6.114887],[-36.321253,-6.11422],[-36.322406,-6.113863],[-36.328186,-6.108389],[-36.328154,-6.106913],[-36.328618,-6.106012],[-36.328287,-6.104958],[-36.328858,-6.103509],[-36.331496,-6.103444],[-36.334331,-6.102106],[-36.335296,-6.101064],[-36.310236,-6.087843]]]}}]}