{"type":"FeatureCollection","features":[{"type":"Feature","id":1,"properties":{"nome":"Porteira 2m","area_atuacao":"APP do Açude Eloy de Souza — Cerro Corá","acao":"Porteiras","fonte":"Acervo geoespacial do Projeto Potengi"},"geometry":{"type":"Point","coordinates":[-36.351909,-6.043717]}},{"type":"Feature","id":2,"properties":{"nome":"Porteira 2m","area_atuacao":"APP do Açude Eloy de Souza — Cerro Corá","acao":"Porteiras","fonte":"Acervo geoespacial do Projeto Potengi"},"geometry":{"type":"Point","coordinates":[-36.34967,-6.04291]}},{"type":"Feature","id":3,"properties":{"nome":"Porteira 2m","area_atuacao":"APP do Açude Eloy de Souza — Cerro Corá","acao":"Porteiras","fonte":"Acervo geoespacial do Projeto Potengi"},"geometry":{"type":"Point","coordinates":[-36.349331,-6.042716]}},{"type":"Feature","id":4,"properties":{"nome":"Porteira 2m","area_atuacao":"APP do Açude Eloy de Souza — Cerro Corá","acao":"Porteiras","fonte":"Acervo geoespacial do Projeto Potengi"},"geometry":{"type":"Point","coordinates":[-36.348932,-6.04233]}},{"type":"Feature","id":5,"properties":{"nome":"Porteira 2m","area_atuacao":"APP do Açude Eloy de Souza — Cerro Corá","acao":"Porteiras","fonte":"Acervo geoespacial do Projeto Potengi"},"geometry":{"type":"Point","coordinates":[-36.348494,-6.041361]}},{"type":"Feature","id":6,"properties":{"nome":"Porteira 4,5m para água","area_atuacao":"APP do Açude Eloy de Souza — Cerro Corá","acao":"Porteiras","fonte":"Acervo geoespacial do Projeto Potengi"},"geometry":{"type":"Point","coordinates":[-36.3484,-6.041268]}},{"type":"Feature","id":7,"properties":{"nome":"Porteira 2m","area_atuacao":"APP do Açude Eloy de Souza — Cerro Corá","acao":"Porteiras","fonte":"Acervo geoespacial do Projeto Potengi"},"geometry":{"type":"Point","coordinates":[-36.347465,-6.039909]}}]}