{"type":"FeatureCollection","features":[{"type":"Feature","id":1,"properties":{"area_atuacao":"Açude do Bêbado — Escola Agrícola de Jundiaí, Macaíba","acao":"Áreas de recuperação","fonte_dado":"RecuperaçãoEAJ","nome":"Area1","elemento":1},"geometry":{"type":"Polygon","coordinates":[[[-35.359235,-5.888329],[-35.357146,-5.887232],[-35.357113,-5.887325],[-35.357147,-5.887439],[-35.357252,-5.887565],[-35.35742,-5.887711],[-35.35763,-5.887846],[-35.357646,-5.887868],[-35.357648,-5.887947],[-35.357549,-5.888055],[-35.356749,-5.888553],[-35.356553,-5.888633],[-35.356001,-5.889095],[-35.356272,-5.889034],[-35.357386,-5.888962],[-35.357742,-5.888927],[-35.358107,-5.888864],[-35.358598,-5.888869],[-35.358744,-5.888681],[-35.359072,-5.888459],[-35.359235,-5.888329]]]}},{"type":"Feature","id":2,"properties":{"area_atuacao":"Açude do Bêbado — Escola Agrícola de Jundiaí, Macaíba","acao":"Áreas de recuperação","fonte_dado":"RecuperaçãoEAJ","nome":"Area2","elemento":2},"geometry":{"type":"Polygon","coordinates":[[[-35.357083,-5.887205],[-35.356706,-5.886987],[-35.355824,-5.886544],[-35.355836,-5.886651],[-35.355822,-5.886725],[-35.355606,-5.88711],[-35.356506,-5.888496],[-35.356579,-5.888579],[-35.356805,-5.888474],[-35.357101,-5.888276],[-35.357496,-5.888045],[-35.357538,-5.88801],[-35.35757,-5.88795],[-35.357542,-5.88785],[-35.357385,-5.88776],[-35.357135,-5.887495],[-35.357087,-5.88742],[-35.357068,-5.887344],[-35.357083,-5.887205]]]}},{"type":"Feature","id":3,"properties":{"area_atuacao":"Açude do Bêbado — Escola Agrícola de Jundiaí, Macaíba","acao":"Áreas de recuperação","fonte_dado":"RecuperaçãoEAJ","nome":"Adensado","elemento":3},"geometry":{"type":"Polygon","coordinates":[[[-35.358056,-5.888871],[-35.358598,-5.888869],[-35.358744,-5.888681],[-35.359072,-5.888459],[-35.359235,-5.888329],[-35.358011,-5.887686],[-35.357941,-5.887745],[-35.357949,-5.887831],[-35.357826,-5.8879],[-35.35765,-5.887897],[-35.357648,-5.887947],[-35.357939,-5.888118],[-35.358006,-5.888237],[-35.357906,-5.888319],[-35.357773,-5.888329],[-35.357797,-5.888396],[-35.357807,-5.888554],[-35.357903,-5.88864],[-35.358056,-5.888871]]]}},{"type":"Feature","id":4,"properties":{"area_atuacao":"Açude do Bêbado — Escola Agrícola de Jundiaí, Macaíba","acao":"Áreas de recuperação","fonte_dado":"RecuperaçãoEAJ","nome":"Nucleação","elemento":4},"geometry":{"type":"Polygon","coordinates":[[[-35.357336,-5.887719],[-35.357074,-5.887419],[-35.357083,-5.887205],[-35.356772,-5.887021],[-35.355824,-5.886544],[-35.355836,-5.886651],[-35.355822,-5.886725],[-35.355606,-5.88711],[-35.355637,-5.887167],[-35.355743,-5.887223],[-35.355866,-5.887127],[-35.355967,-5.887184],[-35.356278,-5.887259],[-35.356478,-5.887206],[-35.35678,-5.887372],[-35.357144,-5.887696],[-35.357336,-5.887719]]]}},{"type":"Feature","id":5,"properties":{"area_atuacao":"Açude do Bêbado — Escola Agrícola de Jundiaí, Macaíba","acao":"Áreas de recuperação","fonte_dado":"RecuperaçãoEAJ","nome":"Nucleação","elemento":5},"geometry":{"type":"Polygon","coordinates":[[[-35.356368,-5.888787],[-35.356098,-5.889023],[-35.356001,-5.889095],[-35.356272,-5.889034],[-35.356484,-5.889018],[-35.356368,-5.888787]]]}},{"type":"Feature","id":6,"properties":{"area_atuacao":"Açude do Bêbado — Escola Agrícola de Jundiaí, Macaíba","acao":"Áreas de recuperação","fonte_dado":"RecuperaçãoEAJ","nome":"Nucleação","elemento":6},"geometry":{"type":"Polygon","coordinates":[[[-35.357648,-5.887947],[-35.357651,-5.887874],[-35.35768,-5.887796],[-35.357751,-5.887722],[-35.357849,-5.887669],[-35.357867,-5.887611],[-35.357146,-5.887232],[-35.357113,-5.887325],[-35.357147,-5.887439],[-35.357334,-5.887651],[-35.35763,-5.887846],[-35.357646,-5.887868],[-35.357648,-5.887947]]]}},{"type":"Feature","id":7,"properties":{"area_atuacao":"Açude do Bêbado — Escola Agrícola de Jundiaí, Macaíba","acao":"Áreas de recuperação","fonte_dado":"RecuperaçãoEAJ","elemento":7},"geometry":{"type":"Polygon","coordinates":[[[-35.358011,-5.887686],[-35.357867,-5.887611],[-35.357849,-5.887669],[-35.357751,-5.887722],[-35.35768,-5.887796],[-35.35765,-5.887897],[-35.357826,-5.8879],[-35.357949,-5.887831],[-35.357941,-5.887745],[-35.358011,-5.887686]]]}},{"type":"Feature","id":8,"properties":{"area_atuacao":"Açude do Bêbado — Escola Agrícola de Jundiaí, Macaíba","acao":"Áreas de recuperação","fonte_dado":"RecuperaçãoEAJ","elemento":8},"geometry":{"type":"Polygon","coordinates":[[[-35.357648,-5.887947],[-35.357549,-5.888055],[-35.356749,-5.888553],[-35.356553,-5.888633],[-35.356368,-5.888787],[-35.356484,-5.889018],[-35.357386,-5.888962],[-35.357742,-5.888927],[-35.358056,-5.888871],[-35.357903,-5.88864],[-35.357807,-5.888554],[-35.357797,-5.888396],[-35.357773,-5.888329],[-35.357906,-5.888319],[-35.358006,-5.888237],[-35.357939,-5.888118],[-35.357648,-5.887947]]]}},{"type":"Feature","id":9,"properties":{"area_atuacao":"Açude do Bêbado — Escola Agrícola de Jundiaí, Macaíba","acao":"Áreas de recuperação","fonte_dado":"RecuperaçãoEAJ","nome":"Regenaração","elemento":9},"geometry":{"type":"Polygon","coordinates":[[[-35.357336,-5.887719],[-35.357144,-5.887696],[-35.35678,-5.887372],[-35.356478,-5.887206],[-35.356278,-5.887259],[-35.355967,-5.887184],[-35.355866,-5.887127],[-35.355767,-5.887204],[-35.355606,-5.88711],[-35.356506,-5.888496],[-35.356579,-5.888579],[-35.356875,-5.888429],[-35.357538,-5.88801],[-35.357558,-5.887982],[-35.357565,-5.887919],[-35.357542,-5.88785],[-35.357336,-5.887719]]]}},{"type":"Feature","id":10,"properties":{"area_atuacao":"Açude do Bêbado — Escola Agrícola de Jundiaí, Macaíba","acao":"Áreas de recuperação","fonte_dado":"RecuperaçãoEAJ","nome":"Regenaração","elemento":10},"geometry":{"type":"Polygon","coordinates":[[[-35.358011,-5.887686],[-35.357867,-5.887611],[-35.357849,-5.887669],[-35.357751,-5.887722],[-35.35768,-5.887796],[-35.35765,-5.887897],[-35.357826,-5.8879],[-35.357949,-5.887831],[-35.357941,-5.887745],[-35.358011,-5.887686]]]}},{"type":"Feature","id":11,"properties":{"area_atuacao":"Açude do Bêbado — Escola Agrícola de Jundiaí, Macaíba","acao":"Áreas de recuperação","fonte_dado":"RecuperaçãoEAJ","nome":"Regenaração","elemento":11},"geometry":{"type":"Polygon","coordinates":[[[-35.357648,-5.887947],[-35.357549,-5.888055],[-35.356749,-5.888553],[-35.356553,-5.888633],[-35.356368,-5.888787],[-35.356484,-5.889018],[-35.357386,-5.888962],[-35.357742,-5.888927],[-35.358056,-5.888871],[-35.357903,-5.88864],[-35.357807,-5.888554],[-35.357797,-5.888396],[-35.357773,-5.888329],[-35.357906,-5.888319],[-35.358006,-5.888237],[-35.357939,-5.888118],[-35.357648,-5.887947]]]}}]}
