{"type":"FeatureCollection","features":[{"type":"Feature","id":1,"properties":{"municipio":"Barcelona","manancial":"Subterrâneo","tipo_sistema":"Integrado","situacao_tratamento":"Sem Tratamento","fonte":"Atlas Esgoto (2013), SNIS (2021)"},"geometry":{"type":"Polygon","coordinates":[[[-35.913096,-5.902735],[-35.907099,-5.90113],[-35.90604,-5.899514],[-35.906731,-5.897487],[-35.902535,-5.896138],[-35.901659,-5.896863],[-35.901883,-5.899136],[-35.899174,-5.900603],[-35.898055,-5.900374],[-35.896991,-5.898642],[-35.895775,-5.898899],[-35.896843,-5.901887],[-35.894746,-5.903083],[-35.891103,-5.901899],[-35.890491,-5.903224],[-35.892613,-5.905207],[-35.893003,-5.906856],[-35.886993,-5.909273],[-35.885361,-5.909003],[-35.883272,-5.906796],[-35.879291,-5.906508],[-35.876866,-5.904962],[-35.874566,-5.904902],[-35.873577,-5.901871],[-35.872329,-5.901184],[-35.868594,-5.906365],[-35.861521,-5.911615],[-35.857061,-5.911591],[-35.851097,-5.913334],[-35.834772,-5.947096],[-35.924804,-6.010633],[-36.031832,-6.069389],[-36.01119,-6.049192],[-36.007662,-6.047309],[-36.005647,-6.041474],[-36.000592,-6.03792],[-35.997946,-6.03766],[-35.994461,-6.034772],[-35.990666,-6.033028],[-35.988439,-6.02815],[-35.988487,-6.025111],[-35.984033,-6.022314],[-35.980965,-6.017969],[-35.978084,-6.016873],[-35.976831,-6.014399],[-35.976891,-6.010311],[-35.978754,-6.008537],[-35.979523,-6.005576],[-35.979287,-6.00224],[-35.98418,-5.997985],[-35.982363,-5.995509],[-35.98106,-5.991059],[-35.977966,-5.989159],[-35.97848,-5.985859],[-35.977194,-5.983794],[-35.977203,-5.979663],[-35.972442,-5.975535],[-35.970831,-5.971612],[-35.968496,-5.971417],[-35.96837,-5.969051],[-35.96424,-5.967948],[-35.962703,-5.963833],[-35.966676,-5.901299],[-35.919244,-5.908572],[-35.920459,-5.90249],[-35.922295,-5.898866],[-35.916616,-5.896465],[-35.91704,-5.893893],[-35.916231,-5.893258],[-35.911128,-5.894816],[-35.913096,-5.902735]]]}},{"type":"Feature","id":2,"properties":{"municipio":"Bento Fernandes","manancial":"Subterrâneo","tipo_sistema":"Integrado","situacao_tratamento":"Sem Tratamento","fonte":"Atlas Esgoto (2013), SNIS (2021)"},"geometry":{"type":"Polygon","coordinates":[[[-35.864733,-5.611634],[-35.85744,-5.611751],[-35.854458,-5.608641],[-35.85191,-5.609813],[-35.840998,-5.61147],[-35.831229,-5.610757],[-35.829133,-5.611809],[-35.825823,-5.617515],[-35.820013,-5.617424],[-35.815074,-5.61877],[-35.805609,-5.619402],[-35.80305,-5.620271],[-35.799111,-5.623696],[-35.794712,-5.626081],[-35.78211,-5.627545],[-35.778247,-5.629886],[-35.775511,-5.63503],[-35.770485,-5.635655],[-35.764151,-5.638291],[-35.761885,-5.638221],[-35.761503,-5.635658],[-35.765559,-5.63103],[-35.767101,-5.626093],[-35.772811,-5.622079],[-35.773298,-5.620392],[-35.772054,-5.619077],[-35.768555,-5.619534],[-35.761743,-5.625777],[-35.757092,-5.627965],[-35.754124,-5.626463],[-35.753895,-5.621936],[-35.749017,-5.619649],[-35.746812,-5.619692],[-35.746561,-5.62316],[-35.747769,-5.627539],[-35.746236,-5.632212],[-35.738749,-5.63598],[-35.728174,-5.631343],[-35.710904,-5.635199],[-35.707942,-5.637679],[-35.697218,-5.665588],[-35.632136,-5.714432],[-35.656278,-5.717983],[-35.7771,-5.716386],[-35.939639,-5.733012],[-35.941599,-5.727792],[-35.941136,-5.725807],[-35.934044,-5.715904],[-35.941665,-5.668779],[-35.939674,-5.664876],[-35.936044,-5.660969],[-35.932782,-5.653426],[-35.928783,-5.652635],[-35.92429,-5.649855],[-35.922786,-5.645031],[-35.924188,-5.635696],[-35.921786,-5.633753],[-35.913809,-5.632125],[-35.907058,-5.626938],[-35.898377,-5.624303],[-35.896321,-5.625035],[-35.892796,-5.628939],[-35.885312,-5.631943],[-35.880061,-5.628162],[-35.872668,-5.624631],[-35.870465,-5.621547],[-35.869285,-5.615391],[-35.870423,-5.612379],[-35.873292,-5.609107],[-35.872373,-5.606627],[-35.867793,-5.605447],[-35.866454,-5.609503],[-35.864733,-5.611634]]]}},{"type":"Feature","id":3,"properties":{"municipio":"Bodó","manancial":"Superficial","tipo_sistema":"Integrado","situacao_tratamento":"Sem Tratamento","fonte":"Atlas Esgoto (2013), SNIS (2021)"},"geometry":{"type":"Polygon","coordinates":[[[-36.382653,-5.859443],[-36.377754,-5.86678],[-36.370605,-5.873037],[-36.366912,-5.875127],[-36.364963,-5.875222],[-36.362182,-5.873235],[-36.35112,-5.870629],[-36.338417,-5.871227],[-36.331938,-5.872855],[-36.330469,-5.874269],[-36.329969,-5.877003],[-36.334046,-5.8898],[-36.333297,-5.899336],[-36.338075,-5.904996],[-36.338517,-5.907362],[-36.372005,-5.895604],[-36.37369,-5.911536],[-36.363086,-5.968924],[-36.370449,-5.969672],[-36.372519,-5.977544],[-36.379628,-5.986591],[-36.392428,-5.989763],[-36.394677,-6.012961],[-36.410644,-6.021217],[-36.44873,-6.011491],[-36.444167,-6.04142],[-36.470663,-6.04525],[-36.521789,-6.046671],[-36.547439,-6.056275],[-36.540383,-5.989741],[-36.475008,-5.926573],[-36.435473,-5.910887],[-36.432814,-5.9092],[-36.42954,-5.904305],[-36.426778,-5.904661],[-36.414824,-5.858429],[-36.401134,-5.859618],[-36.38771,-5.85191],[-36.385047,-5.85261],[-36.383549,-5.854143],[-36.382653,-5.859443]]]}},{"type":"Feature","id":4,"properties":{"municipio":"Bom Jesus","manancial":"Subterrâneo","tipo_sistema":"Integrado","situacao_tratamento":"Sem Tratamento","fonte":"Atlas Esgoto (2013), SNIS (2021)"},"geometry":{"type":"Polygon","coordinates":[[[-35.537401,-5.995684],[-35.570779,-6.079545],[-35.647483,-6.016038],[-35.650193,-5.976435],[-35.572227,-5.932308],[-35.555617,-5.948496],[-35.537401,-5.995684]]]}},{"type":"Feature","id":5,"properties":{"municipio":"Cerro Corá","manancial":"Superficial","tipo_sistema":"Misto","situacao_tratamento":"Sem Tratamento","fonte":"Atlas Esgoto (2013), SNIS (2021)"},"geometry":{"type":"Polygon","coordinates":[[[-36.257956,-5.86484],[-36.224179,-5.899953],[-36.252894,-5.982007],[-36.281357,-6.044042],[-36.302217,-6.115372],[-36.2957,-6.122166],[-36.304547,-6.120739],[-36.320984,-6.112461],[-36.32893,-6.10647],[-36.343371,-6.09795],[-36.4117,-6.1042],[-36.41197,-6.101577],[-36.413923,-6.099078],[-36.414768,-6.094988],[-36.419962,-6.090145],[-36.426756,-6.092567],[-36.444167,-6.04142],[-36.44873,-6.011491],[-36.410644,-6.021217],[-36.394677,-6.012961],[-36.392428,-5.989763],[-36.379628,-5.986591],[-36.372519,-5.977544],[-36.370449,-5.969672],[-36.363086,-5.968924],[-36.37369,-5.911536],[-36.372005,-5.895604],[-36.338517,-5.907362],[-36.338075,-5.904996],[-36.333297,-5.899336],[-36.334046,-5.8898],[-36.332341,-5.894099],[-36.320671,-5.865574],[-36.284752,-5.859291],[-36.276091,-5.845546],[-36.269464,-5.843221],[-36.26362,-5.833219],[-36.259162,-5.830911],[-36.256211,-5.830363],[-36.253964,-5.831044],[-36.252963,-5.834122],[-36.2581,-5.847261],[-36.259897,-5.855404],[-36.259942,-5.859611],[-36.257956,-5.86484]]]}},{"type":"Feature","id":6,"properties":{"municipio":"Currais Novos","manancial":"Superficial","tipo_sistema":"Misto","situacao_tratamento":"60,01 - 80%","fonte":"Atlas Esgoto (2013), SNIS (2021)"},"geometry":{"type":"Polygon","coordinates":[[[-36.2957,-6.122166],[-36.256849,-6.158015],[-36.257668,-6.198791],[-36.258949,-6.200978],[-36.26317,-6.217238],[-36.266278,-6.223636],[-36.267119,-6.227278],[-36.267023,-6.229296],[-36.259782,-6.239598],[-36.258255,-6.243227],[-36.258673,-6.245814],[-36.260983,-6.248493],[-36.265619,-6.251021],[-36.269079,-6.25613],[-36.278646,-6.262157],[-36.281816,-6.273484],[-36.291095,-6.277005],[-36.292077,-6.278708],[-36.291884,-6.282586],[-36.293772,-6.283481],[-36.293419,-6.285419],[-36.295397,-6.285836],[-36.29498,-6.292107],[-36.303524,-6.283034],[-36.307591,-6.281498],[-36.31364,-6.283356],[-36.329492,-6.294097],[-36.357577,-6.309987],[-36.362605,-6.309979],[-36.394561,-6.293975],[-36.430306,-6.362255],[-36.432603,-6.363098],[-36.487062,-6.359799],[-36.499849,-6.358165],[-36.500221,-6.37039],[-36.50364,-6.380029],[-36.504378,-6.386451],[-36.517828,-6.378213],[-36.527291,-6.376321],[-36.538035,-6.372611],[-36.542425,-6.372903],[-36.543643,-6.367056],[-36.545838,-6.363805],[-36.550857,-6.361855],[-36.550858,-6.350793],[-36.547984,-6.344374],[-36.548766,-6.342606],[-36.553232,-6.339878],[-36.553257,-6.334727],[-36.554824,-6.330803],[-36.55762,-6.330235],[-36.557642,-6.328615],[-36.559942,-6.327436],[-36.561698,-6.321694],[-36.561915,-6.317798],[-36.564766,-6.313661],[-36.564436,-6.312855],[-36.567684,-6.310879],[-36.569993,-6.311479],[-36.570908,-6.311012],[-36.570861,-6.309747],[-36.575849,-6.307814],[-36.584753,-6.306376],[-36.585813,-6.304469],[-36.58424,-6.300542],[-36.589458,-6.29727],[-36.592491,-6.296989],[-36.596059,-6.288233],[-36.604272,-6.29049],[-36.606822,-6.289418],[-36.607904,-6.287067],[-36.606786,-6.278321],[-36.596424,-6.262257],[-36.591646,-6.247735],[-36.591879,-6.245295],[-36.595868,-6.244649],[-36.598567,-6.241584],[-36.598679,-6.234409],[-36.599471,-6.231957],[-36.606178,-6.230768],[-36.606847,-6.229719],[-36.605556,-6.227357],[-36.600973,-6.226249],[-36.599182,-6.216071],[-36.599848,-6.214625],[-36.603365,-6.213084],[-36.607814,-6.203643],[-36.613587,-6.198089],[-36.617678,-6.195412],[-36.618866,-6.192369],[-36.615661,-6.174647],[-36.618216,-6.168292],[-36.625395,-6.160398],[-36.627943,-6.155342],[-36.627321,-6.151475],[-36.62287,-6.140851],[-36.622307,-6.131765],[-36.610328,-6.131597],[-36.605966,-6.124466],[-36.604884,-6.124003],[-36.602648,-6.125681],[-36.601487,-6.124883],[-36.59957,-6.125127],[-36.59779,-6.127141],[-36.594319,-6.127756],[-36.592551,-6.130149],[-36.592646,-6.137112],[-36.591071,-6.139794],[-36.588657,-6.139575],[-36.588711,-6.136739],[-36.583509,-6.131316],[-36.581742,-6.130745],[-36.580075,-6.131571],[-36.581383,-6.140988],[-36.578322,-6.141412],[-36.574386,-6.137016],[-36.575624,-6.134915],[-36.572473,-6.132027],[-36.571491,-6.133292],[-36.570245,-6.132287],[-36.564107,-6.131487],[-36.560411,-6.134242],[-36.558461,-6.132669],[-36.553159,-6.131354],[-36.552198,-6.136623],[-36.549865,-6.137196],[-36.551355,-6.138995],[-36.551286,-6.140517],[-36.548258,-6.141505],[-36.547981,-6.143795],[-36.547233,-6.14375],[-36.547146,-6.139978],[-36.545698,-6.137844],[-36.54429,-6.141027],[-36.539885,-6.13892],[-36.538585,-6.136562],[-36.539843,-6.134532],[-36.537079,-6.133574],[-36.535758,-6.131191],[-36.530288,-6.130395],[-36.522773,-6.116852],[-36.523609,-6.116229],[-36.526437,-6.117448],[-36.527497,-6.116851],[-36.526305,-6.113803],[-36.521042,-6.113173],[-36.520556,-6.112208],[-36.522928,-6.110306],[-36.522125,-6.108239],[-36.518502,-6.10889],[-36.516941,-6.11031],[-36.514695,-6.108391],[-36.515839,-6.104354],[-36.518362,-6.102262],[-36.51616,-6.102081],[-36.515712,-6.099871],[-36.510803,-6.103746],[-36.509931,-6.103659],[-36.509307,-6.103238],[-36.510062,-6.100931],[-36.506328,-6.099307],[-36.506573,-6.100725],[-36.505778,-6.101096],[-36.503917,-6.098503],[-36.502671,-6.098409],[-36.502102,-6.099475],[-36.50351,-6.101064],[-36.502924,-6.101896],[-36.505354,-6.102846],[-36.504686,-6.103677],[-36.505553,-6.104513],[-36.505091,-6.105722],[-36.503652,-6.106069],[-36.503103,-6.107982],[-36.502234,-6.107022],[-36.503284,-6.104773],[-36.502938,-6.103044],[-36.498317,-6.104837],[-36.494967,-6.103445],[-36.494379,-6.104108],[-36.495579,-6.105614],[-36.494716,-6.10755],[-36.493021,-6.105123],[-36.491769,-6.110266],[-36.489284,-6.108128],[-36.487178,-6.111866],[-36.489283,-6.112485],[-36.491848,-6.111475],[-36.49179,-6.114937],[-36.495796,-6.115933],[-36.494321,-6.112258],[-36.495053,-6.111451],[-36.496876,-6.113707],[-36.497917,-6.113047],[-36.497426,-6.1159],[-36.500251,-6.116956],[-36.503084,-6.116886],[-36.503674,-6.119661],[-36.506339,-6.119798],[-36.509047,-6.121959],[-36.503299,-6.137426],[-36.501848,-6.137502],[-36.498829,-6.135174],[-36.494553,-6.135075],[-36.492043,-6.136602],[-36.483977,-6.130791],[-36.482081,-6.130761],[-36.478514,-6.128327],[-36.477944,-6.125531],[-36.470453,-6.121098],[-36.467474,-6.121772],[-36.459903,-6.115301],[-36.457159,-6.115949],[-36.455607,-6.113921],[-36.448852,-6.1122],[-36.446641,-6.11344],[-36.447628,-6.11578],[-36.444625,-6.117016],[-36.436539,-6.115206],[-36.436335,-6.114414],[-36.435938,-6.115054],[-36.435151,-6.113967],[-36.434316,-6.114714],[-36.433821,-6.113587],[-36.431966,-6.114108],[-36.428977,-6.112677],[-36.428485,-6.119839],[-36.429118,-6.122325],[-36.427027,-6.124689],[-36.429346,-6.12583],[-36.431358,-6.129608],[-36.427033,-6.132031],[-36.433208,-6.136684],[-36.434031,-6.13877],[-36.432143,-6.142137],[-36.429067,-6.141789],[-36.427623,-6.140779],[-36.423825,-6.132806],[-36.424208,-6.130932],[-36.412791,-6.129336],[-36.405714,-6.122517],[-36.404768,-6.12037],[-36.398882,-6.118244],[-36.399263,-6.114715],[-36.40216,-6.113281],[-36.404752,-6.113105],[-36.405661,-6.110839],[-36.41086,-6.107477],[-36.4117,-6.1042],[-36.343371,-6.09795],[-36.32893,-6.10647],[-36.320984,-6.112461],[-36.304547,-6.120739],[-36.2957,-6.122166]]]}},{"type":"Feature","id":7,"properties":{"municipio":"Ielmo Marinho","manancial":"Subterrâneo","tipo_sistema":"Integrado","situacao_tratamento":"Sem Tratamento","fonte":"Atlas Esgoto (2013), SNIS (2021)"},"geometry":{"type":"Polygon","coordinates":[[[-35.547355,-5.70959],[-35.499916,-5.717],[-35.495393,-5.716439],[-35.490135,-5.720431],[-35.486747,-5.721477],[-35.482356,-5.71763],[-35.4807,-5.714905],[-35.476847,-5.712758],[-35.473084,-5.712928],[-35.470158,-5.716652],[-35.460956,-5.716021],[-35.458207,-5.717838],[-35.451974,-5.729616],[-35.446864,-5.733358],[-35.471585,-5.834825],[-35.487501,-5.829688],[-35.52901,-5.881809],[-35.591453,-5.868878],[-35.594526,-5.867485],[-35.635441,-5.803541],[-35.656498,-5.718114],[-35.631816,-5.714386],[-35.557694,-5.72113],[-35.5519,-5.703347],[-35.547464,-5.702746],[-35.547355,-5.70959]]]}},{"type":"Feature","id":8,"properties":{"municipio":"Lagoa de Velhos","manancial":"Subterrâneo","tipo_sistema":"Integrado","situacao_tratamento":"Sem Tratamento","fonte":"Atlas Esgoto (2013), SNIS (2021)"},"geometry":{"type":"Polygon","coordinates":[[[-35.805353,-6.043324],[-35.822527,-6.073176],[-35.924804,-6.010633],[-35.834772,-5.947096],[-35.778338,-6.015875],[-35.798691,-6.042577],[-35.805353,-6.043324]]]}},{"type":"Feature","id":9,"properties":{"municipio":"Lajes","manancial":"Superficial","tipo_sistema":"Integrado","situacao_tratamento":"80,01 - 100%","fonte":"Atlas Esgoto (2013), SNIS (2021)"},"geometry":{"type":"Polygon","coordinates":[[[-36.140901,-5.500239],[-36.171979,-5.544679],[-36.143694,-5.566936],[-36.143165,-5.591526],[-36.062535,-5.655287],[-36.091828,-5.74903],[-36.115603,-5.809179],[-36.112496,-5.842201],[-36.113778,-5.843668],[-36.115987,-5.854634],[-36.117839,-5.859051],[-36.127216,-5.859423],[-36.137413,-5.863948],[-36.138578,-5.863241],[-36.139895,-5.858645],[-36.141843,-5.857099],[-36.149852,-5.859279],[-36.150938,-5.858734],[-36.153386,-5.851325],[-36.156371,-5.849526],[-36.159083,-5.850252],[-36.16798,-5.855936],[-36.180022,-5.853469],[-36.185756,-5.858165],[-36.191332,-5.8689],[-36.196819,-5.883117],[-36.212879,-5.873726],[-36.224179,-5.899953],[-36.259099,-5.863068],[-36.259897,-5.855404],[-36.2581,-5.847261],[-36.252963,-5.834122],[-36.253964,-5.831044],[-36.256211,-5.830363],[-36.259162,-5.830911],[-36.26362,-5.833219],[-36.269464,-5.843221],[-36.276091,-5.845546],[-36.284752,-5.859291],[-36.273546,-5.709291],[-36.196992,-5.519823],[-36.2004,-5.51814],[-36.2001,-5.51671],[-36.1972,-5.51542],[-36.195487,-5.516135],[-36.179728,-5.477533],[-36.223232,-5.433874],[-36.159943,-5.434112],[-36.128547,-5.456817],[-36.140901,-5.500239]]]}},{"type":"Feature","id":10,"properties":{"municipio":"Macaíba","manancial":"Subterrâneo","tipo_sistema":"Isolado","situacao_tratamento":"60,01 - 80%","fonte":"Atlas Esgoto (2013), SNIS (2021)"},"geometry":{"type":"Polygon","coordinates":[[[-35.282457,-5.836785],[-35.282414,-5.849817],[-35.28989,-5.909063],[-35.290593,-5.909103],[-35.289408,-5.911087],[-35.290897,-5.911631],[-35.289608,-5.913549],[-35.291031,-5.914159],[-35.290226,-5.916259],[-35.291417,-5.916752],[-35.290592,-5.918882],[-35.291471,-5.921491],[-35.290918,-5.922366],[-35.291973,-5.924253],[-35.296085,-5.958239],[-35.305216,-5.958846],[-35.312109,-5.963778],[-35.315359,-5.967698],[-35.329773,-5.974226],[-35.332415,-5.974717],[-35.335579,-5.973401],[-35.343808,-5.973481],[-35.348563,-5.976559],[-35.36294,-5.981886],[-35.366201,-5.984557],[-35.370525,-5.985626],[-35.40655,-6.000514],[-35.546735,-6.053955],[-35.548504,-6.050647],[-35.551321,-6.04833],[-35.557729,-6.046777],[-35.537401,-5.995684],[-35.555617,-5.948496],[-35.572227,-5.932308],[-35.529093,-5.881914],[-35.487501,-5.829688],[-35.454109,-5.839736],[-35.431938,-5.84422],[-35.43195,-5.845236],[-35.378856,-5.84325],[-35.308626,-5.836315],[-35.304507,-5.839531],[-35.30108,-5.839704],[-35.298546,-5.838813],[-35.288769,-5.831209],[-35.28197,-5.829473],[-35.280707,-5.836548],[-35.282457,-5.836785]]]}},{"type":"Feature","id":11,"properties":{"municipio":"Natal","manancial":"Misto","tipo_sistema":"Misto","situacao_tratamento":"80,01 - 100%","fonte":"Atlas Esgoto (2013), SNIS (2021)"},"geometry":{"type":"Polygon","coordinates":[[[-35.265536,-5.704049],[-35.260375,-5.707191],[-35.259946,-5.706208],[-35.254683,-5.710098],[-35.25093,-5.70986],[-35.249202,-5.710563],[-35.246877,-5.712082],[-35.246443,-5.713801],[-35.243049,-5.716827],[-35.237111,-5.714599],[-35.233168,-5.718533],[-35.231403,-5.721937],[-35.225801,-5.726509],[-35.226065,-5.72725],[-35.20712,-5.739537],[-35.207848,-5.740233],[-35.203632,-5.743243],[-35.203436,-5.748326],[-35.202033,-5.751176],[-35.194335,-5.755174],[-35.194206,-5.768867],[-35.192595,-5.780932],[-35.191761,-5.782528],[-35.190433,-5.782499],[-35.189427,-5.783994],[-35.18939,-5.786305],[-35.187072,-5.790212],[-35.185657,-5.790776],[-35.184385,-5.792742],[-35.18212,-5.792978],[-35.181718,-5.796958],[-35.179242,-5.798971],[-35.18134,-5.816199],[-35.181433,-5.825658],[-35.18076,-5.8516],[-35.178812,-5.866364],[-35.174532,-5.876244],[-35.169088,-5.881945],[-35.164996,-5.883146],[-35.161365,-5.879548],[-35.159161,-5.880062],[-35.155797,-5.883355],[-35.153927,-5.882952],[-35.152936,-5.886276],[-35.154107,-5.897834],[-35.176195,-5.899818],[-35.209174,-5.875185],[-35.209487,-5.875761],[-35.212358,-5.874278],[-35.211341,-5.872289],[-35.217935,-5.868574],[-35.223999,-5.878102],[-35.225063,-5.881093],[-35.229091,-5.876706],[-35.231824,-5.876067],[-35.235914,-5.872738],[-35.237667,-5.869415],[-35.242863,-5.864911],[-35.247416,-5.863778],[-35.254035,-5.865809],[-35.265304,-5.856375],[-35.278351,-5.854204],[-35.281999,-5.850649],[-35.283051,-5.837995],[-35.282457,-5.836785],[-35.280707,-5.836548],[-35.281965,-5.830065],[-35.281515,-5.822045],[-35.279664,-5.818916],[-35.274452,-5.816993],[-35.270756,-5.813481],[-35.26689,-5.811567],[-35.261238,-5.810029],[-35.258464,-5.808375],[-35.255544,-5.805029],[-35.252282,-5.798197],[-35.251104,-5.787961],[-35.247561,-5.782245],[-35.249893,-5.777292],[-35.286574,-5.7635],[-35.288342,-5.757827],[-35.291342,-5.732498],[-35.291067,-5.730946],[-35.28895,-5.728727],[-35.2765,-5.721654],[-35.265536,-5.704049]]]}},{"type":"Feature","id":12,"properties":{"municipio":"Santa Maria","manancial":"Subterrâneo","tipo_sistema":"Integrado","situacao_tratamento":"Sem Tratamento","fonte":"Atlas Esgoto (2013), SNIS (2021)"},"geometry":{"type":"Polygon","coordinates":[[[-35.656278,-5.717983],[-35.63877,-5.79005],[-35.640063,-5.789041],[-35.645104,-5.793055],[-35.646726,-5.791414],[-35.649219,-5.792355],[-35.65205,-5.792177],[-35.662363,-5.79683],[-35.663086,-5.796825],[-35.663803,-5.795008],[-35.667917,-5.79431],[-35.683247,-5.86898],[-35.688452,-5.869546],[-35.691626,-5.870892],[-35.694011,-5.868204],[-35.697358,-5.867916],[-35.698496,-5.865181],[-35.700569,-5.865522],[-35.701498,-5.863804],[-35.703828,-5.864172],[-35.703866,-5.861468],[-35.708234,-5.861963],[-35.709689,-5.860892],[-35.713547,-5.862704],[-35.716221,-5.860647],[-35.717767,-5.860669],[-35.719712,-5.862011],[-35.72141,-5.868698],[-35.725601,-5.867938],[-35.732505,-5.869347],[-35.736227,-5.869068],[-35.738769,-5.871592],[-35.742123,-5.872273],[-35.745068,-5.87116],[-35.750648,-5.870689],[-35.752191,-5.866963],[-35.763208,-5.861881],[-35.765853,-5.864129],[-35.77379,-5.862971],[-35.776142,-5.861016],[-35.786246,-5.85898],[-35.79066,-5.856677],[-35.794752,-5.853214],[-35.796818,-5.853289],[-35.779579,-5.815181],[-35.7771,-5.716386],[-35.656278,-5.717983]]]}},{"type":"Feature","id":13,"properties":{"municipio":"Serra Caiada","manancial":"Subterrâneo","tipo_sistema":"Integrado","situacao_tratamento":"0 - 60%","fonte":"Atlas Esgoto (2013), SNIS (2021)"},"geometry":{"type":"Polygon","coordinates":[[[-35.74592,-6.062183],[-35.721666,-6.07441],[-35.700822,-6.071726],[-35.686382,-6.073102],[-35.604594,-6.091962],[-35.592928,-6.095506],[-35.641586,-6.136016],[-35.643296,-6.154001],[-35.653803,-6.177194],[-35.682186,-6.168173],[-35.720211,-6.17643],[-35.73225,-6.142491],[-35.808246,-6.139658],[-35.820757,-6.129362],[-35.8258,-6.078865],[-35.805353,-6.043324],[-35.781667,-6.040669],[-35.74592,-6.062183]]]}},{"type":"Feature","id":14,"properties":{"municipio":"Riachuelo","manancial":"Superficial","tipo_sistema":"Integrado","situacao_tratamento":"60,01 - 80%","fonte":"Atlas Esgoto (2013), SNIS (2021)"},"geometry":{"type":"Polygon","coordinates":[[[-35.7771,-5.716386],[-35.779579,-5.815181],[-35.796818,-5.853289],[-35.832729,-5.908803],[-35.842203,-5.914102],[-35.849818,-5.915366],[-35.925522,-5.800254],[-35.931162,-5.799086],[-35.936519,-5.79445],[-35.938545,-5.794749],[-35.935932,-5.786162],[-35.927734,-5.775209],[-35.923915,-5.765108],[-35.925133,-5.76083],[-35.927101,-5.75774],[-35.926553,-5.75378],[-35.93192,-5.752535],[-35.937402,-5.744888],[-35.939639,-5.733012],[-35.7771,-5.716386]]]}},{"type":"Feature","id":15,"properties":{"municipio":"Ruy Barbosa","manancial":"Subterrâneo","tipo_sistema":"Integrado","situacao_tratamento":"Sem Tratamento","fonte":"Atlas Esgoto (2013), SNIS (2021)"},"geometry":{"type":"Polygon","coordinates":[[[-35.943706,-5.813623],[-35.939604,-5.814006],[-35.93596,-5.809987],[-35.933293,-5.808551],[-35.925666,-5.807502],[-35.925522,-5.800254],[-35.851097,-5.913334],[-35.857061,-5.911591],[-35.861521,-5.911615],[-35.868594,-5.906365],[-35.872623,-5.901053],[-35.874566,-5.904902],[-35.876866,-5.904962],[-35.879291,-5.906508],[-35.883272,-5.906796],[-35.885361,-5.909003],[-35.886993,-5.909273],[-35.893003,-5.906856],[-35.892613,-5.905207],[-35.890491,-5.903224],[-35.891103,-5.901899],[-35.894746,-5.903083],[-35.896843,-5.901887],[-35.895775,-5.898899],[-35.896991,-5.898642],[-35.898055,-5.900374],[-35.899174,-5.900603],[-35.901883,-5.899136],[-35.901659,-5.896863],[-35.902535,-5.896138],[-35.906731,-5.897487],[-35.90604,-5.899514],[-35.907099,-5.90113],[-35.913096,-5.902735],[-35.911128,-5.894816],[-35.916231,-5.893258],[-35.91704,-5.893893],[-35.916616,-5.896465],[-35.922295,-5.898866],[-35.920459,-5.90249],[-35.919244,-5.908572],[-35.966676,-5.901299],[-36.013925,-5.835226],[-36.01169,-5.833655],[-36.007517,-5.824862],[-36.001203,-5.816884],[-35.995694,-5.812521],[-35.993814,-5.809581],[-35.983027,-5.805423],[-35.981051,-5.803694],[-35.975624,-5.794659],[-35.960596,-5.80411],[-35.946487,-5.805687],[-35.945751,-5.80745],[-35.946245,-5.810194],[-35.943706,-5.813623]]]}},{"type":"Feature","id":16,"properties":{"municipio":"Santa Cruz","manancial":"Subterrâneo","tipo_sistema":"Integrado","situacao_tratamento":"60,01 - 80%","fonte":"Atlas Esgoto (2013), SNIS (2021)"},"geometry":{"type":"Polygon","coordinates":[[[-36.007105,-6.087738],[-36.004719,-6.08867],[-36.000979,-6.086662],[-35.998021,-6.086579],[-35.99061,-6.095731],[-35.986462,-6.09828],[-35.987614,-6.107155],[-35.986209,-6.111145],[-35.982965,-6.114608],[-35.980939,-6.124268],[-35.982831,-6.13444],[-35.986996,-6.142915],[-35.98656,-6.145216],[-35.98233,-6.148746],[-35.97984,-6.146556],[-35.976182,-6.148872],[-35.97144,-6.149624],[-35.969077,-6.147305],[-35.965334,-6.149008],[-35.963327,-6.147564],[-35.961701,-6.148571],[-35.962416,-6.152389],[-35.960186,-6.153125],[-35.959576,-6.155014],[-35.966233,-6.156181],[-35.967707,-6.157418],[-35.967702,-6.171429],[-35.964603,-6.1716],[-35.9586,-6.170178],[-35.94926,-6.170154],[-35.939079,-6.165693],[-35.930606,-6.168134],[-35.928373,-6.164412],[-35.917527,-6.162672],[-35.870546,-6.362782],[-35.878294,-6.360174],[-35.882391,-6.356643],[-35.887998,-6.355212],[-35.892968,-6.352593],[-35.907198,-6.352609],[-35.909268,-6.358005],[-35.918711,-6.361191],[-35.921546,-6.366729],[-35.925013,-6.368215],[-35.927078,-6.37289],[-35.937543,-6.37508],[-35.944562,-6.378802],[-35.948478,-6.382535],[-35.955655,-6.383553],[-35.958518,-6.384722],[-35.961947,-6.387937],[-35.965015,-6.387801],[-35.965487,-6.470972],[-35.988745,-6.410103],[-35.997485,-6.390341],[-36.033823,-6.299321],[-36.04194,-6.303398],[-36.043846,-6.300419],[-36.046635,-6.300183],[-36.047221,-6.300897],[-36.045473,-6.304445],[-36.046813,-6.305876],[-36.048918,-6.307074],[-36.052665,-6.30678],[-36.054929,-6.308928],[-36.058096,-6.306236],[-36.061559,-6.306119],[-36.063969,-6.304472],[-36.065988,-6.305036],[-36.068657,-6.3026],[-36.070681,-6.302374],[-36.0748,-6.304923],[-36.077288,-6.30353],[-36.079932,-6.30583],[-36.082329,-6.306088],[-36.082846,-6.307023],[-36.11993,-6.32392],[-36.124259,-6.327359],[-36.126011,-6.327271],[-36.12675,-6.324194],[-36.129099,-6.323092],[-36.132896,-6.326535],[-36.139437,-6.329763],[-36.153764,-6.299837],[-36.133759,-6.210573],[-36.077861,-6.196146],[-36.076668,-6.168475],[-36.080352,-6.102013],[-36.071872,-6.100432],[-36.067741,-6.096969],[-36.06257,-6.090239],[-36.049719,-6.085357],[-36.045157,-6.080027],[-36.031832,-6.069389],[-36.028412,-6.069386],[-36.024736,-6.073652],[-36.019328,-6.076632],[-36.007105,-6.087738]]]}},{"type":"Feature","id":17,"properties":{"municipio":"Santana do Matos","manancial":"Superficial","tipo_sistema":"Isolado","situacao_tratamento":"Sem Tratamento","fonte":"Atlas Esgoto (2013), SNIS (2021)"},"geometry":{"type":"Polygon","coordinates":[[[-36.645875,-5.758011],[-36.643976,-5.758925],[-36.641136,-5.758123],[-36.637289,-5.755409],[-36.634038,-5.755924],[-36.630098,-5.758671],[-36.620835,-5.756329],[-36.616433,-5.757165],[-36.564852,-5.75721],[-36.550387,-5.769375],[-36.525186,-5.765304],[-36.509171,-5.755942],[-36.38922,-5.795377],[-36.356358,-5.849041],[-36.284752,-5.859291],[-36.320671,-5.865574],[-36.332341,-5.894099],[-36.334046,-5.8898],[-36.329969,-5.877003],[-36.330469,-5.874269],[-36.331938,-5.872855],[-36.338417,-5.871227],[-36.35112,-5.870629],[-36.362182,-5.873235],[-36.364963,-5.875222],[-36.368215,-5.874659],[-36.377754,-5.86678],[-36.382653,-5.859443],[-36.383549,-5.854143],[-36.385047,-5.85261],[-36.38771,-5.85191],[-36.401134,-5.859618],[-36.414824,-5.858429],[-36.426778,-5.904661],[-36.42954,-5.904305],[-36.432814,-5.9092],[-36.435473,-5.910887],[-36.475008,-5.926573],[-36.540383,-5.989741],[-36.547439,-6.056275],[-36.638715,-6.089008],[-36.65327,-6.111835],[-36.668747,-6.112339],[-36.693413,-6.103702],[-36.695456,-6.105415],[-36.701752,-6.104484],[-36.714907,-6.099824],[-36.726654,-6.089586],[-36.727268,-6.083912],[-36.722278,-6.077742],[-36.719882,-6.071948],[-36.730864,-6.056598],[-36.736657,-6.054959],[-36.742769,-6.055151],[-36.742125,-6.055809],[-36.742568,-6.057371],[-36.743738,-6.057858],[-36.746395,-6.062314],[-36.749501,-6.062678],[-36.755014,-6.05698],[-36.755311,-6.055686],[-36.766568,-6.056164],[-36.782126,-6.050077],[-36.783666,-6.04361],[-36.785018,-6.041222],[-36.788048,-6.039385],[-36.793364,-6.040114],[-36.799149,-6.048407],[-36.801324,-6.050101],[-36.812509,-6.053236],[-36.820934,-6.05389],[-36.829502,-6.054238],[-36.830204,-6.053152],[-36.833618,-6.053787],[-36.836108,-6.052398],[-36.836353,-6.049288],[-36.834908,-6.041509],[-36.84376,-6.040454],[-36.84911,-6.041408],[-36.855392,-6.04428],[-36.848065,-6.03621],[-36.847879,-6.034653],[-36.853151,-6.030185],[-36.854648,-6.02527],[-36.848957,-6.010332],[-36.854185,-5.999221],[-36.854508,-5.996228],[-36.857262,-5.994716],[-36.85628,-5.992912],[-36.85799,-5.990629],[-36.857153,-5.989448],[-36.858754,-5.987158],[-36.858712,-5.984561],[-36.860847,-5.983947],[-36.861627,-5.981554],[-36.866084,-5.982334],[-36.866286,-5.980251],[-36.867903,-5.97966],[-36.868476,-5.973547],[-36.869492,-5.972689],[-36.873109,-5.976422],[-36.877006,-5.975998],[-36.879918,-5.97771],[-36.881453,-5.976538],[-36.881784,-5.974227],[-36.885122,-5.97495],[-36.887839,-5.973658],[-36.888566,-5.974174],[-36.88863,-5.976622],[-36.892254,-5.977152],[-36.893728,-5.974956],[-36.878453,-5.960637],[-36.876047,-5.963871],[-36.818067,-5.913139],[-36.773561,-5.861044],[-36.772614,-5.857406],[-36.772639,-5.844169],[-36.773485,-5.841733],[-36.772288,-5.836848],[-36.774714,-5.832248],[-36.775388,-5.828799],[-36.777476,-5.826295],[-36.776354,-5.821531],[-36.774945,-5.820193],[-36.775506,-5.817929],[-36.774069,-5.815976],[-36.775558,-5.804817],[-36.776729,-5.803192],[-36.775773,-5.801858],[-36.773641,-5.802294],[-36.771592,-5.801325],[-36.768656,-5.793026],[-36.789743,-5.755168],[-36.788064,-5.754569],[-36.785397,-5.755667],[-36.779818,-5.761871],[-36.776052,-5.763622],[-36.771128,-5.763913],[-36.767455,-5.763033],[-36.766316,-5.762454],[-36.763273,-5.757327],[-36.761247,-5.756332],[-36.757053,-5.759192],[-36.75547,-5.759011],[-36.744687,-5.739596],[-36.741737,-5.73607],[-36.729624,-5.725941],[-36.720748,-5.714135],[-36.708336,-5.70391],[-36.704617,-5.702969],[-36.70268,-5.701433],[-36.699187,-5.695787],[-36.695084,-5.69794],[-36.688457,-5.703253],[-36.682094,-5.703817],[-36.674714,-5.706083],[-36.666073,-5.719127],[-36.662675,-5.721879],[-36.661446,-5.724639],[-36.661352,-5.730627],[-36.659216,-5.739637],[-36.657581,-5.742526],[-36.645708,-5.748863],[-36.64516,-5.750704],[-36.646422,-5.756566],[-36.645875,-5.758011]]]}},{"type":"Feature","id":18,"properties":{"municipio":"São Gonçalo do Amarante","manancial":"Misto","tipo_sistema":"Misto","situacao_tratamento":"60,01 - 80%","fonte":"Atlas Esgoto (2013), SNIS (2021)"},"geometry":{"type":"Polygon","coordinates":[[[-35.291067,-5.730946],[-35.288342,-5.757827],[-35.286574,-5.7635],[-35.249893,-5.777292],[-35.247561,-5.782245],[-35.251104,-5.787961],[-35.252282,-5.798197],[-35.255544,-5.805029],[-35.258464,-5.808375],[-35.270756,-5.813481],[-35.274452,-5.816993],[-35.279664,-5.818916],[-35.281515,-5.822045],[-35.28197,-5.829473],[-35.288769,-5.831209],[-35.298546,-5.838813],[-35.30108,-5.839704],[-35.304507,-5.839531],[-35.308626,-5.836315],[-35.378856,-5.84325],[-35.43195,-5.845236],[-35.431938,-5.84422],[-35.454109,-5.839736],[-35.471585,-5.834825],[-35.446864,-5.733358],[-35.440496,-5.734967],[-35.43622,-5.733097],[-35.432162,-5.732706],[-35.409959,-5.737802],[-35.384484,-5.734962],[-35.378527,-5.731805],[-35.370872,-5.729399],[-35.361136,-5.728497],[-35.346331,-5.730901],[-35.342908,-5.733048],[-35.339825,-5.738229],[-35.337551,-5.738159],[-35.332355,-5.734964],[-35.321718,-5.734342],[-35.316603,-5.73739],[-35.313213,-5.73797],[-35.304275,-5.730872],[-35.28699,-5.721941],[-35.285607,-5.71798],[-35.285156,-5.71016],[-35.280632,-5.705231],[-35.277211,-5.704414],[-35.276015,-5.700912],[-35.269439,-5.701847],[-35.265536,-5.704049],[-35.276699,-5.721867],[-35.285947,-5.726541],[-35.291067,-5.730946]]]}},{"type":"Feature","id":19,"properties":{"municipio":"São Paulo do Potengi","manancial":"Subterrâneo","tipo_sistema":"Integrado","situacao_tratamento":"0 - 60%","fonte":"Atlas Esgoto (2013), SNIS (2021)"},"geometry":{"type":"Polygon","coordinates":[[[-35.786246,-5.85898],[-35.776142,-5.861016],[-35.77379,-5.862971],[-35.767076,-5.864039],[-35.765177,-5.863794],[-35.763208,-5.861881],[-35.752191,-5.866963],[-35.750648,-5.870689],[-35.745068,-5.87116],[-35.742123,-5.872273],[-35.738769,-5.871592],[-35.736227,-5.869068],[-35.732505,-5.869347],[-35.725601,-5.867938],[-35.72141,-5.868698],[-35.719712,-5.862011],[-35.717767,-5.860669],[-35.716221,-5.860647],[-35.713547,-5.862704],[-35.709689,-5.860892],[-35.708234,-5.861963],[-35.703866,-5.861468],[-35.703828,-5.864172],[-35.701498,-5.863804],[-35.700569,-5.865522],[-35.698496,-5.865181],[-35.697358,-5.867916],[-35.694011,-5.868204],[-35.691626,-5.870892],[-35.688452,-5.869546],[-35.683247,-5.86898],[-35.685372,-5.879766],[-35.687452,-5.919096],[-35.674121,-5.974379],[-35.668406,-5.983889],[-35.70924,-6.000551],[-35.778338,-6.015875],[-35.834772,-5.947096],[-35.849818,-5.915366],[-35.842203,-5.914102],[-35.832729,-5.908803],[-35.796818,-5.853289],[-35.794752,-5.853214],[-35.79066,-5.856677],[-35.786246,-5.85898]]]}},{"type":"Feature","id":20,"properties":{"municipio":"São Pedro","manancial":"Subterrâneo","tipo_sistema":"Integrado","situacao_tratamento":"Sem Tratamento","fonte":"Atlas Esgoto (2013), SNIS (2021)"},"geometry":{"type":"Polygon","coordinates":[[[-35.63877,-5.79005],[-35.635441,-5.803541],[-35.594526,-5.867485],[-35.591453,-5.868878],[-35.52901,-5.881809],[-35.572227,-5.932308],[-35.650193,-5.976435],[-35.668406,-5.983889],[-35.674121,-5.974379],[-35.687452,-5.919096],[-35.685372,-5.879766],[-35.667917,-5.79431],[-35.663803,-5.795008],[-35.663086,-5.796825],[-35.662363,-5.79683],[-35.65205,-5.792177],[-35.649219,-5.792355],[-35.646726,-5.791414],[-35.645104,-5.793055],[-35.640063,-5.789041],[-35.63877,-5.79005]]]}},{"type":"Feature","id":21,"properties":{"municipio":"São Tomé","manancial":"Subterrâneo","tipo_sistema":"Integrado","situacao_tratamento":"60,01 - 80%","fonte":"Atlas Esgoto (2013), SNIS (2021)"},"geometry":{"type":"Polygon","coordinates":[[[-36.09072,-5.838328],[-36.087568,-5.838883],[-36.086702,-5.840748],[-36.085363,-5.841313],[-36.079494,-5.840035],[-36.07493,-5.844634],[-36.06545,-5.849515],[-36.065176,-5.850708],[-36.06782,-5.856017],[-36.065188,-5.858755],[-36.063799,-5.858747],[-36.049577,-5.85104],[-36.044629,-5.847123],[-36.039139,-5.844962],[-36.026955,-5.835503],[-36.013925,-5.835226],[-35.966676,-5.901299],[-35.962703,-5.963833],[-35.96424,-5.967948],[-35.96837,-5.969051],[-35.968496,-5.971417],[-35.970831,-5.971612],[-35.972442,-5.975535],[-35.977203,-5.979663],[-35.977194,-5.983794],[-35.97848,-5.985859],[-35.977966,-5.989159],[-35.98106,-5.991059],[-35.982363,-5.995509],[-35.98418,-5.997985],[-35.979287,-6.00224],[-35.97891,-6.008023],[-35.976891,-6.010311],[-35.976831,-6.014399],[-35.978084,-6.016873],[-35.980965,-6.017969],[-35.984033,-6.022314],[-35.988487,-6.025111],[-35.988439,-6.02815],[-35.990666,-6.033028],[-35.994461,-6.034772],[-35.997946,-6.03766],[-36.000592,-6.03792],[-36.005647,-6.041474],[-36.007662,-6.047309],[-36.01119,-6.049192],[-36.031832,-6.069389],[-36.045157,-6.080027],[-36.048813,-6.084717],[-36.060978,-6.089065],[-36.065829,-6.093791],[-36.069276,-6.098608],[-36.071872,-6.100432],[-36.080352,-6.102013],[-36.084857,-6.099021],[-36.086071,-6.096686],[-36.087539,-6.096945],[-36.090264,-6.099302],[-36.107064,-6.098612],[-36.108997,-6.099373],[-36.11408,-6.104085],[-36.116381,-6.104431],[-36.117692,-6.102889],[-36.116376,-6.093256],[-36.117152,-6.091721],[-36.121071,-6.088851],[-36.128644,-6.090245],[-36.131507,-6.09173],[-36.134927,-6.095025],[-36.14456,-6.09794],[-36.14997,-6.103774],[-36.152865,-6.105729],[-36.155698,-6.106379],[-36.159273,-6.105485],[-36.162906,-6.106472],[-36.165291,-6.109282],[-36.166506,-6.113063],[-36.172687,-6.117828],[-36.173767,-6.121741],[-36.181688,-6.12541],[-36.18887,-6.126882],[-36.192177,-6.129182],[-36.200162,-6.129607],[-36.203042,-6.13057],[-36.208298,-6.132901],[-36.215088,-6.138687],[-36.223381,-6.140467],[-36.225174,-6.143352],[-36.225348,-6.151418],[-36.228165,-6.156264],[-36.227929,-6.160403],[-36.226199,-6.164124],[-36.233951,-6.164803],[-36.256849,-6.158015],[-36.302217,-6.115372],[-36.281357,-6.044042],[-36.252894,-5.982007],[-36.224179,-5.899953],[-36.212879,-5.873726],[-36.196819,-5.883117],[-36.191332,-5.8689],[-36.185756,-5.858165],[-36.180022,-5.853469],[-36.16798,-5.855936],[-36.159083,-5.850252],[-36.156371,-5.849526],[-36.153386,-5.851325],[-36.150938,-5.858734],[-36.149852,-5.859279],[-36.141843,-5.857099],[-36.139895,-5.858645],[-36.138578,-5.863241],[-36.136117,-5.863939],[-36.129693,-5.860072],[-36.117839,-5.859051],[-36.115987,-5.854634],[-36.113778,-5.843668],[-36.110644,-5.83869],[-36.107023,-5.836388],[-36.104535,-5.832377],[-36.101768,-5.83008],[-36.099579,-5.829911],[-36.092992,-5.833149],[-36.09072,-5.838328]]]}},{"type":"Feature","id":22,"properties":{"municipio":"Senador Elói de Souza","manancial":"Subterrâneo","tipo_sistema":"Integrado","situacao_tratamento":"Sem Tratamento","fonte":"Atlas Esgoto (2013), SNIS (2021)"},"geometry":{"type":"Polygon","coordinates":[[[-35.647483,-6.016038],[-35.570779,-6.079545],[-35.573582,-6.080387],[-35.579252,-6.087618],[-35.585169,-6.092337],[-35.588872,-6.096799],[-35.604594,-6.091962],[-35.686382,-6.073102],[-35.700822,-6.071726],[-35.721666,-6.07441],[-35.74592,-6.062183],[-35.781667,-6.040669],[-35.798691,-6.042577],[-35.778338,-6.015875],[-35.70924,-6.000551],[-35.650193,-5.976435],[-35.647483,-6.016038]]]}},{"type":"Feature","id":23,"properties":{"municipio":"Sítio Novo","manancial":"Subterrâneo","tipo_sistema":"Integrado","situacao_tratamento":"Sem Tratamento","fonte":"Atlas Esgoto (2013), SNIS (2021)"},"geometry":{"type":"Polygon","coordinates":[[[-35.924804,-6.010633],[-35.822527,-6.073176],[-35.918207,-6.16279],[-35.928373,-6.164412],[-35.930606,-6.168134],[-35.939079,-6.165693],[-35.94926,-6.170154],[-35.9586,-6.170178],[-35.964603,-6.1716],[-35.967702,-6.171429],[-35.967707,-6.157418],[-35.966233,-6.156181],[-35.960884,-6.155618],[-35.959576,-6.155014],[-35.959407,-6.153866],[-35.962416,-6.152389],[-35.961701,-6.148571],[-35.96227,-6.147878],[-35.963327,-6.147564],[-35.965334,-6.149008],[-35.969077,-6.147305],[-35.97144,-6.149624],[-35.976182,-6.148872],[-35.97984,-6.146556],[-35.98233,-6.148746],[-35.98656,-6.145216],[-35.986996,-6.142915],[-35.982831,-6.13444],[-35.980939,-6.124268],[-35.982965,-6.114608],[-35.986209,-6.111145],[-35.987614,-6.107155],[-35.986462,-6.09828],[-35.99061,-6.095731],[-35.998021,-6.086579],[-36.000979,-6.086662],[-36.005716,-6.088677],[-36.013783,-6.082284],[-36.019328,-6.076632],[-36.024736,-6.073652],[-36.028412,-6.069386],[-36.031832,-6.069389],[-35.924804,-6.010633]]]}},{"type":"Feature","id":24,"properties":{"municipio":"Tangará","manancial":"Subterrâneo","tipo_sistema":"Integrado","situacao_tratamento":"Sem Tratamento","fonte":"Atlas Esgoto (2013), SNIS (2021)"},"geometry":{"type":"Polygon","coordinates":[[[-35.73225,-6.142491],[-35.72138,-6.173136],[-35.740645,-6.182675],[-35.741011,-6.184414],[-35.746464,-6.18535],[-35.750236,-6.189815],[-35.7562,-6.190191],[-35.75658,-6.19482],[-35.759582,-6.197758],[-35.760759,-6.201284],[-35.763366,-6.201566],[-35.765055,-6.19952],[-35.765439,-6.197442],[-35.768039,-6.196539],[-35.769207,-6.201018],[-35.766379,-6.210413],[-35.770066,-6.214649],[-35.772037,-6.221124],[-35.777574,-6.223242],[-35.780769,-6.222374],[-35.783602,-6.223171],[-35.790519,-6.229806],[-35.790857,-6.234104],[-35.78889,-6.235226],[-35.787439,-6.23742],[-35.785935,-6.24369],[-35.782947,-6.246522],[-35.782718,-6.247782],[-35.78428,-6.252036],[-35.785864,-6.25277],[-35.785198,-6.253847],[-35.786556,-6.256657],[-35.784828,-6.258518],[-35.786073,-6.262699],[-35.784474,-6.26608],[-35.786453,-6.267032],[-35.787099,-6.26977],[-35.793605,-6.27559],[-35.799483,-6.277737],[-35.798746,-6.279287],[-35.794055,-6.282543],[-35.793317,-6.284543],[-35.79641,-6.293631],[-35.795928,-6.300153],[-35.799358,-6.307949],[-35.801441,-6.310632],[-35.80407,-6.31897],[-35.820458,-6.33386],[-35.827776,-6.338617],[-35.826475,-6.342235],[-35.830159,-6.343722],[-35.833234,-6.349364],[-35.841605,-6.357561],[-35.849915,-6.362247],[-35.857246,-6.360685],[-35.861295,-6.362172],[-35.870546,-6.362782],[-35.917527,-6.162672],[-35.918207,-6.16279],[-35.82321,-6.074363],[-35.8258,-6.078865],[-35.820757,-6.129362],[-35.808246,-6.139658],[-35.73225,-6.142491]]]}},{"type":"Feature","id":25,"properties":{"municipio":"Vera Cruz","manancial":"Subterrâneo","tipo_sistema":"Isolado","situacao_tratamento":"Sem Tratamento","fonte":"Atlas Esgoto (2013), SNIS (2021)"},"geometry":{"type":"Polygon","coordinates":[[[-35.371804,-6.042253],[-35.369088,-6.053555],[-35.365137,-6.055534],[-35.366332,-6.058837],[-35.367891,-6.058517],[-35.379458,-6.060891],[-35.387179,-6.058667],[-35.388956,-6.054435],[-35.391287,-6.051842],[-35.39917,-6.051105],[-35.403161,-6.05273],[-35.411598,-6.053787],[-35.414871,-6.052364],[-35.420239,-6.047882],[-35.426796,-6.046217],[-35.429392,-6.05048],[-35.432208,-6.065462],[-35.442637,-6.061903],[-35.443177,-6.067732],[-35.444353,-6.070386],[-35.451286,-6.077401],[-35.456557,-6.07845],[-35.476076,-6.07195],[-35.47835,-6.072667],[-35.483781,-6.072315],[-35.492636,-6.074529],[-35.491633,-6.069642],[-35.488385,-6.062949],[-35.491405,-6.060757],[-35.495383,-6.060894],[-35.498635,-6.058548],[-35.500235,-6.05518],[-35.508679,-6.053336],[-35.50873,-6.05135],[-35.512568,-6.051108],[-35.516741,-6.053081],[-35.521404,-6.053713],[-35.537329,-6.05272],[-35.545389,-6.055633],[-35.546735,-6.053955],[-35.37344,-5.987376],[-35.3714,-5.988001],[-35.370284,-6.005266],[-35.374219,-6.012998],[-35.382233,-6.017915],[-35.382122,-6.021771],[-35.371857,-6.03355],[-35.369122,-6.038964],[-35.372914,-6.040965],[-35.371804,-6.042253]]]}}]}