{"type":"FeatureCollection","features":[{"type":"Feature","id":1,"properties":{"area_atuacao":"Nascentes do Potengi — Cerro Corá","acao":"Trilha de acesso à nascente","fonte":"Acervo geoespacial do Projeto Potengi"},"geometry":{"type":"LineString","coordinates":[[-36.392343,-6.045715],[-36.392462,-6.045672],[-36.392557,-6.045624],[-36.392611,-6.04557],[-36.392681,-6.045408],[-36.392663,-6.045306],[-36.392662,-6.045139],[-36.392631,-6.045038],[-36.392618,-6.044775],[-36.392563,-6.044614],[-36.392413,-6.044454],[-36.392359,-6.044412],[-36.392275,-6.044371],[-36.39215,-6.04439],[-36.391924,-6.044481],[-36.39184,-6.044541],[-36.391632,-6.04462],[-36.391537,-6.044632],[-36.391447,-6.044633],[-36.391197,-6.044682],[-36.391125,-6.044713],[-36.391,-6.044737],[-36.390917,-6.044738],[-36.390822,-6.04487],[-36.390805,-6.044954],[-36.390704,-6.045056],[-36.390626,-6.045074],[-36.390585,-6.045051],[-36.390531,-6.045093],[-36.390466,-6.045123],[-36.390371,-6.045096],[-36.39031,-6.045034]]}},{"type":"Feature","id":2,"properties":{"area_atuacao":"Nascentes do Potengi — Cerro Corá","acao":"Trilha de acesso à nascente","fonte":"Acervo geoespacial do Projeto Potengi"},"geometry":{"type":"LineString","coordinates":[[-36.390917,-6.044738],[-36.390827,-6.044667],[-36.390683,-6.044626],[-36.390474,-6.04452]]}}]}