{"type":"FeatureCollection","name":"areas_recuperacao_resultados","features":[{"type":"Feature","id":"nascentes-potengi","properties":{"kind":"recovery-area","area_id":"nascentes-potengi","name":"Nascentes do Potengi","municipality":"Cerro Corá","hectares":2.28,"source_layer":"CercaNascente","geometry_note":"Área de intervenção disponível no acervo; hectares exibidos são valores consolidados do projeto."},"geometry":{"type":"MultiPolygon","coordinates":[[[[-36.39023649298634,-6.045589772391528],[-36.390348810199384,-6.045576116334433],[-36.390402802540905,-6.045558840857574],[-36.39050221065348,-6.045504752933219],[-36.39055734897788,-6.045456872914509],[-36.389839011611635,-6.0453461783039435],[-36.38988949844879,-6.045424273534149],[-36.38992810188666,-6.045465823823651],[-36.39001931579821,-6.045532837408655],[-36.39012431193157,-6.045575037463225],[-36.39023649298634,-6.045589772391528]]],[[[-36.389768903070504,-6.044662027656175],[-36.38980051914207,-6.044762657477086],[-36.38977881775754,-6.044835854960827],[-36.3897714435903,-6.044892116286827],[-36.389778005668305,-6.045005188801968],[-36.38979383675298,-6.045065341085854],[-36.3897880528677,-6.0451641359053],[-36.38980871982813,-6.045275493490308],[-36.38983106049631,-6.045326595061025],[-36.390570782309155,-6.045441210060355],[-36.39061859609937,-6.045381870188424],[-36.3906672606651,-6.045279619176843],[-36.390688994623915,-6.045168465268563],[-36.39068243236431,-6.045055392682694],[-36.39070928874025,-6.045034636201165],[-36.390775213224785,-6.0449462693390155],[-36.39077240792754,-6.044909800475145],[-36.39085235889813,-6.044791977992271],[-36.39089814785209,-6.044611414947747],[-36.39089490827671,-6.044562298982407],[-36.39100030410059,-6.044521109785206],[-36.39104830838213,-6.044490935270473],[-36.39113115633345,-6.0444137982572785],[-36.39119223871351,-6.044318459170908],[-36.39122771749218,-6.044210908527214],[-36.39123536341689,-6.044097904139754],[-36.39121469608191,-6.043986546498352],[-36.39119408274874,-6.043933688005792],[-36.391133917058454,-6.04383776658052],[-36.391095313553684,-6.043796216384877],[-36.39105181239811,-6.043759837300246],[-36.39095292771201,-6.0437047967392425],[-36.39084347628589,-6.04367610328735],[-36.39073033534384,-6.043675559849102],[-36.39062061393047,-6.043703200563147],[-36.39056921043105,-6.043727114168647],[-36.39052120622687,-6.043757288659389],[-36.39043835836907,-6.043834425586817],[-36.39037616064433,-6.043876470872485],[-36.39027939666778,-6.043895506408728],[-36.3901969093435,-6.043931991186882],[-36.39012393978743,-6.0439748211436735],[-36.38994310219193,-6.04411124248766],[-36.38984633821537,-6.044206420169482],[-36.38983523415238,-6.044220696821829],[-36.389828450037335,-6.044252659754217],[-36.389895595400375,-6.044241979393452],[-36.38982983933,-6.044254284357597],[-36.38980519416249,-6.044385143390085],[-36.389769715116145,-6.0444926938140044],[-36.389762340967884,-6.044548955142332],[-36.389768903070504,-6.044662027656175]]]]}},{"type":"Feature","id":"acude-eloy","properties":{"kind":"recovery-area","area_id":"acude-eloy","name":"APP do Açude Eloy de Souza","municipality":"Cerro Corá","hectares":3.11,"source_layer":"Área de Plantio","geometry_note":"Área de intervenção disponível no acervo; hectares exibidos são valores consolidados do projeto."},"geometry":{"type":"Polygon","coordinates":[[[-36.35153045373224,-6.043245357719982],[-36.35146188716444,-6.04320007282895],[-36.35138079404187,-6.0431767239672105],[-36.35094166676194,-6.043169076210069],[-36.35073823266338,-6.04313065472031],[-36.35038631989984,-6.043031335972919],[-36.35025316509109,-6.042984701555732],[-36.350150877212045,-6.042956228740288],[-36.349997185196145,-6.0429294431952725],[-36.34982281319724,-6.042920722775641],[-36.3497325768614,-6.04292337045102],[-36.349660779824546,-6.04291251403224],[-36.349201223017296,-6.0427247288733446],[-36.34910501029622,-6.042635419807963],[-36.3490140409846,-6.042446403933462],[-36.34875168867967,-6.042086289131337],[-36.3486132584788,-6.041846545556829],[-36.34837932950132,-6.041198193241762],[-36.348351455908094,-6.0410683556879174],[-36.34827495509069,-6.040958801116402],[-36.348215742039756,-6.040923263137038],[-36.34814466639976,-6.04090282678495],[-36.347981151063685,-6.040785332432901],[-36.347854807730144,-6.040652778904983],[-36.34780841639961,-6.040561308538701],[-36.34776020510982,-6.040406766942545],[-36.347655622028604,-6.0401679848724665],[-36.34760003452637,-6.040072084705135],[-36.34748792529308,-6.039920395765686],[-36.347427891444184,-6.039876808743761],[-36.34731920206707,-6.040061795894504],[-36.34770991906353,-6.040613528424332],[-36.34750847615434,-6.040809751871023],[-36.34765093268028,-6.040919268270649],[-36.3477302623172,-6.041010535655018],[-36.347879905873285,-6.04112430872156],[-36.34798620738443,-6.04117670012859],[-36.34805217208139,-6.041190630464671],[-36.34810226025069,-6.0411845869737855],[-36.348139565344965,-6.041195826563662],[-36.34819284396541,-6.041242809966248],[-36.348193364223675,-6.041327394528006],[-36.34823669753915,-6.041387342438189],[-36.348272605822075,-6.041404325383425],[-36.348255711643624,-6.041451741322447],[-36.348291157876844,-6.041626433104656],[-36.34828585277958,-6.041695282968444],[-36.34842388991212,-6.0417847545245715],[-36.34852085482214,-6.041949031144868],[-36.348668207916944,-6.042156007748579],[-36.34872146023242,-6.042198690113103],[-36.34881278515656,-6.042377338266782],[-36.34884309743717,-6.0424158609845575],[-36.34890049612925,-6.0424341450128765],[-36.34893387551763,-6.042505623674437],[-36.348940212621535,-6.042604509197448],[-36.348985101775845,-6.042684519007882],[-36.34910119898506,-6.042699573629042],[-36.34912423611124,-6.042719503211524],[-36.34913324337642,-6.042786831073084],[-36.34921062093677,-6.0427935223111255],[-36.349255598380346,-6.042887868417995],[-36.34930005527278,-6.042897630051887],[-36.34931355299097,-6.042996471365887],[-36.34937256031685,-6.043043419164621],[-36.34940434007947,-6.043087667513678],[-36.34948027674157,-6.043092933886137],[-36.34952492777775,-6.043134235450819],[-36.34966039497341,-6.0430387763718585],[-36.34978344091339,-6.043019379404246],[-36.349929399212854,-6.043012337927793],[-36.350064150234466,-6.043020515111767],[-36.350136117091054,-6.043078852344883],[-36.35015113859781,-6.0429612355003846],[-36.35030718998115,-6.043009098171408],[-36.350328336243564,-6.043129279204957],[-36.3505173910856,-6.043130980123775],[-36.35081056701659,-6.043218537615283],[-36.35090637872213,-6.04327290437965],[-36.35096632173863,-6.0433167398164045],[-36.35101212033519,-6.0433893362673565],[-36.351071908870374,-6.043408083115487],[-36.351118775831715,-6.043460362390339],[-36.35124797382379,-6.043509744050437],[-36.35128253875259,-6.043502362287721],[-36.351308896921864,-6.043518925948731],[-36.351296004792864,-6.043557237156767],[-36.35142543091103,-6.0436436542397995],[-36.35150044141497,-6.043769833522652],[-36.351630787713745,-6.043920806797429],[-36.351743080050646,-6.044065701984262],[-36.35204199462446,-6.043888664364484],[-36.35158466213712,-6.043296310985177],[-36.35153045373224,-6.043245357719982]]]}},{"type":"Feature","id":"mundo-novo","properties":{"kind":"recovery-area","area_id":"mundo-novo","name":"Fazenda Mundo Novo","municipality":"São Tomé","hectares":5.05,"source_layer":"Nascente Novacerca + Aluviaomundonovo","geometry_note":"Área de intervenção disponível no acervo; hectares exibidos são valores consolidados do projeto."},"geometry":{"type":"Polygon","coordinates":[[[-36.18154334603477,-5.925247952263672],[-36.18016340665948,-5.925668506924408],[-36.1806552300931,-5.925750035674214],[-36.181009979312314,-5.926128259826547],[-36.18116712253061,-5.926258785032136],[-36.181312465705304,-5.92634056302891],[-36.1814565820456,-5.926671502470019],[-36.18171051745677,-5.92747801791243],[-36.18236884165581,-5.927372857963697],[-36.18215248812949,-5.926567969558724],[-36.18154334603477,-5.925247952263672]]]}},{"type":"Feature","id":"eaj","properties":{"kind":"recovery-area","area_id":"eaj","name":"Açude do Bêbado / Escola Agrícola de Jundiaí","municipality":"Macaíba","hectares":5.81,"source_layer":"RecuperaçãoEAJ (Area1 + Area2)","geometry_note":"Área de intervenção disponível no acervo; hectares exibidos são valores consolidados do projeto."},"geometry":{"type":"MultiPolygon","coordinates":[[[[-35.35923478741412,-5.888328592086303],[-35.357145661797254,-5.887232107627867],[-35.35711273613946,-5.887324798828855],[-35.35714689278281,-5.887439088855602],[-35.357252388244156,-5.88756491527809],[-35.35742008657209,-5.887710701679976],[-35.357629834710025,-5.887845766550085],[-35.35764590115963,-5.887867501721491],[-35.357647707972106,-5.887947083102217],[-35.35754893057767,-5.8880551194191835],[-35.35729738611258,-5.888211153960862],[-35.357117623043194,-5.888313793067463],[-35.35692436843771,-5.888445307061084],[-35.35674928403069,-5.8885530880292265],[-35.35655282561522,-5.888632838984372],[-35.35629271854105,-5.888849987440421],[-35.356098323408844,-5.889023468464046],[-35.35600116847958,-5.889094822369891],[-35.35627152730726,-5.889033607309363],[-35.35738610801366,-5.888961692336598],[-35.357741814897146,-5.888926706405381],[-35.357878295205566,-5.88889599585999],[-35.35810699452872,-5.888863645537807],[-35.358400703115954,-5.8888607826037465],[-35.35859801012843,-5.888869035479275],[-35.358744456913804,-5.888680706212418],[-35.358851338614194,-5.888597268105949],[-35.359072149935,-5.888459299444409],[-35.35923478741412,-5.888328592086303]]],[[[-35.35708348858418,-5.8872049291400534],[-35.35683575115477,-5.887055614897914],[-35.35670588331739,-5.886987302348247],[-35.35609055451017,-5.8866713763768885],[-35.355823725327355,-5.886544126686539],[-35.35583515585177,-5.886607095118173],[-35.35583607610031,-5.886651366345687],[-35.35582209890549,-5.886724932972296],[-35.35560585159207,-5.887109862708698],[-35.356506489673684,-5.888496179646747],[-35.35657948140558,-5.888579438919875],[-35.35680476403177,-5.888473776936613],[-35.35710112763268,-5.888275769623951],[-35.35749565589228,-5.888045471521468],[-35.35753753961049,-5.888009899838244],[-35.35755795943852,-5.887981593500142],[-35.35756976748607,-5.887949975450074],[-35.357553784572886,-5.887875102260714],[-35.357541756914806,-5.887850338525096],[-35.357512106093616,-5.887823430288646],[-35.35744987891801,-5.8877883747351465],[-35.35738516608615,-5.887760448229146],[-35.357318846870335,-5.88770057875029],[-35.35713471026454,-5.887494995810517],[-35.35708663010543,-5.8874203922114265],[-35.35706799939754,-5.887344421196286],[-35.35708348858418,-5.8872049291400534]]]]}}]}