{"type":"FeatureCollection","features":[{"type":"Feature","geometry":{"type":"Point","coordinates":[-35.511999999999944,-5.880000000192495,0]},"properties":{"OBJECTID_1":5,"Name":"P1","OBJECTID":0,"Argila":8.99,"Areia":83.03,"Silte":7.99,"Textura":"Areia franca","Pejon":1,"Geotec":"Areia"}},{"type":"Feature","geometry":{"type":"Point","coordinates":[-35.51399999999995,-5.887000000192727,0]},"properties":{"OBJECTID_1":6,"Name":"P2","OBJECTID":0,"Argila":19.75,"Areia":70.28,"Silte":9.97,"Textura":"Franco arenoso","Pejon":1,"Geotec":"Areia"}},{"type":"Feature","geometry":{"type":"Point","coordinates":[-35.51399999999995,-5.878000000192427,0]},"properties":{"OBJECTID_1":7,"Name":"P3","OBJECTID":0,"Argila":7.27,"Areia":87.9,"Silte":4.83,"Textura":"Areia franca","Pejon":1,"Geotec":"Areia"}},{"type":"Feature","geometry":{"type":"Point","coordinates":[-35.51799999999997,-5.859000000191857,0]},"properties":{"OBJECTID_1":8,"Name":"P4","OBJECTID":0,"Argila":5.86,"Areia":85.16,"Silte":8.98,"Textura":"Areia franca","Pejon":1,"Geotec":"Areia"}},{"type":"Feature","geometry":{"type":"Point","coordinates":[-35.523999999999944,-5.843000000191329,0]},"properties":{"OBJECTID_1":9,"Name":"P5","OBJECTID":0,"Argila":54.12,"Areia":21.68,"Silte":24.2,"Textura":"Argila","Pejon":4,"Geotec":"Argila-Silto-Arenosa"}},{"type":"Feature","geometry":{"type":"Point","coordinates":[-35.52999999999997,-5.834000000191021,0]},"properties":{"OBJECTID_1":10,"Name":"P6","OBJECTID":0,"Argila":15.08,"Areia":64.63,"Silte":20.29,"Textura":"Franco arenoso","Pejon":1,"Geotec":"Areia-Siltosa"}},{"type":"Feature","geometry":{"type":"Point","coordinates":[-35.529999999999966,-5.831000000190932,0]},"properties":{"OBJECTID_1":11,"Name":"P7","OBJECTID":0,"Argila":1.91,"Areia":92.96,"Silte":5.13,"Textura":"Areia","Pejon":1,"Geotec":"Areia"}},{"type":"Feature","geometry":{"type":"Point","coordinates":[-35.53299999999996,-5.83100000019094,0]},"properties":{"OBJECTID_1":12,"Name":"P8","OBJECTID":0,"Argila":2.21,"Areia":92.55,"Silte":5.25,"Textura":"Areia","Pejon":1,"Geotec":"Areia"}},{"type":"Feature","geometry":{"type":"Point","coordinates":[-35.56299999999993,-5.868000000192106,0]},"properties":{"OBJECTID_1":13,"Name":"P9","OBJECTID":0,"Argila":12.19,"Areia":72.89,"Silte":14.93,"Textura":"Franco arenoso","Pejon":1,"Geotec":"Areia"}},{"type":"Feature","geometry":{"type":"Point","coordinates":[-35.64199999999994,-5.850000000191557,0]},"properties":{"OBJECTID_1":14,"Name":"P10","OBJECTID":0,"Argila":8.85,"Areia":84,"Silte":7.15,"Textura":"Areia franca","Pejon":1,"Geotec":"Areia"}},{"type":"Feature","geometry":{"type":"Point","coordinates":[-35.71399999999995,-5.837000000191103,0]},"properties":{"OBJECTID_1":15,"Name":"P11","OBJECTID":0,"Argila":13.8,"Areia":72.77,"Silte":13.44,"Textura":"Franco arenoso","Pejon":1,"Geotec":"Areia"}},{"type":"Feature","geometry":{"type":"Point","coordinates":[-35.767999999999965,-5.825000000190718,0]},"properties":{"OBJECTID_1":16,"Name":"P12","OBJECTID":0,"Argila":8.44,"Areia":78.22,"Silte":13.34,"Textura":"Franco arenoso","Pejon":1,"Geotec":"Areia"}},{"type":"Feature","geometry":{"type":"Point","coordinates":[-35.76799999999997,-5.796000000189781,0]},"properties":{"OBJECTID_1":17,"Name":"P13","OBJECTID":0,"Argila":7.65,"Areia":80.36,"Silte":11.99,"Textura":"Areia franca","Pejon":1,"Geotec":"Areia"}},{"type":"Feature","geometry":{"type":"Point","coordinates":[-35.82899999999995,-5.793000000189699,0]},"properties":{"OBJECTID_1":18,"Name":"P14","OBJECTID":0,"Argila":6.72,"Areia":32.64,"Silte":60.64,"Textura":"Franco siltoso","Pejon":3,"Geotec":"Silte-Arenosa"}},{"type":"Feature","geometry":{"type":"Point","coordinates":[-35.757999999999974,-5.886000000192717,0]},"properties":{"OBJECTID_1":19,"Name":"P15","OBJECTID":0,"Argila":11.17,"Areia":73.6,"Silte":15.22,"Textura":"Franco arenoso","Pejon":1,"Geotec":"Areia"}},{"type":"Feature","geometry":{"type":"Point","coordinates":[-35.75399999999998,-5.911000000193505,0]},"properties":{"OBJECTID_1":20,"Name":"P16","OBJECTID":0,"Argila":5.81,"Areia":87.26,"Silte":6.93,"Textura":"Areia franca","Pejon":1,"Geotec":"Areia"}},{"type":"Feature","geometry":{"type":"Point","coordinates":[-35.724999999999966,-5.94600000019466,0]},"properties":{"OBJECTID_1":21,"Name":"P17","OBJECTID":0,"Argila":6.91,"Areia":50.91,"Silte":42.18,"Textura":"Franco arenoso","Pejon":3,"Geotec":"Areia-Siltosa"}},{"type":"Feature","geometry":{"type":"Point","coordinates":[-35.472999999999956,-5.903000000193263,0]},"properties":{"OBJECTID_1":22,"Name":"P18","OBJECTID":0,"Argila":0,"Areia":0,"Silte":0,"Textura":"","Pejon":0,"Geotec":""}},{"type":"Feature","geometry":{"type":"Point","coordinates":[-35.710999999999956,-5.9940000001962135,0]},"properties":{"OBJECTID_1":23,"Name":"P18","OBJECTID":0,"Argila":0,"Areia":0,"Silte":0,"Textura":"","Pejon":0,"Geotec":""}},{"type":"Feature","geometry":{"type":"Point","coordinates":[-35.66599999999993,-6.038000000197615,0]},"properties":{"OBJECTID_1":24,"Name":"P19","OBJECTID":0,"Argila":4.71,"Areia":92.62,"Silte":2.67,"Textura":"Areia","Pejon":1,"Geotec":"Areia"}},{"type":"Feature","geometry":{"type":"Point","coordinates":[-35.56499999999994,-5.965000000195276,0]},"properties":{"OBJECTID_1":25,"Name":"P20","OBJECTID":0,"Argila":27.52,"Areia":60.55,"Silte":11.93,"Textura":"Franco argilo arenoso","Pejon":2,"Geotec":"Areia-Argilosa"}},{"type":"Feature","geometry":{"type":"Point","coordinates":[-35.533999999999935,-5.923000000193895,0]},"properties":{"OBJECTID_1":26,"Name":"P21","OBJECTID":0,"Argila":9.76,"Areia":84.71,"Silte":5.53,"Textura":"Areia franca","Pejon":1,"Geotec":"Areia"}},{"type":"Feature","geometry":{"type":"Point","coordinates":[-35.49399999999997,-5.895000000192969,0]},"properties":{"OBJECTID_1":27,"Name":"P22","OBJECTID":0,"Argila":8.31,"Areia":53.08,"Silte":38.61,"Textura":"Franco arenoso","Pejon":3,"Geotec":"Areia-Siltosa"}},{"type":"Feature","geometry":{"type":"Point","coordinates":[-35.440999999999974,-5.8780000001924195,0]},"properties":{"OBJECTID_1":28,"Name":"P23","OBJECTID":0,"Argila":10.1,"Areia":56.79,"Silte":33.12,"Textura":"Franco arenoso","Pejon":3,"Geotec":"Areia-Siltosa"}},{"type":"Feature","geometry":{"type":"Point","coordinates":[-35.377999999999936,-5.8620000001919434,0]},"properties":{"OBJECTID_1":29,"Name":"P24","OBJECTID":0,"Argila":26.83,"Areia":36.44,"Silte":36.73,"Textura":"Franco","Pejon":3,"Geotec":"Silte-Areno-Argilosa"}},{"type":"Feature","geometry":{"type":"Point","coordinates":[-35.36799999999994,-5.823000000190698,0]},"properties":{"OBJECTID_1":30,"Name":"P25","OBJECTID":0,"Argila":24.6,"Areia":41.04,"Silte":34.36,"Textura":"Franco","Pejon":3,"Geotec":"Areia-Siltosa-Argilosa"}},{"type":"Feature","geometry":{"type":"Point","coordinates":[-35.36099999999994,-5.80900000019023,0]},"properties":{"OBJECTID_1":31,"Name":"P26","OBJECTID":0,"Argila":9.18,"Areia":87.19,"Silte":3.63,"Textura":"Areia franca","Pejon":1,"Geotec":"Areia"}},{"type":"Feature","geometry":{"type":"Point","coordinates":[-35.33999999999998,-5.7730000001890645,0]},"properties":{"OBJECTID_1":32,"Name":"P27","OBJECTID":0,"Argila":8.79,"Areia":54.98,"Silte":36.23,"Textura":"Franco arenoso","Pejon":3,"Geotec":"Areia-Siltosa"}},{"type":"Feature","geometry":{"type":"Point","coordinates":[-35.287999999999954,-5.765000000188777,0]},"properties":{"OBJECTID_1":33,"Name":"P28","OBJECTID":0,"Argila":12.01,"Areia":83.98,"Silte":4.01,"Textura":"Areia franca","Pejon":1,"Geotec":"Areia"}},{"type":"Feature","geometry":{"type":"Point","coordinates":[-35.21199999999993,-5.748000000188233,0]},"properties":{"OBJECTID_1":34,"Name":"P29","OBJECTID":0,"Argila":1.58,"Areia":97.84,"Silte":0.58,"Textura":"Areia","Pejon":1,"Geotec":"Areia"}},{"type":"Feature","geometry":{"type":"Point","coordinates":[-35.19799999999998,-5.7570000001885315,0]},"properties":{"OBJECTID_1":35,"Name":"P30","OBJECTID":0,"Argila":0,"Areia":0,"Silte":0,"Textura":"","Pejon":0,"Geotec":""}},{"type":"Feature","geometry":{"type":"Point","coordinates":[-35.357109468999965,-5.900728570193188,0]},"properties":{"OBJECTID_1":37,"Name":"P31","OBJECTID":1,"Argila":9.8,"Areia":86.75,"Silte":3.46,"Textura":"Areia franca","Pejon":1,"Geotec":"Areia"}},{"type":"Feature","geometry":{"type":"Point","coordinates":[-35.36659725399994,-5.891489124192903,0]},"properties":{"OBJECTID_1":38,"Name":"P32","OBJECTID":2,"Argila":54.42,"Areia":39,"Silte":6.58,"Textura":"Argila","Pejon":4,"Geotec":"Argila-Arenosa"}},{"type":"Feature","geometry":{"type":"Point","coordinates":[-35.35934670499996,-5.897139807193087,0]},"properties":{"OBJECTID_1":39,"Name":"P33","OBJECTID":3,"Argila":5.38,"Areia":89.86,"Silte":4.77,"Textura":"Areia","Pejon":1,"Geotec":"Areia"}},{"type":"Feature","geometry":{"type":"Point","coordinates":[-36.38898228499994,-6.043803395197783,0]},"properties":{"OBJECTID_1":40,"Name":"P34","OBJECTID":4,"Argila":4.84,"Areia":58.58,"Silte":36.59,"Textura":"Franco arenoso","Pejon":3,"Geotec":"Areia-Siltosa"}},{"type":"Feature","geometry":{"type":"Point","coordinates":[-36.39057493199994,-6.0473233521979335,0]},"properties":{"OBJECTID_1":41,"Name":"P35","OBJECTID":5,"Argila":7.12,"Areia":89.87,"Silte":3.01,"Textura":"Areia","Pejon":1,"Geotec":"Areia"}},{"type":"Feature","geometry":{"type":"Point","coordinates":[-36.39413946899998,-6.052163650198066,0]},"properties":{"OBJECTID_1":42,"Name":"P36","OBJECTID":6,"Argila":15.16,"Areia":78.59,"Silte":6.25,"Textura":"Franco arenoso","Pejon":1,"Geotec":"Areia"}},{"type":"Feature","geometry":{"type":"Point","coordinates":[-36.395496495999964,-6.046056423197839,0]},"properties":{"OBJECTID_1":43,"Name":"P37","OBJECTID":7,"Argila":31.72,"Areia":62.1,"Silte":6.19,"Textura":"Franco argilo arenoso","Pejon":3,"Geotec":"Areia-Argilosa"}},{"type":"Feature","geometry":{"type":"Point","coordinates":[-36.37120539199998,-6.077313801198867,0]},"properties":{"OBJECTID_1":44,"Name":"P38","OBJECTID":8,"Argila":9.67,"Areia":54.08,"Silte":36.25,"Textura":"Franco arenoso","Pejon":3,"Geotec":"Areia-Siltosa"}},{"type":"Feature","geometry":{"type":"Point","coordinates":[-35.76718565299996,-6.17640500820208,0]},"properties":{"OBJECTID_1":45,"Name":"P39","OBJECTID":9,"Argila":9.28,"Areia":81.27,"Silte":9.45,"Textura":"Areia franca","Pejon":1,"Geotec":"Areia"}},{"type":"Feature","geometry":{"type":"Point","coordinates":[-35.697133236999946,-6.093064315199369,0]},"properties":{"OBJECTID_1":46,"Name":"P40","OBJECTID":10,"Argila":3.96,"Areia":83.28,"Silte":12.76,"Textura":"Areia franca","Pejon":1,"Geotec":"Areia"}},{"type":"Feature","geometry":{"type":"Point","coordinates":[-35.588445121999946,-5.915739824193671,0]},"properties":{"OBJECTID_1":47,"Name":"P41","OBJECTID":11,"Argila":20.04,"Areia":60.39,"Silte":19.57,"Textura":"Franco argilo arenoso","Pejon":2,"Geotec":"Areia-Argilosa-Siltosa"}},{"type":"Feature","geometry":{"type":"Point","coordinates":[-35.62228224299997,-5.897134481193078,0]},"properties":{"OBJECTID_1":48,"Name":"P42","OBJECTID":12,"Argila":16.77,"Areia":67,"Silte":16.24,"Textura":"Franco arenoso","Pejon":1,"Geotec":"Areia-Argilosa-Siltosa"}},{"type":"Feature","geometry":{"type":"Point","coordinates":[-35.67710684399998,-5.905191805193328,0]},"properties":{"OBJECTID_1":49,"Name":"P43","OBJECTID":13,"Argila":16.58,"Areia":67.96,"Silte":15.46,"Textura":"Franco arenoso","Pejon":1,"Geotec":"Areia-Argilosa-Siltosa"}},{"type":"Feature","geometry":{"type":"Point","coordinates":[-35.82369093899996,-5.94200870919449,0]},"properties":{"OBJECTID_1":50,"Name":"P44","OBJECTID":14,"Argila":9.37,"Areia":84.82,"Silte":5.82,"Textura":"Areia franca","Pejon":1,"Geotec":"Areia"}},{"type":"Feature","geometry":{"type":"Point","coordinates":[-36.14625927699996,-5.9388877471944195,0]},"properties":{"OBJECTID_1":51,"Name":"P45","OBJECTID":15,"Argila":2.49,"Areia":84.45,"Silte":13.07,"Textura":"Areia franca","Pejon":1,"Geotec":"Areia"}},{"type":"Feature","geometry":{"type":"Point","coordinates":[-36.12239600299995,-5.952025999194821,0]},"properties":{"OBJECTID_1":52,"Name":"P46","OBJECTID":16,"Argila":3.92,"Areia":86.31,"Silte":9.76,"Textura":"Areia franca","Pejon":1,"Geotec":"Areia"}},{"type":"Feature","geometry":{"type":"Point","coordinates":[-36.104007109999934,-5.975865259195581,0]},"properties":{"OBJECTID_1":53,"Name":"P47","OBJECTID":17,"Argila":16.34,"Areia":68.97,"Silte":14.69,"Textura":"Franco arenoso","Pejon":1,"Geotec":"Areia-Argilosa-Siltosa"}},{"type":"Feature","geometry":{"type":"Point","coordinates":[-35.98110480499998,-5.966865217195328,0]},"properties":{"OBJECTID_1":54,"Name":"P48","OBJECTID":18,"Argila":9.06,"Areia":79.51,"Silte":11.43,"Textura":"Areia franca","Pejon":1,"Geotec":"Areia"}},{"type":"Feature","geometry":{"type":"Point","coordinates":[-35.927661187999945,-5.960461685195078,0]},"properties":{"OBJECTID_1":55,"Name":"P49","OBJECTID":19,"Argila":9.01,"Areia":85.48,"Silte":5.51,"Textura":"Areia franca","Pejon":1,"Geotec":"Areia"}},{"type":"Feature","geometry":{"type":"Point","coordinates":[-35.950299908999966,-5.917487679193743,0]},"properties":{"OBJECTID_1":56,"Name":"P50","OBJECTID":20,"Argila":13.46,"Areia":72.43,"Silte":14.11,"Textura":"Franco arenoso","Pejon":1,"Geotec":"Areia"}},{"type":"Feature","geometry":{"type":"Point","coordinates":[-35.94544324099997,-5.8757841481924,0]},"properties":{"OBJECTID_1":57,"Name":"P51","OBJECTID":21,"Argila":4.54,"Areia":83.06,"Silte":12.4,"Textura":"Areia franca","Pejon":1,"Geotec":"Areia"}},{"type":"Feature","geometry":{"type":"Point","coordinates":[-35.947613942999965,-5.8533124431916335,0]},"properties":{"OBJECTID_1":58,"Name":"P52","OBJECTID":22,"Argila":6.31,"Areia":71.15,"Silte":22.54,"Textura":"Franco arenoso","Pejon":1,"Geotec":"Areia-Siltosa"}},{"type":"Feature","geometry":{"type":"Point","coordinates":[-35.95665747499993,-5.832711491190969,0]},"properties":{"OBJECTID_1":59,"Name":"P53","OBJECTID":23,"Argila":2.33,"Areia":54.76,"Silte":42.9,"Textura":"Franco arenoso","Pejon":3,"Geotec":"Areia-Siltosa"}},{"type":"Feature","geometry":{"type":"Point","coordinates":[-35.968875717999936,-5.803492878190016,0]},"properties":{"OBJECTID_1":60,"Name":"P54","OBJECTID":24,"Argila":7.47,"Areia":82.01,"Silte":10.53,"Textura":"Areia franca","Pejon":1,"Geotec":"Areia"}},{"type":"Feature","geometry":{"type":"Point","coordinates":[-35.360851174999944,-5.866166192192093,0]},"properties":{"OBJECTID_1":61,"Name":"P55","OBJECTID":25,"Argila":6.85,"Areia":82.03,"Silte":11.11,"Textura":"","Pejon":0,"Geotec":"Areia"}},{"type":"Feature","geometry":{"type":"Point","coordinates":[-36.01619499999998,-5.975553056195606,0]},"properties":{"OBJECTID_1":62,"Name":"P64","OBJECTID":26,"Argila":9.11,"Areia":71.98,"Silte":18.92,"Textura":"","Pejon":0,"Geotec":"Areia"}},{"type":"Feature","geometry":{"type":"Point","coordinates":[-35.88487755699998,-5.9643058391952435,0]},"properties":{"OBJECTID_1":63,"Name":"P65","OBJECTID":27,"Argila":7.96,"Areia":74.76,"Silte":17.28,"Textura":"","Pejon":0,"Geotec":"Areia"}},{"type":"Feature","geometry":{"type":"Point","coordinates":[-35.84392666699995,-5.951783056194831,0]},"properties":{"OBJECTID_1":64,"Name":"P66","OBJECTID":28,"Argila":5.34,"Areia":90.57,"Silte":4.08,"Textura":"","Pejon":0,"Geotec":"Areia"}},{"type":"Feature","geometry":{"type":"Point","coordinates":[-35.78929166699993,-5.926533056193988,0]},"properties":{"OBJECTID_1":65,"Name":"P67","OBJECTID":29,"Argila":8.26,"Areia":89.56,"Silte":2.21,"Textura":"","Pejon":0,"Geotec":"Areia"}},{"type":"Feature","geometry":{"type":"Point","coordinates":[-35.75741476899998,-5.898454169193089,0]},"properties":{"OBJECTID_1":66,"Name":"P68","OBJECTID":30,"Argila":17.02,"Areia":67.51,"Silte":15.47,"Textura":"","Pejon":0,"Geotec":"Areia"}},{"type":"Feature","geometry":{"type":"Point","coordinates":[-35.76467333299996,-5.863083056191949,0]},"properties":{"OBJECTID_1":67,"Name":"P69","OBJECTID":31,"Argila":10.8,"Areia":74.62,"Silte":14.58,"Textura":"","Pejon":0,"Geotec":"Areia"}},{"type":"Feature","geometry":{"type":"Point","coordinates":[-35.722104999999935,-5.836649722191108,0]},"properties":{"OBJECTID_1":68,"Name":"P70","OBJECTID":32,"Argila":14.3,"Areia":72.51,"Silte":13.18,"Textura":"","Pejon":0,"Geotec":"Areia"}},{"type":"Feature","geometry":{"type":"Point","coordinates":[-35.64876802699996,-5.829502115190897,0]},"properties":{"OBJECTID_1":69,"Name":"P71","OBJECTID":33,"Argila":7.83,"Areia":85.49,"Silte":6.68,"Textura":"","Pejon":0,"Geotec":"Areia"}},{"type":"Feature","geometry":{"type":"Point","coordinates":[-35.55500609999995,-5.806135545190135,0]},"properties":{"OBJECTID_1":70,"Name":"P72","OBJECTID":34,"Argila":7.85,"Areia":69.61,"Silte":22.54,"Textura":"","Pejon":0,"Geotec":"Areia-Siltosa"}},{"type":"Feature","geometry":{"type":"Point","coordinates":[-35.46135972199994,-5.813266667190348,0]},"properties":{"OBJECTID_1":71,"Name":"P73","OBJECTID":35,"Argila":4.62,"Areia":81.6,"Silte":13.79,"Textura":"","Pejon":0,"Geotec":"Areia"}},{"type":"Feature","geometry":{"type":"Point","coordinates":[-35.493048055999964,-5.890623333192851,0]},"properties":{"OBJECTID_1":72,"Name":"P56","OBJECTID":36,"Argila":5.33,"Areia":85.97,"Silte":8.7,"Textura":"","Pejon":0,"Geotec":"Areia"}},{"type":"Feature","geometry":{"type":"Point","coordinates":[-35.45497333299994,-5.815375000190436,0]},"properties":{"OBJECTID_1":73,"Name":"P74","OBJECTID":37,"Argila":6.09,"Areia":86,"Silte":7.9,"Textura":"","Pejon":0,"Geotec":"Areia"}},{"type":"Feature","geometry":{"type":"Point","coordinates":[-35.43652666699995,-5.8165450001904695,0]},"properties":{"OBJECTID_1":74,"Name":"P75","OBJECTID":38,"Argila":4.22,"Areia":83.8,"Silte":11.98,"Textura":"","Pejon":0,"Geotec":"Areia"}},{"type":"Feature","geometry":{"type":"Point","coordinates":[-35.29298444199998,-5.839993364191216,0]},"properties":{"OBJECTID_1":75,"Name":"P76","OBJECTID":39,"Argila":10.1,"Areia":83.73,"Silte":6.18,"Textura":"","Pejon":0,"Geotec":"Areia"}},{"type":"Feature","geometry":{"type":"Point","coordinates":[-35.282000867999955,-5.836633535191138,0]},"properties":{"OBJECTID_1":76,"Name":"P77","OBJECTID":40,"Argila":1.69,"Areia":96.96,"Silte":1.35,"Textura":"","Pejon":0,"Geotec":"Areia"}},{"type":"Feature","geometry":{"type":"Point","coordinates":[-35.27891122199998,-5.828226300190807,0]},"properties":{"OBJECTID_1":77,"Name":"P78","OBJECTID":41,"Argila":7.41,"Areia":87.3,"Silte":5.28,"Textura":"","Pejon":0,"Geotec":"Areia"}},{"type":"Feature","geometry":{"type":"Point","coordinates":[-35.24339059599998,-5.761749029188669,0]},"properties":{"OBJECTID_1":78,"Name":"P79","OBJECTID":42,"Argila":0,"Areia":0,"Silte":0,"Textura":"","Pejon":0,"Geotec":""}},{"type":"Feature","geometry":{"type":"Point","coordinates":[-35.50813999999997,-5.904503333193325,0]},"properties":{"OBJECTID_1":79,"Name":"P57","OBJECTID":43,"Argila":8.94,"Areia":87.42,"Silte":3.64,"Textura":"","Pejon":0,"Geotec":"Areia"}},{"type":"Feature","geometry":{"type":"Point","coordinates":[-35.52782666699995,-5.915931667193654,0]},"properties":{"OBJECTID_1":80,"Name":"P58","OBJECTID":44,"Argila":5.44,"Areia":59.74,"Silte":34.82,"Textura":"","Pejon":0,"Geotec":"Areia-Siltosa"}},{"type":"Feature","geometry":{"type":"Point","coordinates":[-36.08234972199995,-6.093683056199427,0]},"properties":{"OBJECTID_1":81,"Name":"P59","OBJECTID":45,"Argila":11.89,"Areia":74.47,"Silte":13.64,"Textura":"","Pejon":0,"Geotec":"Areia"}},{"type":"Feature","geometry":{"type":"Point","coordinates":[-36.06924499999997,-6.077259722198878,0]},"properties":{"OBJECTID_1":82,"Name":"P60","OBJECTID":46,"Argila":17.93,"Areia":72,"Silte":10.07,"Textura":"","Pejon":0,"Geotec":"Areia"}},{"type":"Feature","geometry":{"type":"Point","coordinates":[-36.05853999999994,-6.061843056198358,0]},"properties":{"OBJECTID_1":83,"Name":"P61","OBJECTID":47,"Argila":9.47,"Areia":73.54,"Silte":16.99,"Textura":"","Pejon":0,"Geotec":"Areia"}},{"type":"Feature","geometry":{"type":"Point","coordinates":[-36.05858166699994,-6.032713333197429,0]},"properties":{"OBJECTID_1":84,"Name":"P62","OBJECTID":48,"Argila":11.97,"Areia":76.61,"Silte":11.42,"Textura":"","Pejon":0,"Geotec":"Areia"}},{"type":"Feature","geometry":{"type":"Point","coordinates":[-36.04776972199994,-5.981798333195817,0]},"properties":{"OBJECTID_1":85,"Name":"P63","OBJECTID":49,"Argila":28,"Areia":47.81,"Silte":24.19,"Textura":"","Pejon":0,"Geotec":"Areia-Argilosa-Siltosa"}},{"type":"Feature","geometry":{"type":"Point","coordinates":[-36.33116327799996,-5.944857160194622,0]},"properties":{"OBJECTID_1":0,"Name":"Coleta 100","OBJECTID":0,"Argila":0,"Areia":0,"Silte":0,"Textura":"","Pejon":0,"Geotec":""}},{"type":"Feature","geometry":{"type":"Point","coordinates":[-36.32282116899995,-5.920140292193781,0]},"properties":{"OBJECTID_1":0,"Name":"Coleta 101","OBJECTID":0,"Argila":0,"Areia":0,"Silte":0,"Textura":"","Pejon":0,"Geotec":""}},{"type":"Feature","geometry":{"type":"Point","coordinates":[-36.30516459199998,-5.903646521193252,0]},"properties":{"OBJECTID_1":0,"Name":"Coleta 102","OBJECTID":0,"Argila":0,"Areia":0,"Silte":0,"Textura":"","Pejon":0,"Geotec":""}},{"type":"Feature","geometry":{"type":"Point","coordinates":[-36.30521427599996,-5.87993429319252,0]},"properties":{"OBJECTID_1":0,"Name":"Coleta 103","OBJECTID":0,"Argila":0,"Areia":0,"Silte":0,"Textura":"","Pejon":0,"Geotec":""}},{"type":"Feature","geometry":{"type":"Point","coordinates":[-36.28240254399998,-5.86733184919207,0]},"properties":{"OBJECTID_1":0,"Name":"Coleta 104","OBJECTID":0,"Argila":0,"Areia":0,"Silte":0,"Textura":"","Pejon":0,"Geotec":""}},{"type":"Feature","geometry":{"type":"Point","coordinates":[-36.28244655199995,-5.842650913191299,0]},"properties":{"OBJECTID_1":0,"Name":"Coleta 105","OBJECTID":0,"Argila":0,"Areia":0,"Silte":0,"Textura":"","Pejon":0,"Geotec":""}},{"type":"Feature","geometry":{"type":"Point","coordinates":[-35.87592708699998,-5.752796451188391,0]},"properties":{"OBJECTID_1":0,"Name":"Coleta 106","OBJECTID":0,"Argila":0,"Areia":0,"Silte":0,"Textura":"","Pejon":0,"Geotec":""}},{"type":"Feature","geometry":{"type":"Point","coordinates":[-35.85235720099996,-5.779803351189268,0]},"properties":{"OBJECTID_1":0,"Name":"Coleta 107","OBJECTID":0,"Argila":0,"Areia":0,"Silte":0,"Textura":"","Pejon":0,"Geotec":""}},{"type":"Feature","geometry":{"type":"Point","coordinates":[-35.80699648899998,-5.822417133190628,0]},"properties":{"OBJECTID_1":0,"Name":"Coleta 108","OBJECTID":0,"Argila":0,"Areia":0,"Silte":0,"Textura":"","Pejon":0,"Geotec":""}},{"type":"Feature","geometry":{"type":"Point","coordinates":[-35.67095655299994,-5.847041676191438,0]},"properties":{"OBJECTID_1":0,"Name":"Coleta 109","OBJECTID":0,"Argila":0,"Areia":0,"Silte":0,"Textura":"","Pejon":0,"Geotec":""}},{"type":"Feature","geometry":{"type":"Point","coordinates":[-35.60021685999993,-5.863995798192006,0]},"properties":{"OBJECTID_1":0,"Name":"Coleta 110","OBJECTID":0,"Argila":0,"Areia":0,"Silte":0,"Textura":"","Pejon":0,"Geotec":""}},{"type":"Feature","geometry":{"type":"Point","coordinates":[-35.56073127099995,-5.935765952194298,0]},"properties":{"OBJECTID_1":0,"Name":"Coleta 80","OBJECTID":0,"Argila":0,"Areia":0,"Silte":0,"Textura":"","Pejon":0,"Geotec":""}},{"type":"Feature","geometry":{"type":"Point","coordinates":[-35.649401803999986,-5.897277282193064,0]},"properties":{"OBJECTID_1":0,"Name":"Coleta 81","OBJECTID":0,"Argila":0,"Areia":0,"Silte":0,"Textura":"","Pejon":0,"Geotec":""}},{"type":"Feature","geometry":{"type":"Point","coordinates":[-35.70018407699996,-5.911485721193541,0]},"properties":{"OBJECTID_1":0,"Name":"Coleta 82","OBJECTID":0,"Argila":0,"Areia":0,"Silte":0,"Textura":"","Pejon":0,"Geotec":""}},{"type":"Feature","geometry":{"type":"Point","coordinates":[-35.72423514899998,-5.916094114193704,0]},"properties":{"OBJECTID_1":0,"Name":"Coleta 83","OBJECTID":0,"Argila":0,"Areia":0,"Silte":0,"Textura":"","Pejon":0,"Geotec":""}},{"type":"Feature","geometry":{"type":"Point","coordinates":[-35.94571196099997,-5.96838841619534,0]},"properties":{"OBJECTID_1":0,"Name":"Coleta 84","OBJECTID":0,"Argila":0,"Areia":0,"Silte":0,"Textura":"","Pejon":0,"Geotec":""}},{"type":"Feature","geometry":{"type":"Point","coordinates":[-36.06836226499996,-5.974869171195587,0]},"properties":{"OBJECTID_1":0,"Name":"Coleta 85","OBJECTID":0,"Argila":0,"Areia":0,"Silte":0,"Textura":"","Pejon":0,"Geotec":""}},{"type":"Feature","geometry":{"type":"Point","coordinates":[-36.13339962999993,-5.970574045195462,0]},"properties":{"OBJECTID_1":0,"Name":"Coleta 86","OBJECTID":0,"Argila":0,"Areia":0,"Silte":0,"Textura":"","Pejon":0,"Geotec":""}},{"type":"Feature","geometry":{"type":"Point","coordinates":[-36.16063229199994,-5.969300317195414,0]},"properties":{"OBJECTID_1":0,"Name":"Coleta 87","OBJECTID":0,"Argila":0,"Areia":0,"Silte":0,"Textura":"","Pejon":0,"Geotec":""}},{"type":"Feature","geometry":{"type":"Point","coordinates":[-36.17875192499997,-5.9814967381958075,0]},"properties":{"OBJECTID_1":0,"Name":"Coleta 88","OBJECTID":0,"Argila":0,"Areia":0,"Silte":0,"Textura":"","Pejon":0,"Geotec":""}},{"type":"Feature","geometry":{"type":"Point","coordinates":[-36.21408988799993,-5.987326893195957,0]},"properties":{"OBJECTID_1":0,"Name":"Coleta 89","OBJECTID":0,"Argila":0,"Areia":0,"Silte":0,"Textura":"","Pejon":0,"Geotec":""}},{"type":"Feature","geometry":{"type":"Point","coordinates":[-36.23778888999993,-6.008703779196684,0]},"properties":{"OBJECTID_1":0,"Name":"Coleta 90","OBJECTID":0,"Argila":0,"Areia":0,"Silte":0,"Textura":"","Pejon":0,"Geotec":""}},{"type":"Feature","geometry":{"type":"Point","coordinates":[-36.256972605999984,-6.0158236391969035,0]},"properties":{"OBJECTID_1":0,"Name":"Coleta 91","OBJECTID":0,"Argila":0,"Areia":0,"Silte":0,"Textura":"","Pejon":0,"Geotec":""}},{"type":"Feature","geometry":{"type":"Point","coordinates":[-36.27646705199993,-6.01292747619681,0]},"properties":{"OBJECTID_1":0,"Name":"Coleta 92","OBJECTID":0,"Argila":0,"Areia":0,"Silte":0,"Textura":"","Pejon":0,"Geotec":""}},{"type":"Feature","geometry":{"type":"Point","coordinates":[-36.30108342099993,-6.01091692819676,0]},"properties":{"OBJECTID_1":0,"Name":"Coleta 93","OBJECTID":0,"Argila":0,"Areia":0,"Silte":0,"Textura":"","Pejon":0,"Geotec":""}},{"type":"Feature","geometry":{"type":"Point","coordinates":[-36.32530286499997,-6.0122355281967845,0]},"properties":{"OBJECTID_1":0,"Name":"Coleta 94","OBJECTID":0,"Argila":0,"Areia":0,"Silte":0,"Textura":"","Pejon":0,"Geotec":""}},{"type":"Feature","geometry":{"type":"Point","coordinates":[-36.34147772199998,-6.0309945591973975,0]},"properties":{"OBJECTID_1":0,"Name":"Coleta 95","OBJECTID":0,"Argila":0,"Areia":0,"Silte":0,"Textura":"","Pejon":0,"Geotec":""}},{"type":"Feature","geometry":{"type":"Point","coordinates":[-36.368799896999974,-6.023184219197148,0]},"properties":{"OBJECTID_1":0,"Name":"Coleta 96","OBJECTID":0,"Argila":0,"Areia":0,"Silte":0,"Textura":"","Pejon":0,"Geotec":""}},{"type":"Feature","geometry":{"type":"Point","coordinates":[-36.350634236999944,-6.0056528301965875,0]},"properties":{"OBJECTID_1":0,"Name":"Coleta 97","OBJECTID":0,"Argila":0,"Areia":0,"Silte":0,"Textura":"","Pejon":0,"Geotec":""}},{"type":"Feature","geometry":{"type":"Point","coordinates":[-36.34799034099996,-5.978240789195657,0]},"properties":{"OBJECTID_1":0,"Name":"Coleta 98","OBJECTID":0,"Argila":0,"Areia":0,"Silte":0,"Textura":"","Pejon":0,"Geotec":""}},{"type":"Feature","geometry":{"type":"Point","coordinates":[-36.338396271999954,-5.961199985195131,0]},"properties":{"OBJECTID_1":0,"Name":"Coleta 99","OBJECTID":0,"Argila":0,"Areia":0,"Silte":0,"Textura":"","Pejon":0,"Geotec":""}}],"fileName":"Coletas_110"}