{"type":"FeatureCollection","features":[{"type":"Feature","geometry":{"bbox":[2656098.0188000016,2798572.5632000007,2697250.1224000016,2814561.7256000005],"type":"MultiPolygon","coordinates":[[[[6.287954134190514,-58.739648737647755],[6.290883201266839,-58.740717136058],[6.289310599192709,-58.74111130997259],[6.287954134190514,-58.739648737647755]]],[[[6.368595767129932,-58.70214783299322],[6.373542358574332,-58.70040401343548],[6.373552557445601,-58.70037049271278],[6.3735423107019775,-58.700129486385066],[6.37404699689961,-58.699810161996645],[6.376228449253215,-58.69904101611497],[6.385461767973388,-58.700700644336266],[6.391641849864233,-58.69912175155339],[6.394674539024879,-58.69796343313694],[6.39502323403011,-58.6982389255697],[6.397879439263576,-58.69714787796949],[6.4008520814673,-58.69345638200974],[6.402440860586942,-58.69202311827463],[6.402263971067561,-58.69190441746706],[6.403195018339901,-58.691064467887884],[6.403270137954988,-58.691052245954495],[6.4033613621444605,-58.69106598698156],[6.404079145967097,-58.691375834119455],[6.404312651727254,-58.69134624001598],[6.405683839746325,-58.691123115748326],[6.406725395153231,-58.69081957042488],[6.407223059914489,-58.69083249689238],[6.407699117404165,-58.69079515603817],[6.409268657828872,-58.690539713622165],[6.409357670972764,-58.690461200849285],[6.408551637611927,-58.69019281398937],[6.412891597588028,-58.68948638864005],[6.42291624620696,-58.69007943227529],[6.428578613817374,-58.69028860348002],[6.4286884220437965,-58.69040672654047],[6.429045247477309,-58.69031682164025],[6.429571482854118,-58.690534100337686],[6.430120571317673,-58.69062797780914],[6.430331222892616,-58.69086690515079],[6.431137058282004,-58.69089664213741],[6.432668755161557,-58.69110867621122],[6.432696831789926,-58.6911388740799],[6.432764224820562,-58.69112189145061],[6.433825760979772,-58.691268825950814],[6.433995984200378,-58.691193713884694],[6.435131840306615,-58.69114340920491],[6.435886005791999,-58.6915539794741],[6.4376889052784545,-58.69180348784562],[6.438349105024242,-58.6919795847387],[6.439478323893742,-58.69170973056608],[6.445626591185557,-58.693349394521405],[6.448384222243996,-58.69447773589544],[6.448143661478848,-58.69459832787254],[6.447814764855255,-58.69481632418333],[6.447825306030847,-58.6948556191991],[6.449956971368279,-58.69572771954242],[6.450063956581649,-58.69555479691037],[6.450775315329865,-58.6954559739472],[6.4550261086586955,-58.69719475560271],[6.465582468606462,-58.70431696785184],[6.472471597816229,-58.71159738850607],[6.47998855765103,-58.715388999998716],[6.487096895156355,-58.714885636677444],[6.488531020146896,-58.714348181493165],[6.488284796606521,-58.71466713846006],[6.488235546436447,-58.717367418027294],[6.488081877509608,-58.719496813210164],[6.490197831601955,-58.72008270044832],[6.495039615855534,-58.71930840637512],[6.5006663156607996,-58.71724542110373],[6.506508106493932,-58.71458782642658],[6.507097405850996,-58.71382684225737],[6.507375240730082,-58.71412456150952],[6.508722875622676,-58.713784157010565],[6.509381192085386,-58.714489539072],[6.513423948642615,-58.71346824708919],[6.514082335582046,-58.71417360257476],[6.515429871097027,-58.71383314529145],[6.51608830065128,-58.71453849044543],[6.517435823843138,-58.71419801412505],[6.516777378168632,-58.71349267841756],[6.519472308859836,-58.712811717285504],[6.520130775571962,-58.713517036133304],[6.525520318511798,-58.712154970049795],[6.524861807078668,-58.71144968589866],[6.526209113326215,-58.71110915357481],[6.5275261941236495,-58.71251970445805],[6.52887348895441,-58.71217914715288],[6.530190739593573,-58.71358967539393],[6.532885285558459,-58.712908499484456],[6.5335439869155865,-58.713613743438],[6.5348912255394005,-58.713273133997816],[6.53554997631757,-58.713978368225746],[6.538244392280286,-58.71329710157096],[6.539562041920098,-58.71470753115038],[6.540909229637862,-58.71436686762243],[6.541568121874204,-58.71507207205587],[6.542915288703261,-58.714731390553],[6.543574228486065,-58.7154365838719],[6.544921378964521,-58.715095884801976],[6.545580363240848,-58.71580106916401],[6.548274593953403,-58.71511962549381],[6.548933643750576,-58.71582479067306],[6.554321796902032,-58.71446175992542],[6.558936451057757,-58.71939762988969],[6.560283499294471,-58.71905678898896],[6.561602317308697,-58.72046700579159],[6.5669902880159805,-58.71910348368864],[6.566330811663119,-58.71839841082308],[6.567677719789452,-58.718057515594374],[6.567018271907675,-58.717352449859],[6.5683651385415995,-58.717011552349476],[6.56902459944846,-58.71771661078936],[6.570371445317523,-58.717375698364506],[6.571030954715089,-58.71808074637057],[6.572377786311443,-58.717739813530955],[6.5730373402087725,-58.71844485256923],[6.574384151425768,-58.71810390363351],[6.575703393950594,-58.719513957901874],[6.577050198976938,-58.71917298202984],[6.577709885336819,-58.71987799705518],[6.579056672638499,-58.719537004109036],[6.579716408435593,-58.72024200938816],[6.581063173078123,-58.71990100014336],[6.581722957373142,-58.72060599498319],[6.584416427104657,-58.71992393012524],[6.587056008234409,-58.72274382623273],[6.584362452089169,-58.72342595957368],[6.58502241109198,-58.72413094696743],[6.583675576969374,-58.72447200928601],[6.584335568474884,-58.72517700233857],[6.5802948500423115,-58.72620015806658],[6.581614868489907,-58.72761019254422],[6.580267882464251,-58.72795124220935],[6.581588021897055,-58.72936128827908],[6.582248148945465,-58.73006630665648],[6.5795540188502475,-58.73074843250134],[6.58087433028736,-58.73215850144374],[6.579527200012951,-58.73249956796067],[6.580187399541424,-58.73320460837357],[6.5788402260206835,-58.733545674283945],[6.583462572232018,-58.73848097173065],[6.5821152902881845,-58.738822087480685],[6.58277575823515,-58.73952713222521],[6.580081082138747,-58.74020935500944],[6.580741565591151,-58.740914414182704],[6.579394170883156,-58.741255519342495],[6.580054680211988,-58.741960586620294],[6.574664765538284,-58.7433249505115],[6.574004299115059,-58.742619850154895],[6.5713091854266965,-58.74330195898205],[6.570648784623054,-58.742596839405614],[6.563910541459272,-58.74430190922919],[6.5632502299096265,-58.74359674592548],[6.561902504361936,-58.74393772379805],[6.561242240457509,-58.7432325493556],[6.5598944966315464,-58.74357350826236],[6.559234279589342,-58.74286832504477],[6.557886518978072,-58.74320926755153],[6.557226352634309,-58.74250407103775],[6.554530757977704,-58.74318591264527],[6.553870647397952,-58.7424806984696],[6.549827073627738,-58.74350336398336],[6.549167033600087,-58.74279812317696],[6.5437752328421395,-58.74416151497133],[6.5444352235876435,-58.74486679010948],[6.539042903744305,-58.74623006881672],[6.539702886744191,-58.74693537811984],[6.537006525991304,-58.74761697843475],[6.536346564987962,-58.74691165294366],[6.524211572118301,-58.749978325927515],[6.523551750828833,-58.749272923091695],[6.519506253318256,-58.75029495707997],[6.518186787392587,-58.7488840919759],[6.5168382512836205,-58.749224734608816],[6.51617858210584,-58.74851929256127],[6.510784190830219,-58.749881734768266],[6.5114438151395015,-58.75058721154765],[6.510095132509042,-58.75092780762581],[6.511414465007096,-58.75233877338565],[6.510065733700829,-58.75267937742869],[6.511385187491792,-58.754090353640315],[6.51003640068386,-58.75443096503578],[6.510696170194763,-58.7551364589974],[6.509347342317772,-58.755477069958346],[6.510666969400303,-58.75688807167102],[6.509318089224707,-58.75722869088154],[6.5099779475859965,-58.75793419626971],[6.511326841261602,-58.75759356857876],[6.511986746541854,-58.75829906520166],[6.510637839366073,-58.75863970137329],[6.511297773508078,-58.75934520395324],[6.50994882619304,-58.75968584038308],[6.510608781590463,-58.76039135067021],[6.511957738799927,-58.760050706043614],[6.513277782057871,-58.76146170378797],[6.509230755216124,-58.76248366075023],[6.508570748757052,-58.761778136105825],[6.503174347318335,-58.76314058056692],[6.502514421498214,-58.762435021099655],[6.499816073285839,-58.76311617356516],[6.49915620588208,-58.76241059241085],[6.500505385754321,-58.76207003022028],[6.499845545628965,-58.76136445975061],[6.501194688409876,-58.761023895655214],[6.4998750933978835,-58.75961276643034],[6.501224183459402,-58.759272211761754],[6.500564431630048,-58.758566650848294],[6.501913477939334,-58.75822609671786],[6.500594058322917,-58.75681499015048],[6.499245032756667,-58.75715552858326],[6.495287715299636,-58.752922119416084],[6.493938728246582,-58.75326259732259],[6.492619933576743,-58.75185143069102],[6.491270940102081,-58.75219188280403],[6.490611610560906,-58.75148628853788],[6.489262601158134,-58.75182672186944],[6.488603320637602,-58.75112111599806],[6.48725428997529,-58.75146153250129],[6.486595054080002,-58.750755917671896],[6.485246006161374,-58.751096315881604],[6.484586820769973,-58.75039069201636],[6.483237755597829,-58.75073107193239],[6.482578616011784,-58.75002543556692],[6.481229526920685,-58.7503657996303],[6.4805704391701635,-58.74966015374271],[6.479221337377054,-58.750000499921796],[6.477244313679359,-58.74788352838359],[6.474546088498161,-58.74856414010492],[6.473887175036851,-58.74785846346148],[6.471188857461742,-58.74853901866985],[6.470530003869273,-58.74783332293251],[6.46918080960183,-58.74817357889805],[6.468522001958732,-58.74746787372264],[6.464474282152889,-58.748488560936295],[6.46381554697422,-58.74778282750401],[6.4557193705866025,-58.749823900962426],[6.455060739010984,-58.74911811422011],[6.452361805321633,-58.7497983804989],[6.451703229241917,-58.74909257731568],[6.446305044189718,-58.75045296631408],[6.445646554558667,-58.74974712522971],[6.446996137114054,-58.749407050617606],[6.445679245079677,-58.74799538040578],[6.444329686013711,-58.74833543835928],[6.443671306699221,-58.74762959375535],[6.439622493002019,-58.748649685713325],[6.436989469129592,-58.7458261863499],[6.4396886180574535,-58.745146201775164],[6.43837227867206,-58.743734476159716],[6.437022743075407,-58.74407445670787],[6.436364636308938,-58.74336858163477],[6.43231588532926,-58.74438844006742],[6.431657848940864,-58.74368253961094],[6.430308219363528,-58.74402246528281],[6.432940527991406,-58.74684609306921],[6.431590818925717,-58.747186043884376],[6.432248974853479,-58.74789195535229],[6.4295494487271245,-58.74857184544606],[6.430207618478417,-58.749277771843616],[6.428857800078769,-58.74961771160893],[6.429515995879752,-58.75032364495555],[6.428166136378,-58.75066358425335],[6.428824353829464,-58.7513695271935],[6.427474454953374,-58.75170946435433],[6.42681624572879,-58.751003514896006],[6.425466327935994,-58.751343435419976],[6.424808168285412,-58.75063747625549],[6.423458233309676,-58.75097737847343],[6.424116378995383,-58.75168334728772],[6.422766404245908,-58.75202324854805],[6.4234245769149645,-58.752729225006],[6.422074557445752,-58.753069126077676],[6.422732754283971,-58.753775108098274],[6.421382695034962,-58.75411500821159],[6.422040920590066,-58.75482099620701],[6.419340689641929,-58.75550078752607],[6.41670810591088,-58.752676754337045],[6.4153579920615,-58.75301660168054],[6.4146999503273365,-58.7523105826416],[6.411999656198632,-58.7529902313559],[6.4093679383335385,-58.750166063607026],[6.408017790251072,-58.75050584062663],[6.407359962278108,-58.749799786343395],[6.406009800642146,-58.75013954477281],[6.406667613697349,-58.75084560800968],[6.403967176654319,-58.751525116432994],[6.404625008021341,-58.75223119501458],[6.403274731671538,-58.752570944313675],[6.403932584905109,-58.75327702825446],[6.399881547456457,-58.75429624461646],[6.3985311445578725,-58.754635964517526],[6.397215564084612,-58.75322372414769],[6.387762065370751,-58.7556013855064],[6.387104408671089,-58.75489520370902],[6.381701801977741,-58.75625362965743],[6.3810442284758935,-58.75554741333375],[6.3796935158572285,-58.75588698769502],[6.379035990475265,-58.755180759110566],[6.376334497159142,-58.755859863497975],[6.374362204944054,-58.75374111836497],[6.373011448268727,-58.75408063056238],[6.371696791636695,-58.75266811055059],[6.368995236128597,-58.75334707416992],[6.367680772625779,-58.75193451006848],[6.366329969793442,-58.75227396295184],[6.365672804276834,-58.751567671092886],[6.364321988737136,-58.75190710301509],[6.36366486959498,-58.75120080057169],[6.362314032936546,-58.751540215636155],[6.360999927107745,-58.75012759113899],[6.358298213020289,-58.75080636000521],[6.357641237542185,-58.75010002622851],[6.356290347432767,-58.75043938918486],[6.355633421535326,-58.74973304572912],[6.354282510716624,-58.75007239064542],[6.353625631726574,-58.74936603848548],[6.3522747083561955,-58.74970536549695],[6.3516178751972205,-58.74899900088242],[6.348915956325483,-58.7496776089631],[6.346945743619199,-58.74755846096111],[6.348296683804306,-58.74721918597433],[6.3456701958723505,-58.74439366505316],[6.344319300721131,-58.74473290655977],[6.343662781798916,-58.744026513429375],[6.342311873574816,-58.744365735157196],[6.340342565110661,-58.742246522981226],[6.341693441390937,-58.74190732439661],[6.3384119258936735,-58.73837531459076],[6.337061109083682,-58.73871446888604],[6.336638488715809,-58.73825950132975],[6.338206711889986,-58.73764922467508],[6.343511924790753,-58.7335112382767],[6.343402480653436,-58.7327664136997],[6.345936347036356,-58.732130040574155],[6.345280242061712,-58.731423693876415],[6.3466307269298445,-58.73108450761507],[6.345318599696974,-58.729671827705],[6.3466690321207295,-58.72933264960491],[6.345357031497516,-58.727919979050796],[6.34400662042911,-58.72825914031602],[6.343350685691053,-58.727552793383936],[6.342662077189802,-58.72772573245302],[6.342418104002484,-58.7260640423397],[6.340277810823838,-58.7163983181027],[6.341683049754048,-58.7146910179346],[6.341843061765543,-58.714695223579355],[6.342570954190745,-58.71381074355444],[6.342527925130191,-58.71366446016368],[6.342848763324023,-58.7132746149615],[6.3429431875059015,-58.71321494050188],[6.342917545722945,-58.71319103650597],[6.347157011294752,-58.70803893809412],[6.356313616282888,-58.703187766993196],[6.362275981603007,-58.70245321701144],[6.362649051682578,-58.70253403854809],[6.363188162268233,-58.702377187066496],[6.363589021020997,-58.702291409411835],[6.3668341739807355,-58.701891435967966],[6.367336634643249,-58.70230304264326],[6.368595767129932,-58.70214783299322]]],[[[6.256457436954153,-58.7353131773611],[6.25698867723333,-58.73527450528227],[6.254404424553348,-58.73592154458161],[6.256457436954153,-58.7353131773611]]],[[[6.250350550001575,-58.73681494021598],[6.251306246823509,-58.736697156947066],[6.250441854229102,-58.736913533051315],[6.250350550001575,-58.73681494021598]]],[[[6.244370952022242,-58.73755169073453],[6.244378939360365,-58.737560318038454],[6.243026790246124,-58.73789871464882],[6.24287598336854,-58.7377358348527],[6.244370952022242,-58.73755169073453]]],[[[6.23899589702257,-58.73714261947143],[6.241159209581502,-58.73749534792327],[6.23966790752322,-58.73786852553748],[6.23899589702257,-58.73714261947143]]],[[[6.233757779791918,-58.734123134597716],[6.235112734012561,-58.735525478618584],[6.234345881540295,-58.73571733905902],[6.2330373217867345,-58.734303381113335],[6.233757779791918,-58.734123134597716]]],[[[6.232353362685811,-58.73266942914193],[6.233080358985158,-58.7334219607276],[6.232383098849816,-58.7335964012739],[6.231662550453632,-58.73281770262022],[6.232353362685811,-58.73266942914193]]],[[[6.151328904625947,-58.755821192785895],[6.15180544973024,-58.75633704201719],[6.150272013387463,-58.75671953585587],[6.151328904625947,-58.755821192785895]]],[[[6.14604851394028,-58.75731919122075],[6.148264264727927,-58.75722029835651],[6.146389128604013,-58.75768794276975],[6.14604851394028,-58.75731919122075]]],[[[6.140813221104988,-58.75755268377891],[6.144012945914893,-58.757410005186244],[6.14031884323431,-58.75833112817461],[6.139665388870542,-58.75762356106767],[6.136956861774076,-58.7582988472976],[6.136492705417567,-58.75779620164368],[6.140813221104988,-58.75755268377891]]],[[[6.134909036372559,-58.75788542190655],[6.1351861185463,-58.75786981341244],[6.134949166775205,-58.757928882375275],[6.134909036372559,-58.75788542190655]]],[[[6.131408113220611,-58.757702552392686],[6.131996468496396,-58.75779445942335],[6.131587160311702,-58.757896483915005],[6.131408113220611,-58.757702552392686]]],[[[6.129461317209466,-58.757398418838314],[6.12984971214725,-58.757459098481334],[6.129579506835443,-58.75752644523465],[6.129461317209466,-58.757398418838314]]],[[[6.127514533587994,-58.75709424743799],[6.127703019150764,-58.7571236985934],[6.127571888024869,-58.75715637998165],[6.127514533587994,-58.75709424743799]]],[[[6.197763250653636,-58.726766685503726],[6.198895186088959,-58.72717049829813],[6.198278702386215,-58.72732455429621],[6.197763250653636,-58.726766685503726]]],[[[5.933447889081535,-58.82150037547128],[5.934697905326726,-58.82159028300616],[5.933747019257509,-58.821825560899235],[5.933447889081535,-58.82150037547128]]],[[[6.155495260126839,-58.744100387802185],[6.156801814837966,-58.74551526277671],[6.155448172508224,-58.74585299270863],[6.156101492445282,-58.74656043591381],[6.154747811145305,-58.746898165476814],[6.156054533105213,-58.748313065473226],[6.1547007962368925,-58.748650801012914],[6.15731463044006,-58.75148061918079],[6.155960821357417,-58.751818379807844],[6.157267932177607,-58.753233295401934],[6.154560169210307,-58.753908823896474],[6.155213756895969,-58.75461629769295],[6.151721535314468,-58.755487450017405],[6.153651887327202,-58.75384651401032],[6.153672445942018,-58.74949162910073],[6.152993456017596,-58.74618137398596],[6.152501349014755,-58.74307317727401],[6.152390439544053,-58.74254140073037],[6.154141640839383,-58.744438100442494],[6.155495260126839,-58.744100387802185]]],[[[5.986241795289428,-58.79911684233442],[5.988299039570286,-58.80135150251416],[5.986941316595142,-58.80168813269972],[5.988246042104368,-58.80310521607618],[5.981456865361358,-58.804788312268485],[5.982109225717296,-58.805496893561276],[5.979393329227524,-58.8061700824617],[5.9780886948569965,-58.804752883896455],[5.975372722149901,-58.80542600245933],[5.976024997504052,-58.80613461924775],[5.973308884034772,-58.80680771621401],[5.972656634411487,-58.80609908235428],[5.969940428535796,-58.8067721257249],[5.970592655113507,-58.807480775689164],[5.9692344982765135,-58.80781729168185],[5.969886747610457,-58.80852594963708],[5.967170319298032,-58.80919896958981],[5.967822583276642,-58.80990764391114],[5.962389317891877,-58.811253606253366],[5.961737100453452,-58.81054489854071],[5.960378721624975,-58.81088135661707],[5.961683167924241,-58.81229878749605],[5.960324740805898,-58.81263525279629],[5.960977005506151,-58.81334397482846],[5.9569014957693325,-58.814353341858016],[5.957553760141085,-58.81506208798816],[5.954836587720799,-58.81573496843331],[5.955488864851964,-58.81644372953519],[5.9541302219638315,-58.8167801634898],[5.954782524121457,-58.8174889327997],[5.953423838353093,-58.817825366566005],[5.954728525679919,-58.8192429153114],[5.950652221421045,-58.82025221279262],[5.9499998946874,-58.81954341423582],[5.948619483908014,-58.81988517299403],[5.951328865577323,-58.818509138638],[5.955092643519726,-58.81516784888277],[5.95840422549317,-58.81134006127729],[5.966324240523657,-58.808151162121455],[5.969587320700868,-58.80673178319886],[5.976123802855508,-58.80329177439637],[5.981243052355131,-58.80140468724993],[5.9851222169523925,-58.7999460923158],[5.985230817562971,-58.79956661182573],[5.98548174624503,-58.799402652872466],[5.986241795289428,-58.79911684233442]]],[[[6.1646778349737055,-58.73420677246166],[6.171044477040669,-58.732928229526784],[6.171507028272532,-58.73258688244382],[6.171922888215169,-58.73303724638205],[6.165157322393359,-58.73472612003048],[6.1646778349737055,-58.73420677246166]]],[[[5.922797966007939,-58.82297650593623],[5.93106720328593,-58.822204465905926],[5.931192999516095,-58.82171559211522],[5.931196416919744,-58.82171083833339],[5.931911604198357,-58.8216440384793],[5.9323879021508485,-58.82216184595863],[5.931028759302547,-58.82249812024532],[5.931680857718675,-58.82320703369995],[5.919447109018476,-58.826233161244666],[5.920099136707496,-58.82694214947612],[5.918739675555681,-58.82727834563031],[5.91808765696376,-58.826569349721694],[5.916728175123734,-58.82690552886855],[5.916076204173507,-58.826196523189914],[5.910638027589084,-58.82754111447463],[5.90998614422833,-58.826832073532884],[5.9086265393383375,-58.82716818895276],[5.907679550153065,-58.82613806353958],[5.907931713929155,-58.82610637757197],[5.913749199345696,-58.82434752484111],[5.922797966007939,-58.82297650593623]]],[[[6.159333271133707,-58.73527973145112],[6.159938652896334,-58.73515821157973],[6.158642498212267,-58.73548166225356],[6.159333271133707,-58.73527973145112]]],[[[6.157766144229339,-58.73573783384832],[6.158391017586951,-58.73641476291697],[6.154330885538605,-58.73742783452013],[6.15563693166234,-58.738842684294255],[6.152929980407593,-58.73951805384073],[6.154236124797529,-58.74093292999923],[6.152882582238391,-58.74127061798143],[6.153535695451684,-58.741978062855665],[6.152335403955547,-58.74227750866862],[6.151697288092078,-58.739217264382916],[6.1540390830257685,-58.73682720019374],[6.157766144229339,-58.73573783384832]]],[[[6.1875755186657235,-58.72380463873348],[6.194092437900887,-58.725456983723944],[6.197460359195412,-58.72665862665411],[6.188157241514853,-58.728982998313384],[6.187503982273433,-58.72827578451953],[6.182093047116378,-58.72962731492052],[6.181439869579387,-58.72892006538115],[6.180087076169937,-58.729257915685395],[6.17878084776696,-58.72784339609448],[6.174722358806916,-58.72885684174161],[6.175375415241901,-58.72956412846187],[6.174022515460536,-58.729901933963575],[6.174675598848096,-58.73060922719313],[6.173322656942371,-58.73094703142752],[6.173975764606157,-58.73165433213628],[6.172154511249761,-58.73210904778092],[6.173334597934211,-58.73123811921394],[6.172971064926809,-58.72976321123753],[6.174292060371925,-58.72810105781821],[6.183251811312054,-58.72463106391448],[6.1875755186657235,-58.72380463873348]]],[[[6.106337582571479,-58.75009363503691],[6.106570095926389,-58.75020397699594],[6.106241175632327,-58.750285897526076],[6.106021046210278,-58.75004717058883],[6.106337582571479,-58.75009363503691]]],[[[6.104094762151676,-58.74976438863721],[6.104564166539939,-58.74983330168016],[6.10423409221888,-58.74991550397803],[6.104094762151676,-58.74976438863721]]]]},"properties":{}},{"type":"Feature","geometry":{"bbox":[2705511.2085999995,2788523.650800001,2723253.4662999995,2802915.7205000008],"type":"Polygon","coordinates":[[[6.791766720831329,-58.62157991638067],[6.803933187020605,-58.62311525395584],[6.803323314249356,-58.6232709815605],[6.80398351993219,-58.62397444733539],[6.8062191453388445,-58.62340356248957],[6.806845886071799,-58.6234825988065],[6.807325131782585,-58.623993183578825],[6.808505169000027,-58.62369182651233],[6.812490136631503,-58.624194199256976],[6.816969519977799,-58.62466860371629],[6.821376991105854,-58.62734029359247],[6.823217219558327,-58.629989607885],[6.82532969878122,-58.63125794618835],[6.8289488384459505,-58.631229731099936],[6.831928698754121,-58.63100615539522],[6.833315536659284,-58.62981486187743],[6.834520781124025,-58.62695747401923],[6.835222326165654,-58.624714709929314],[6.836057698784175,-58.62450116510606],[6.835468961538613,-58.62387455845231],[6.835918120491718,-58.6223406127542],[6.834742002532414,-58.62147540423837],[6.83721403181408,-58.6214809280669],[6.846417431574693,-58.61908798677151],[6.8517831915103145,-58.61668683210661],[6.853163342317249,-58.61267915624334],[6.8531841850370965,-58.61266003351647],[6.853551007393615,-58.613050433904405],[6.85489065287684,-58.612707741211665],[6.855551377941595,-58.613410882235044],[6.856891004542267,-58.61306817190175],[6.857551776917175,-58.61377130480707],[6.860230967930998,-58.6130858379353],[6.860891796927095,-58.61378895148076],[6.862231358693973,-58.61344619592584],[6.862892234438307,-58.61414929948099],[6.86691077941932,-58.6131209541117],[6.866249870302711,-58.612417875912605],[6.870268115910019,-58.61138947480298],[6.869607214273724,-58.61068641986463],[6.870946562224678,-58.61034360951346],[6.870285679871654,-58.609640562042834],[6.8716249859997705,-58.60929775191081],[6.8709641310383125,-58.608594712009385],[6.872303397988159,-58.608251901113796],[6.871755176551978,-58.607668670411016],[6.8721710760522425,-58.607604722344895],[6.87571089341769,-58.60834226154312],[6.880172949172384,-58.608395313643655],[6.88768832974448,-58.6062466336492],[6.892239072690428,-58.604019253420866],[6.8930498610362125,-58.60381155205071],[6.892928027188053,-58.603682003710816],[6.896654001853027,-58.601857932500955],[6.896945676867751,-58.60126018817742],[6.8935192587557115,-58.599289207013065],[6.889839764031481,-58.599175105929866],[6.888518044760738,-58.59878516418079],[6.890081170467197,-58.59867103077698],[6.903886705663802,-58.59909864195881],[6.9100152617362784,-58.59750173673178],[6.917719421495659,-58.59824851317733],[6.919127725668974,-58.599745048297436],[6.920466031703177,-58.59940189543216],[6.921127409645729,-58.60010463061622],[6.923803956013507,-58.59941828209287],[6.9244653944121435,-58.600120996424195],[6.927141848765991,-58.59943459283078],[6.928464875628348,-58.600839985153854],[6.931141251908165,-58.60015351089633],[6.931802843386243,-58.60085618672074],[6.933140995834565,-58.60051292977295],[6.933802635700094,-58.60121559391612],[6.9391550027464595,-58.59984243578192],[6.9451117641697495,-58.60616604358909],[6.93975900487071,-58.60753951030399],[6.940421006056131,-58.60824215951729],[6.93908273450047,-58.608585511326105],[6.939744759976246,-58.609288167210806],[6.9384064430586605,-58.609631519563706],[6.939730582155468,-58.61103684305186],[6.9383922189318765,-58.61138020306033],[6.939054329350077,-58.61208286977882],[6.937715920380643,-58.6124262315116],[6.939702444745879,-58.614534249364105],[6.934348395078655,-58.61590770137731],[6.93501059476404,-58.61661040553642],[6.933671997556683,-58.61695375400479],[6.934334230970158,-58.61765646444023],[6.932995589695409,-58.61799981295744],[6.934320133954343,-58.61940524643419],[6.932981447660071,-58.619748602113425],[6.933643763035753,-58.62045132554735],[6.932305031346472,-58.620794681767066],[6.930980458678581,-58.61938921805917],[6.926964160504262,-58.620419180059606],[6.9282886672926685,-58.62182469639895],[6.926949820241807,-58.62216801656642],[6.927612119895951,-58.62287077926769],[6.922256388049914,-58.62424400440264],[6.921594133724158,-58.62354120713749],[6.920255139684115,-58.62388448092424],[6.919592935150267,-58.62318167147648],[6.915575802204895,-58.6242114169445],[6.9149136669345905,-58.62350858079021],[6.913574577756676,-58.62385180161885],[6.912912486620589,-58.62314895643355],[6.911573379426944,-58.62349216031673],[6.912235457522382,-58.62419501399432],[6.910896305854112,-58.62453821909682],[6.9102342389142155,-58.62383535554945],[6.907555868683607,-58.62452171917525],[6.90490804391114,-58.62171018134848],[6.903568857700775,-58.62205331380656],[6.902907005708978,-58.62135041659176],[6.901567804702672,-58.62169353298918],[6.900905995896033,-58.620990626059836],[6.895548935280552,-58.6223629641648],[6.896210696974404,-58.623065907318896],[6.893531967753158,-58.6237520386187],[6.8941937446045864,-58.62445499546502],[6.892854326397666,-58.624798056227874],[6.89351612938599,-58.62550102112995],[6.885478923811246,-58.62755925040831],[6.884817186559022,-58.626856234070544],[6.87945850226621,-58.62822817081045],[6.878796843468721,-58.62752512076722],[6.870758001309918,-58.62958270389113],[6.870096443375477,-58.628879600410606],[6.868756543039151,-58.62922248986844],[6.868095036249652,-58.628519373730136],[6.866755113599317,-58.62886224888545],[6.866093653231126,-58.62815912392688],[6.856713475928564,-58.63055891789679],[6.855373332482737,-58.63090171138046],[6.858019046082379,-58.633714473011985],[6.859359234735645,-58.63337164616319],[6.86266724716012,-58.636887519390164],[6.865347642781396,-58.63620175428662],[6.866671146297345,-58.637608058196946],[6.869351462280998,-58.636922223957164],[6.870013291207286,-58.637625355476935],[6.871353422294928,-58.637282414699364],[6.872677208496656,-58.63868865689641],[6.874017326193412,-58.63834569174455],[6.876665376885366,-58.64115812032522],[6.878005512079149,-58.64081510997673],[6.878667624629319,-58.64151820549758],[6.8773274829595135,-58.64186122188015],[6.877989619391636,-58.64256432526109],[6.87932977943433,-58.642221298418235],[6.879991965735597,-58.64292438962159],[6.889372307003678,-58.640522891731905],[6.890034605035192,-58.641225920774154],[6.8860146041657755,-58.642255213668925],[6.886676905415324,-58.642958268641415],[6.885336834603098,-58.64330135642101],[6.886661527355,-58.64470747524838],[6.885321409115278,-58.64505056997485],[6.885983798164603,-58.6457536378642],[6.887323930241977,-58.64541053228095],[6.8879863718136916,-58.64611358700396],[6.889326484561371,-58.64577046494809],[6.8906665692421125,-58.645427332258805],[6.9019339409621985,-58.657378721970446],[6.903274181742153,-58.657035436940184],[6.903937307166233,-58.657738434554254],[6.90460046471085,-58.658441432310596],[6.9032602006096315,-58.65878473640799],[6.903923388342864,-58.65948774073972],[6.902583086657686,-58.65983104240842],[6.903909545943072,-58.6612370623962],[6.9012288046416765,-58.661923675608065],[6.901892069915663,-58.66262670035559],[6.900551645073339,-58.66297000172384],[6.902541615414093,-58.66507909139226],[6.901201126996451,-58.66542241038477],[6.903191393236974,-58.66753151077946],[6.901850845580305,-58.667874844740176],[6.905168628902285,-58.67139002012444],[6.903827992800942,-58.671733388227636],[6.904491651923427,-58.67243642720273],[6.905832292609928,-58.67209305167864],[6.906495997735212,-58.67279607992473],[6.9038146564005105,-58.67348284049303],[6.904478371479099,-58.67418588440875],[6.903137647244096,-58.67452925920734],[6.903801390844868,-58.67523231137053],[6.902460622374385,-58.67557568619969],[6.901119821058303,-58.67591905422731],[6.900456102698158,-58.675215984365785],[6.899115288622351,-58.67555933344467],[6.898451616466187,-58.67485625590546],[6.895769914650147,-58.675542909855075],[6.8951063019833265,-58.67483981190289],[6.892424510675358,-58.67552641267316],[6.891760953532906,-58.6748232957859],[6.890420021527284,-58.67516657440935],[6.889756511911154,-58.674463449355585],[6.887074584464395,-58.6751499596325],[6.886411134345165,-58.67444681417017],[6.879705852192684,-58.676162889399464],[6.88036924715976,-58.676866077671306],[6.879028092361015,-58.677209275027664],[6.8796915156303395,-58.67791246850031],[6.878350316953432,-58.67825566469528],[6.877686906799023,-58.677552462719945],[6.87366317025488,-58.6785819712526],[6.872999827828481,-58.6778787411561],[6.871658537812938,-58.67822188276809],[6.870995245006596,-58.67751864165624],[6.868312589290332,-58.67820488349999],[6.869639170629618,-58.679611397023606],[6.868297776710608,-58.67995452069498],[6.869624479504381,-58.681361046781696],[6.868283037639903,-58.6817041785785],[6.8702733348558676,-58.68381397845008],[6.871614810239772,-58.683470821241784],[6.874269088128453,-58.68628382910964],[6.8729275706355875,-58.68662702063032],[6.8735912199362845,-58.68733027783846],[6.872249654566154,-58.6876734696701],[6.873577043297319,-58.68907999413723],[6.872235431286733,-58.68942319360542],[6.8728991703420474,-58.69012646204538],[6.871557517631461,-58.69046966123458],[6.872885078324563,-58.69187620993502],[6.871543368564355,-58.692219416463885],[6.872871056705011,-58.693625977617785],[6.873534953319489,-58.69432925421987],[6.874862857319379,-58.6957358036074],[6.869495521419409,-58.697108713175616],[6.870823482981435,-58.69851532379144],[6.872165384604361,-58.69817209256559],[6.873493511663757,-58.69957867972906],[6.874835407438203,-58.699235422306316],[6.875499538943401,-58.69993870359924],[6.870131739093513,-58.70131171410309],[6.870795866897658,-58.70201502858243],[6.8694538303305395,-58.70235826629252],[6.870117977583744,-58.703061588235364],[6.867433800307951,-58.70374805351573],[6.869426397741289,-58.70585805901212],[6.8721106448078855,-58.705171541890685],[6.872774935883228,-58.70587485778312],[6.874117026815968,-58.7055315765431],[6.8747813676109955,-58.70623488140344],[6.8761234382244245,-58.705891582962224],[6.876787827794428,-58.70659487610027],[6.879471900778478,-58.705908236027554],[6.880136346965579,-58.70661151090054],[6.878794316998666,-58.70695484374331],[6.879458792116697,-58.70765812568518],[6.878116718382297,-58.7080014604155],[6.878973513791684,-58.7089082664972],[6.876313158840087,-58.711082683747605],[6.876083825552393,-58.71114134526661],[6.8761524802348895,-58.71121400363777],[6.872345691516482,-58.71432490233038],[6.863897248848438,-58.72117632938962],[6.863284368168391,-58.72052774599191],[6.859256217333945,-58.72155751165514],[6.859920870557053,-58.722260946691115],[6.858578084574855,-58.72260419236644],[6.859907476984663,-58.72401107513879],[6.855878872389641,-58.7250408090579],[6.861197650631949,-58.730668475348686],[6.8598546345329945,-58.731011769577584],[6.861184672668091,-58.732418684902875],[6.862527709248184,-58.732075373741814],[6.863013534072036,-58.73258922332805],[6.863175837407825,-58.73365662951977],[6.862514854531538,-58.733825595333144],[6.86309533618639,-58.73443950950535],[6.862890242354529,-58.73547661139813],[6.862502071739282,-58.73557583620398],[6.8628068752734075,-58.73589816880001],[6.862708300311753,-58.73639662068043],[6.861824125888662,-58.73662263076137],[6.862518409530403,-58.73735681213304],[6.86234440378597,-58.73823666996819],[6.859124927402135,-58.739059565399565],[6.861653004328286,-58.74173263542746],[6.86161656778412,-58.74191687017006],[6.857756138287828,-58.74290353077089],[6.858421524766081,-58.743607035631705],[6.857078089706118,-58.743950368661075],[6.854416802348123,-58.741136304197994],[6.853073377429555,-58.74147959365887],[6.8524081583104985,-58.740776064794346],[6.848377738288744,-58.741805855558454],[6.849042927299805,-58.74250940958033],[6.847699382307499,-58.74285266419587],[6.848364596678655,-58.74355622558486],[6.847021011217666,-58.74389947872485],[6.846355807770818,-58.743195908621914],[6.843668575743043,-58.74388237104019],[6.844333755443958,-58.74458595719194],[6.841646376932937,-58.745272401785456],[6.840981220797331,-58.74456879653282],[6.839637501563203,-58.74491199512416],[6.83830731962189,-58.74350476433813],[6.836963591001958,-58.743847936983514],[6.837628655362297,-58.744551561368986],[6.833597258485098,-58.745581050879856],[6.832932226932282,-58.74487740035504],[6.831588379566813,-58.74522053763967],[6.830923400157333,-58.74451687627287],[6.828235636025634,-58.74520310381366],[6.827570717992986,-58.744499424566854],[6.828914601995678,-58.74415632322753],[6.827584844534653,-58.74274897497899],[6.826240981088629,-58.743092059385916],[6.82491139759976,-58.741684684709305],[6.826255237835342,-58.74134161821722],[6.82559048376626,-58.740637939201946],[6.824246659398383,-58.74098099619726],[6.822252660841506,-58.73886992006365],[6.820908833137162,-58.73921294318951],[6.819579706076788,-58.737805533150166],[6.818235874897117,-58.73814853023691],[6.812920919357532,-58.73251875188695],[6.811577142807558,-58.73286167245296],[6.808920585537808,-58.73004670702151],[6.803545364864493,-58.73141815636629],[6.802881362080854,-58.73071437734481],[6.798849667906656,-58.73174284268812],[6.797521833504611,-58.73033522752902],[6.796177904337362,-58.730678013438116],[6.7955140521334645,-58.72997419422341],[6.7941700991126845,-58.73031696319128],[6.792842532450299,-58.72890930278086],[6.791498567866644,-58.72925204561078],[6.789507520785106,-58.72714051636535],[6.7881635673469924,-58.72748322416581],[6.7874999679067125,-58.726779369891254],[6.784811984234256,-58.727464740224825],[6.782821479483269,-58.72535311330018],[6.784165451090524,-58.725010458555595],[6.78283860404588,-58.72360271497123],[6.784182523850487,-58.72326006861052],[6.786870273284161,-58.72257474695497],[6.786206873421652,-58.721870899484095],[6.788894484106835,-58.72118555817118],[6.788231093965061,-58.7204817263839],[6.7909185632615285,-58.71979636640029],[6.79025519042112,-58.71909254852996],[6.791598866380079,-58.7187498637604],[6.792262252827697,-58.71945367194595],[6.793605916124251,-58.71911096818185],[6.792942520994648,-58.718407168897244],[6.795629725294215,-58.71772175260212],[6.794966346147943,-58.717017967724864],[6.797653417230835,-58.716332532876606],[6.796326719506593,-58.71492499237844],[6.797670187417137,-58.714582278146175],[6.797006879402807,-58.71387851500449],[6.798350310105613,-58.713535800167264],[6.797687027695575,-58.712832043221844],[6.800373770448129,-58.712146604496425],[6.797720929476231,-58.70933162768385],[6.799064215339923,-58.708988927441915],[6.798401084880898,-58.70828518850893],[6.79974432408876,-58.7079424880499],[6.801070642275784,-58.70934994955513],[6.805100262313001,-58.70832174330359],[6.804437049682163,-58.70761804029668],[6.805780184024065,-58.70727529480493],[6.805116996614803,-58.70657159917462],[6.806460092826702,-58.70622885239188],[6.803807669878446,-58.703414081894145],[6.809179572113909,-58.7020431473256],[6.808516512322463,-58.701339483852834],[6.8138878973791055,-58.69996843851679],[6.8125618014827145,-58.69856117621288],[6.817932622536481,-58.69719005405235],[6.816606582718149,-58.6957828523043],[6.823319337149517,-58.69406882934872],[6.82398239222142,-58.69477238788221],[6.825324869248264,-58.694429546672005],[6.826651114905951,-58.69583664039968],[6.827993578991029,-58.69549377357781],[6.82865676428047,-58.69619731073656],[6.829999213027635,-58.695854425924075],[6.829336009265919,-58.69515089923314],[6.830678418598868,-58.6948080136319],[6.831341630613098,-58.69551153260617],[6.832684021011537,-58.695168629308675],[6.834010571106434,-58.69657564429831],[6.8353529508175095,-58.69623271558773],[6.8366796695599445,-58.69763970806194],[6.8380220452019325,-58.697296751479584],[6.839348933749093,-58.698703717889344],[6.862165108036284,-58.69287180176846],[6.861501456863525,-58.692168464399934],[6.85881766723004,-58.69285469215418],[6.85749052175301,-58.69144797782301],[6.856148603267343,-58.691791061062915],[6.85548509770656,-58.691087693985146],[6.854143162909864,-58.69143075855298],[6.850826225201658,-58.687913850632114],[6.849484315531064,-58.688256864580815],[6.848821051023604,-58.68755346808285],[6.84747911748775,-58.68789646512953],[6.8468158982877245,-58.687193060275945],[6.8454739546957954,-58.687536037373974],[6.846137161689208,-58.688239451418475],[6.844795172469551,-58.6885824290122],[6.844131975415747,-58.68787900557891],[6.84278997084588,-58.68822196518981],[6.8414637051861815,-58.68681509861497],[6.840121689913837,-58.68715803282126],[6.839458624333203,-58.68645458751684],[6.838116595421853,-58.68679750206761],[6.83679059269235,-58.685390591757205],[6.838132600587709,-58.685047692240204],[6.836806726222811,-58.68364079087673],[6.835464733299035,-58.68398367240463],[6.834801863159237,-58.683280210301284],[6.833459855844106,-58.68362307453701],[6.831471488875564,-58.68151265429044],[6.830129484798162,-58.681855482263686],[6.82946677594281,-58.68115199825955],[6.82678269975671,-58.68183761101851],[6.824794869703901,-58.679727093496915],[6.822110742861998,-58.680412618998794],[6.822773293225934,-58.68111614420571],[6.81472014078889,-58.68317255475049],[6.814057652244657,-58.68246897766606],[6.81271536535267,-58.682811674476994],[6.813377842427511,-58.68351525838547],[6.810693161190697,-58.68420063787727],[6.8100307099083865,-58.683497035105106],[6.806003500611565,-58.684525011063194],[6.804678765553719,-58.683117750675684],[6.80065135441092,-58.68414559415341],[6.801313670110701,-58.68484924887193],[6.79862856010812,-58.68553444997469],[6.799290889293191,-58.68623812312849],[6.796605636699893,-58.68692330304606],[6.797267978243367,-58.68762699089343],[6.795925299897844,-58.68796957574803],[6.796587666992029,-58.68867326979351],[6.78987376130756,-58.69038610382341],[6.792523378148307,-58.69320103642207],[6.789837519051965,-58.693886174909515],[6.791825048229187,-58.69599740691159],[6.790482040666936,-58.696339988384686],[6.791144611620422,-58.697043737431486],[6.784429081370234,-58.69875654850442],[6.783766570041742,-58.69805275519346],[6.782423384845092,-58.69839528210985],[6.781098483900837,-58.696987675226715],[6.778412075004423,-58.69767266665391],[6.779074481650683,-58.69837648750009],[6.777731220572404,-58.6987189776985],[6.779718630204744,-58.700830458346324],[6.77837531042571,-58.70117296414484],[6.77903784322682,-58.70187679683341],[6.776351078448117,-58.70256180181663],[6.77833883337856,-58.704673337973],[6.772964824949552,-58.706043340172656],[6.77230225007326,-58.70533946112007],[6.764240416413437,-58.70739413754538],[6.765565471873186,-58.70880199515459],[6.764221706216733,-58.70914442630715],[6.764884277363838,-58.70984836124778],[6.754133007064438,-58.71258755304463],[6.75479552238349,-58.713291554668494],[6.753451472440026,-58.71363392072071],[6.754114015566635,-58.71433792874765],[6.746049007891084,-58.71639198812517],[6.745386529357965,-58.71568792840649],[6.74404226822179,-58.71603023105631],[6.743379837199855,-58.715326160149],[6.744724089998677,-58.714983865214315],[6.744061687715884,-58.71427980140241],[6.745405894370105,-58.713937508096734],[6.744743515900271,-58.71323345216203],[6.746087680778733,-58.712891157832196],[6.745425328215815,-58.71218710692131],[6.7467694598434615,-58.71184481049471],[6.745444841292737,-58.71043672518928],[6.746788916566857,-58.710094436725946],[6.746126648129902,-58.70939039907882],[6.744782583842003,-58.70973267884675],[6.744120367434165,-58.70902863041383],[6.742776281643834,-58.70937089343949],[6.740789876203348,-58.707258714301005],[6.742133927703368,-58.70691647784989],[6.74080981971883,-58.705508366164345],[6.739465791137542,-58.70585058591801],[6.738141847833887,-58.704442453292764],[6.736797814441407,-58.704784644468035],[6.736135908313051,-58.70408056632329],[6.737479932427307,-58.70373838216925],[6.736156207806837,-58.70233023886154],[6.734812208325201,-58.702672404648986],[6.732826925535679,-58.700560150534635],[6.734170893375987,-58.70021801033283],[6.733509196225106,-58.69951392971538],[6.734853122318394,-58.69917178848595],[6.7341914476081195,-58.69846771623873],[6.73553533422685,-58.698125574182065],[6.734873688590147,-58.69742150785211],[6.73756134720737,-58.69673721314884],[6.736899718332267,-58.696033161917626],[6.738243492604665,-58.69569100947193],[6.736920312593887,-58.69428292155691],[6.738264033768,-58.69394077795752],[6.737602488319634,-58.69323673813022],[6.738946172687007,-58.692894592724286],[6.736300303265159,-58.69007845781759],[6.734956662816799,-58.690420568464425],[6.732311418435012,-58.68760437229656],[6.733655015348117,-58.68726229522383],[6.732993782885784,-58.686558250515084],[6.734337333721367,-58.68621617506842],[6.733676130305672,-58.68551213627804],[6.735019639814291,-58.68517005862409],[6.734358462407297,-58.684466027914176],[6.735701934744423,-58.684123949634476],[6.73504077825065,-58.683419924733194],[6.736384211150845,-58.68307784562811],[6.734400924202209,-58.68096579156402],[6.738430941285032,-58.67993957672324],[6.737769887695912,-58.67923558039972],[6.744485938547189,-58.67752508308163],[6.743824864274057,-58.676821127513186],[6.746511054908462,-58.67613688362273],[6.745849994182189,-58.67543294225798],[6.749879024501802,-58.67440653309017],[6.749217968253376,-58.67370261599605],[6.751903819003472,-58.67301831502609],[6.750581769812811,-58.67161051099762],[6.749238882452487,-58.671952650243526],[6.747917000179169,-58.670544824342656],[6.74657410136353,-58.670886937494224],[6.745252385433157,-58.6694790878546],[6.74659526233929,-58.66913699207327],[6.7452736706228915,-58.66772915176707],[6.746616493205291,-58.66738706532239],[6.745955741253717,-58.66668315107467],[6.747298523504902,-58.66634106312018],[6.746637796601723,-58.66563715626144],[6.745295025302505,-58.66597923553186],[6.74331309248582,-58.663867480446335],[6.7419703278789465,-58.6642095243626],[6.739328306939604,-58.66139379113106],[6.740671023199259,-58.66105178154527],[6.740010599524324,-58.660347853003586],[6.738667887975846,-58.66068985517859],[6.738007513883729,-58.659985915682796],[6.736664783925348,-58.6603278989819],[6.736004450906367,-58.659623949603926],[6.73197611824085,-58.66064982144398],[6.731315854626312,-58.65994584660373],[6.729973032514311,-58.66028777570167],[6.728652636271887,-58.65887980124981],[6.729995442704893,-58.6585378882426],[6.7286751731125065,-58.657129929452275],[6.732703336916357,-58.65610418013601],[6.733363487439022,-58.656808136941876],[6.740076559746692,-58.655098341332916],[6.741397081417547,-58.656506165161794],[6.742739627913786,-58.65616416146563],[6.743399954312252,-58.65686806251781],[6.747427456306951,-58.655841971435194],[6.746767099722777,-58.65513809544598],[6.749451930337108,-58.65445400500746],[6.748791585572689,-58.653750144888996],[6.751476277993433,-58.65306603480144],[6.750815946934533,-58.65236219193423],[6.753500497200309,-58.6516780636734],[6.754821241468975,-58.653085716642885],[6.757505714808597,-58.652401519306956],[6.756184929839855,-58.650993898900566],[6.7615534405385285,-58.64962546150759],[6.760232711437279,-58.64821790350615],[6.764258721605439,-58.647191530420855],[6.763598378414651,-58.646487774932105],[6.7662822119796235,-58.645803498531116],[6.765621885553233,-58.64509975812887],[6.766963747290871,-58.644757615454935],[6.764322746873902,-58.64194267227589],[6.767006294978062,-58.64125842583031],[6.766346115932716,-58.64055470382242],[6.767687833352463,-58.64021257568285],[6.767027679718255,-58.63950885988118],[6.768369356503018,-58.639166731424055],[6.767709224307377,-58.63846302330042],[6.766367556170618,-58.63880514287881],[6.7643874166500035,-58.6366939794173],[6.7630457543601405,-58.637036066034185],[6.762385788495359,-58.63633233302762],[6.759702392456496,-58.63701646033291],[6.759417243745934,-58.63671237049986],[6.764111467649761,-58.634265663144085],[6.764982700389003,-58.63418830261538],[6.76620147137687,-58.63355301706791],[6.767117403364025,-58.63307557087462],[6.768940912255879,-58.632125170204645],[6.770260206227556,-58.63143752992454],[6.770271991598977,-58.63105446611399],[6.7750380946208875,-58.62856998148029],[6.778106310593998,-58.62375149967362],[6.7840473526004414,-58.62221038024621],[6.784614168297783,-58.62281476000247],[6.788322911113765,-58.62186830720394],[6.791766720831329,-58.62157991638067]]]},"properties":{}},{"type":"Feature","geometry":{"bbox":[2696172.7912999988,2782228.1180000007,2708353.3373999987,2790332.8522000005],"type":"Polygon","coordinates":[[[6.781212415265751,-58.753704746695284],[6.783870418869772,-58.75652061040184],[6.78521529074509,-58.75617780206505],[6.785879894365266,-58.75688175451931],[6.787224750900622,-58.75653892814598],[6.788554087243288,-58.75794681329967],[6.789898938476087,-58.75760395948789],[6.791228448564026,-58.75901181941699],[6.792573290122431,-58.75866894082194],[6.794567852798236,-58.76078069267406],[6.795912697369834,-58.76043777890909],[6.797242615456625,-58.76184558706597],[6.798587453760915,-58.76150264517009],[6.799252479181163,-58.762206539215725],[6.804631579527062,-58.76083465278399],[6.805296682887045,-58.76153851043396],[6.807986080468851,-58.76085249424315],[6.807320955161832,-58.76014865402219],[6.808665594082098,-58.75980564257562],[6.808000493160131,-58.75910180903774],[6.812034202489923,-58.75807274166592],[6.8113691049628295,-58.757368932929175],[6.8127136080593775,-58.75702590271376],[6.815402519140321,-58.75633980989093],[6.8160676491789935,-58.75704359366639],[6.820100827173386,-58.756014362096494],[6.820766030939682,-58.75671811878131],[6.8221103751909835,-58.756375013257774],[6.824106233781993,-58.75848624516142],[6.8254505811444695,-58.75814310752393],[6.826115949589805,-58.758846838148905],[6.828804579424106,-58.758160516216265],[6.828139184524418,-58.75745680262731],[6.82948344869079,-58.75711363547076],[6.830148851887261,-58.75781734132754],[6.831493090804208,-58.75747415771404],[6.832824027089297,-58.75888154726501],[6.83013547418138,-58.759567940829974],[6.83213208918067,-58.76167906434642],[6.833476416399458,-58.761335845874555],[6.8341420369401185,-58.762039541773994],[6.83548634382891,-58.76169630605759],[6.836152015247466,-58.76239999159596],[6.837496300476305,-58.76205673912727],[6.83816202182679,-58.76276041361393],[6.839506289374817,-58.762417142917215],[6.84017205440225,-58.76312080762969],[6.84151630388659,-58.76277751988676],[6.843513856455196,-58.76488847729963],[6.842169574135636,-58.76523179119882],[6.842835484894551,-58.765935449322996],[6.841491156737753,-58.766278763710275],[6.842157097823245,-58.76698242841455],[6.843501432377398,-58.766639104912926],[6.844833440933681,-58.768046412427914],[6.847522065439968,-58.76735970605277],[6.846856020719066,-58.76665607159363],[6.848200280871401,-58.766312712715134],[6.848866333879963,-58.767016339438456],[6.8502105750075675,-58.76667296282365],[6.8508766798570715,-58.767376579866465],[6.85356508745409,-58.766689784610115],[6.854231248259576,-58.767393382659094],[6.8555754240149,-58.767049960573154],[6.856241629458631,-58.767753549529324],[6.857585782198869,-58.76741011118481],[6.858918332375536,-58.768817263448675],[6.860262482888814,-58.768473798549635],[6.859596177549311,-58.76777023171948],[6.862284355611367,-58.76708329439265],[6.861618064202121,-58.766379741776625],[6.86296209933831,-58.76603626757796],[6.862295835253604,-58.765332723703814],[6.863639829872286,-58.764989248033345],[6.862973588941472,-58.76428571132543],[6.8643175426663054,-58.76394223536509],[6.863651326215285,-58.76323870533112],[6.86499524227129,-58.76289522996757],[6.866327726553626,-58.764302270644855],[6.8668736636830765,-58.764162735245925],[6.86717561709889,-58.76490511702508],[6.86055429125756,-58.76952603640428],[6.850076799546603,-58.77377473087844],[6.8302680095823805,-58.78044334014432],[6.820397893830901,-58.78987257139428],[6.809925670972836,-58.797168554944925],[6.801214089900891,-58.80629575397345],[6.8024442144128106,-58.81666345419867],[6.801304452509703,-58.821538861128595],[6.794335112803068,-58.829451680919135],[6.788099143835007,-58.83516030275457],[6.787943980622792,-58.83499660267192],[6.785249608385274,-58.83568298811488],[6.784582210513769,-58.83497880439697],[6.7832349892024215,-58.83532197469649],[6.780565806102468,-58.832505186383585],[6.776524106185426,-58.833534537947564],[6.775856932134371,-58.832830310443676],[6.774509649061471,-58.83317340172818],[6.7738425257784805,-58.83246916502618],[6.772495225416239,-58.83281223684366],[6.771828151003519,-58.83210798956428],[6.770480833920211,-58.83245104378665],[6.769813805149152,-58.83174678504213],[6.767119101215103,-58.83243285050781],[6.765785199242431,-58.831024295419226],[6.764437826121807,-58.831367296949566],[6.763770942622093,-58.830663006973104],[6.762423548232402,-58.83100599051023],[6.763090418004034,-58.831710290198565],[6.76174298249346,-58.832053273398046],[6.761076124736811,-58.83134896567132],[6.755686129646154,-58.83272077376947],[6.75501934864606,-58.832016431251894],[6.750976578390533,-58.83304516437308],[6.75030986536792,-58.832340795994234],[6.748962227200938,-58.832683680856626],[6.748295565151611,-58.831979299054105],[6.746947907063753,-58.83232216542733],[6.745614716019197,-58.83091338288459],[6.742919356296006,-58.831599053706],[6.742252837816148,-58.83089464236835],[6.740905121493726,-58.831237455835364],[6.73957222233756,-58.82982861039243],[6.7382244990862805,-58.830171398024135],[6.735559180416135,-58.82735365165516],[6.734211471084363,-58.82769639649289],[6.733545245370015,-58.82699194690553],[6.730849767140839,-58.82767738777939],[6.730183599658186,-58.826972920581454],[6.72614018877908,-58.82800098873658],[6.725474087784275,-58.82729649313347],[6.7187345309077315,-58.829009715265556],[6.71806852639801,-58.82830517510125],[6.7153725202776196,-58.82899038081256],[6.714706573073625,-58.82828582235294],[6.713358535013791,-58.828628404292225],[6.711360954985065,-58.8265146900956],[6.710012920598416,-58.82685723560374],[6.708681405471407,-58.8254480681176],[6.707333361939894,-58.825790587591],[6.706667669636238,-58.82508599277638],[6.705336398260854,-58.823676797668384],[6.706684405624505,-58.82333430228705],[6.7060188114422905,-58.82262971218832],[6.7100626255752145,-58.821602198813615],[6.7107282523057625,-58.822306765112515],[6.713423993771778,-58.82162169479221],[6.7094306526699095,-58.81739437611604],[6.708082861090144,-58.8177368638831],[6.706086719198681,-58.81562315525818],[6.708782203841624,-58.81493822158122],[6.708116872521078,-58.81423366589145],[6.70946456139189,-58.81389119317371],[6.708799255740615,-58.81318664368872],[6.711494517653766,-58.81250168875189],[6.710829227135118,-58.811797156062795],[6.712176801513939,-58.81145467335374],[6.711511536663786,-58.81075014686909],[6.71959629734275,-58.80869510725761],[6.71893100043499,-58.80799063036943],[6.720278341669484,-58.80764810089225],[6.719613074990156,-58.80694363060684],[6.720960375140744,-58.806601100776675],[6.719629925501589,-58.805192172752456],[6.720977172542646,-58.80484965059681],[6.718316662295518,-58.802031808304164],[6.719663837679434,-58.80168931096547],[6.718998791738031,-58.80098485563453],[6.72034592605273,-58.800642357943175],[6.719015919948083,-58.79923345697649],[6.71766880379979,-58.79957593870809],[6.717003865021273,-58.798871478003946],[6.7183509710357905,-58.798529005679015],[6.717021179235309,-58.79712009396812],[6.7197152471256905,-58.796435158539566],[6.716391306482816,-58.792912937064685],[6.7177382421803165,-58.79257049646874],[6.71707355322867,-58.79186605664861],[6.722460947624865,-58.790496241114425],[6.723125680479647,-58.79120064725965],[6.724472464983202,-58.79085816182674],[6.723807721060038,-58.790153764395725],[6.726501179349197,-58.789468783276284],[6.727165949011597,-58.79017316298738],[6.731205949129139,-58.78914559665841],[6.731870786594336,-58.78984995056845],[6.7332174059351475,-58.789507401753916],[6.732552553803674,-58.78880305685014],[6.743324341710394,-58.78606240449678],[6.743989282268202,-58.786766679680866],[6.746681955483663,-58.786081408469144],[6.7473469485839415,-58.786785664981956],[6.754078166061682,-58.785072282508175],[6.753413111874208,-58.7843680696657],[6.754759255110638,-58.784025372599864],[6.7540942239427455,-58.783321166938855],[6.755440326174791,-58.78297846953651],[6.754775324290126,-58.78227426978236],[6.756121382861634,-58.78193157302638],[6.7547914667703495,-58.78052318458156],[6.756137471035566,-58.7801804960055],[6.754142836033337,-58.7780679264241],[6.755488782176728,-58.77772525415756],[6.754823966271322,-58.777021068999176],[6.757515746241931,-58.77633571592756],[6.756186176412157,-58.77492737439576],[6.7575319969419905,-58.77458470210599],[6.756867254990046,-58.77388053770915],[6.758213038528827,-58.773537863611296],[6.757548323185765,-58.7728337061039],[6.758894065748601,-58.77249103167193],[6.757564724015957,-58.771082727232134],[6.75891041097911,-58.77074006147107],[6.758245780598854,-58.77003591601234],[6.760937047959624,-58.769350572813096],[6.76027243449151,-58.768646442464785],[6.765654566957633,-58.76727567883766],[6.764989945716605,-58.76657158200591],[6.770371559040857,-58.765200707072694],[6.769706928156,-58.764496642376095],[6.771052247001467,-58.764153910024646],[6.770387641780577,-58.763449851525635],[6.771732916078476,-58.763107119138674],[6.771068340123216,-58.76240306654474],[6.772413573479452,-58.76206033383023],[6.771749021474558,-58.76135628910656],[6.773094217877588,-58.761013554590996],[6.772429686219594,-58.76030951802993],[6.773774840741455,-58.75996678249743],[6.773110336634411,-58.75926275351409],[6.77445545288037,-58.7589200166726],[6.773790974814754,-58.75821599270507],[6.776481092478669,-58.75753051149788],[6.775152200227986,-58.756122493719516],[6.779187083262172,-58.755094254926064],[6.778522661686527,-58.75439026953238],[6.781212415265751,-58.753704746695284]]]},"properties":{}},{"type":"Feature","geometry":{"bbox":[2687335.4998000003,2775190.3167000003,2693466.5370000005,2778676.9287000005],"type":"MultiPolygon","coordinates":[[[[6.70707684048233,-58.92814592783209],[6.706778267099411,-58.92937895734596],[6.706660449195986,-58.92937015469157],[6.705770589204001,-58.933046001787304],[6.694872785812126,-58.9419666032754],[6.6918984229358065,-58.94384375417402],[6.691536521266223,-58.94346273856717],[6.6928883036056845,-58.94311980005893],[6.690209995538217,-58.940299733977604],[6.695616638040569,-58.93892802640761],[6.694947108854901,-58.93822304063],[6.6990017438048834,-58.93719418784408],[6.697662724552564,-58.93578426191937],[6.6990141900561095,-58.93544130830659],[6.698344726590606,-58.93473635224016],[6.6996961457105835,-58.93439339903676],[6.699026707192575,-58.93368844847802],[6.7044320418312555,-58.93231658170916],[6.7037625969505665,-58.93161166310578],[6.705113846211914,-58.9312686814993],[6.704444422836755,-58.930563771750535],[6.705795629353044,-58.930220790264485],[6.7044568728284215,-58.928810980120076],[6.70707684048233,-58.92814592783209]]],[[[6.739776705447097,-58.89009952020412],[6.740445290498339,-58.89080411662922],[6.7417947876283515,-58.890461029792505],[6.742324442426585,-58.89101916614796],[6.739192521531625,-58.89365080361878],[6.739233412605734,-58.89391877928193],[6.738949715616571,-58.894157151470075],[6.740244906177539,-58.902639416444174],[6.724210438767824,-58.911217792237984],[6.722675816281256,-58.91268566562152],[6.721434920201615,-58.91137853386066],[6.718734061400928,-58.9120645624624],[6.718065090359542,-58.91135978434402],[6.7167146261837045,-58.91170277648169],[6.7147079680762305,-58.909588402966186],[6.717408798671721,-58.90890246017905],[6.716739961586545,-58.908197682778635],[6.7180903215033165,-58.90785470503884],[6.7174215112409295,-58.90714993452635],[6.716071165160372,-58.907492902538856],[6.713396340035647,-58.90467376803115],[6.714746642787413,-58.904330834502105],[6.715415302455409,-58.90503561194573],[6.716765587152197,-58.90469266125642],[6.716096913084812,-58.90398789166613],[6.71879736946174,-58.90330197739851],[6.718128708375827,-58.902597224422664],[6.719478879675574,-58.90225426202755],[6.718141651771369,-58.90084476701418],[6.719491770586149,-58.90050181299954],[6.718823200144595,-58.89979707125431],[6.7228733461411085,-58.89876817933754],[6.721536244029369,-58.897358742632136],[6.728285772050618,-58.89564382626849],[6.728954359016223,-58.89634850267378],[6.731653982401911,-58.895662453322856],[6.730985372761425,-58.89495779558457],[6.733684858178677,-58.89427172653788],[6.73234770174029,-58.89286243868296],[6.73909576988533,-58.89114719191313],[6.738427189296694,-58.890442589204106],[6.739776705447097,-58.89009952020412]]]]},"properties":{}}],"fileName":"AreaPrioextremaAlta"}