{"type":"FeatureCollection","features":[{"type":"Feature","geometry":{"bbox":[-36.36362834537591,-6.208116798607388,-36.03254288436174,-5.8120540002198435],"type":"MultiPolygon","coordinates":[[[[-36.03300391901915,-5.839101765647247],[-36.033003918979816,-5.839605048018837],[-36.03350722664186,-5.839605049166227],[-36.03300391901915,-5.839101765647247]]],[[[-36.031337270772696,-5.837435149711817],[-36.03133727097796,-5.837938394267666],[-36.03184052055647,-5.837938396240641],[-36.031337270772696,-5.837435149711817]]],[[[-36.030503944364284,-5.836601813099928],[-36.03050394242775,-5.83710506711426],[-36.0310071915798,-5.837105068565004],[-36.030503944364284,-5.836601813099928]]],[[[-36.02967061848689,-5.835768459844753],[-36.02967061749358,-5.8362717383977705],[-36.0301738799359,-5.836271739677444],[-36.02967061848689,-5.835768459844753]]],[[[-36.028837293368966,-5.835109316108955],[-36.02883729277435,-5.835438412138443],[-36.02934058773865,-5.83543841356089],[-36.029104043091266,-5.835201856562396],[-36.028837293368966,-5.835109316108955]]],[[[-36.249439148260436,-5.848337033280956],[-36.24520889662705,-5.848992972523153],[-36.24520265713479,-5.849299849926852],[-36.24452940936891,-5.84951836311545],[-36.24397781491575,-5.849183839107554],[-36.243495983618196,-5.849258539032216],[-36.24341194833896,-5.8493089918176855],[-36.2429423759749,-5.849901218937044],[-36.242826838833274,-5.850012329750328],[-36.24271135676672,-5.850250265248338],[-36.2427138734263,-5.850373050608836],[-36.241594724050515,-5.851044927098854],[-36.241568931527326,-5.851018079770678],[-36.241353738214436,-5.850574522596925],[-36.2413262231505,-5.850561171449969],[-36.24045199982159,-5.851086000040929],[-36.23895452256047,-5.851606910868838],[-36.23897874895055,-5.851725192173009],[-36.2385063630376,-5.852179041094342],[-36.238058158741914,-5.852396503930964],[-36.23776992394047,-5.852390638735525],[-36.23740755889153,-5.852145014997104],[-36.23558199975153,-5.852780000228153],[-36.2349883141439,-5.852861813351641],[-36.23489604416131,-5.853188940966588],[-36.23455640461735,-5.852958752086452],[-36.23447549584149,-5.852932480532549],[-36.231576000129266,-5.853332000068555],[-36.23152608424128,-5.853331755919041],[-36.23135930893347,-5.853754516814865],[-36.22922463067708,-5.853744057312817],[-36.22911270575823,-5.853399099227085],[-36.229029914964975,-5.853319547964684],[-36.22728699970253,-5.85331100026989],[-36.22414099971775,-5.853581999555136],[-36.222134999447974,-5.854429999743932],[-36.220694000065,-5.856712999490545],[-36.220115999483745,-5.857854000231072],[-36.21725400013934,-5.858412999491257],[-36.216115999577966,-5.857261999545342],[-36.21497799948344,-5.856112000257475],[-36.214089044848706,-5.855661610094331],[-36.21396669552403,-5.855714548508172],[-36.21391794282501,-5.855815037798876],[-36.213538241535986,-5.855622654153606],[-36.213454151541576,-5.855339935620801],[-36.21212599983636,-5.85466700004687],[-36.21040899940592,-5.854943999895199],[-36.20838188062103,-5.855339093046461],[-36.20837851951539,-5.855340823365739],[-36.208373524529854,-5.855340721270106],[-36.20817811681042,-5.855378805476606],[-36.207578722475915,-5.855687600899704],[-36.206805817872905,-5.855671830964476],[-36.206679852912586,-5.855570147838298],[-36.20562278302732,-5.855653311319765],[-36.205318828090185,-5.856020711808893],[-36.20520329104887,-5.856131822340355],[-36.20519442483477,-5.856141047276541],[-36.20447945109425,-5.856197292589883],[-36.20089895757428,-5.856513005784248],[-36.198971342217064,-5.855260994603546],[-36.19714008548624,-5.854490527951367],[-36.19521246815817,-5.853527443719072],[-36.18971869792385,-5.853527424045333],[-36.18538152766189,-5.852756947967578],[-36.18089860388856,-5.852715740642723],[-36.176330038333575,-5.853001276016696],[-36.173047093608496,-5.850056898232648],[-36.170056856741375,-5.8489045848856005],[-36.166431480999364,-5.849860387910287],[-36.16214845118873,-5.852906097658536],[-36.15719917235242,-5.850907350311308],[-36.15453417585706,-5.848813424636278],[-36.15161908391493,-5.84877602759662],[-36.15074905380155,-5.851061044439326],[-36.151706424836085,-5.858374098895489],[-36.15038820301513,-5.859949302670564],[-36.14885107142011,-5.859611419277386],[-36.145900539843716,-5.857136779588941],[-36.14295000826218,-5.85523321089105],[-36.14218858054636,-5.853995890781358],[-36.14104643858599,-5.854757318598728],[-36.14057054685768,-5.856280173056369],[-36.13923804908881,-5.857612671224987],[-36.13698583226035,-5.858717059610248],[-36.134122792532146,-5.859561057262909],[-36.129017529225024,-5.857505844831258],[-36.12782923039042,-5.8569121460851585],[-36.12580242859652,-5.855551660647234],[-36.1219035395767,-5.853881968247523],[-36.121755870755045,-5.853549970462178],[-36.12153883152118,-5.853457020817951],[-36.120498689737296,-5.851118508564521],[-36.11702570295763,-5.848026862900517],[-36.11702624603907,-5.847927148957215],[-36.11666099999829,-5.847602000119655],[-36.11667499990693,-5.845026999644424],[-36.115128313429416,-5.841363328734532],[-36.11296345168403,-5.840628545052299],[-36.11295384301828,-5.8405695354694735],[-36.11255921844716,-5.840190390222928],[-36.11069899943087,-5.839558999677378],[-36.108416999297475,-5.838402000003065],[-36.10756699981379,-5.836966999738938],[-36.107004000119176,-5.835247000285902],[-36.10653158353491,-5.833560764542444],[-36.10603823168958,-5.833372673850255],[-36.10603732030648,-5.83332803540845],[-36.10588264922852,-5.833027755121628],[-36.104160000267086,-5.832370999505768],[-36.10187199948848,-5.832358999871461],[-36.09958199960288,-5.832920000068009],[-36.09729099997196,-5.833766999637487],[-36.093853999546916,-5.8348930002204575],[-36.09270800006507,-5.835460000296812],[-36.09011516891384,-5.8357055999882785],[-36.09003667689613,-5.835787297935448],[-36.08985888548621,-5.836153745549534],[-36.0879244719872,-5.836143586117754],[-36.086309171142915,-5.837209801958111],[-36.08630650473191,-5.837208937928025],[-36.08629961295591,-5.837216112016411],[-36.0862034424262,-5.837279590881705],[-36.08616423161187,-5.837357028362125],[-36.085460669401094,-5.838089356262477],[-36.08530722845464,-5.8390319150733],[-36.08507991656776,-5.839473202961429],[-36.085031367267554,-5.839573203375836],[-36.08354806571982,-5.840552291360364],[-36.08317227905194,-5.840161170529502],[-36.083149599682216,-5.840150170256942],[-36.08296199957312,-5.840273999578655],[-36.08066899962553,-5.8414070000299985],[-36.07838299970884,-5.84110899953368],[-36.07552399936362,-5.841094000231897],[-36.07498941585535,-5.841051236703076],[-36.07516662173098,-5.841460853659607],[-36.07278099378625,-5.841269986931725],[-36.066663266111654,-5.841098123828348],[-36.06443529331758,-5.8438809089304895],[-36.06514567681944,-5.846436400228967],[-36.064942436992766,-5.846590619665168],[-36.06546360253267,-5.848465316215678],[-36.06513082673777,-5.849652950470764],[-36.06539005830907,-5.850451805055047],[-36.064586376107265,-5.85331981485139],[-36.06434611782757,-5.853069807258454],[-36.064210024256155,-5.85293903811766],[-36.063514167727746,-5.855422224201666],[-36.05850133572995,-5.8573701559930695],[-36.0481971811657,-5.85597877716807],[-36.044298311751426,-5.8509698016559],[-36.04234887681652,-5.847073936685063],[-36.04186990564924,-5.84556982190799],[-36.03786046020741,-5.842245061573028],[-36.0338372467865,-5.839867712764006],[-36.033837246633155,-5.840438375005284],[-36.03467057280094,-5.840438376535312],[-36.034670570687574,-5.842105028990526],[-36.03383724437987,-5.842105027990714],[-36.03383724418648,-5.842938354985805],[-36.03300391702269,-5.842938354587014],[-36.03300391923119,-5.843771680195785],[-36.03383724266883,-5.843771681095428],[-36.0338372415,-5.8454383343202085],[-36.034670567944694,-5.845438335148766],[-36.03467056821069,-5.84710498899556],[-36.03550389228993,-5.847104988901482],[-36.03550389177834,-5.847938314890019],[-36.03717054301988,-5.847938316476141],[-36.037170543867646,-5.848771642364969],[-36.03800387117301,-5.848771643155939],[-36.038003868321475,-5.850438296196105],[-36.03883719594797,-5.850438296490563],[-36.03883719290605,-5.853771602914466],[-36.038003867075645,-5.853771602185332],[-36.03800386481574,-5.85460492942415],[-36.03883719347435,-5.854604929869485],[-36.03883719035231,-5.856271582906813],[-36.03967051843683,-5.856271582713908],[-36.039670515497896,-5.858771563505016],[-36.04050384196886,-5.858771563600975],[-36.04050384086486,-5.861271542810215],[-36.041337166617964,-5.861271543337089],[-36.04133716501028,-5.862104870809098],[-36.04050383911534,-5.862104870991661],[-36.04050383557858,-5.866271502634974],[-36.04133716340254,-5.866271502745526],[-36.04133716242591,-5.867938156596359],[-36.03967050964939,-5.8679381561161374],[-36.03967050873748,-5.8704381354204145],[-36.038837183966784,-5.870438134905203],[-36.03883718291405,-5.871271460913802],[-36.03800385639103,-5.871271460858371],[-36.03800385413997,-5.873771440842617],[-36.037170530487145,-5.873771440708117],[-36.03717052728106,-5.877104747844145],[-36.036337202916584,-5.877104746883746],[-36.036337201376234,-5.878771399268903],[-36.035503873325574,-5.8787713991942265],[-36.0355038729703,-5.87960472609066],[-36.036337200124656,-5.879604726202982],[-36.036337200235515,-5.880438052682674],[-36.03467054714754,-5.880438051386129],[-36.03467054643855,-5.884604684501532],[-36.03467054594942,-5.885438011066058],[-36.036337197667855,-5.885438011565715],[-36.0363371957101,-5.886271338498984],[-36.038003847255354,-5.886271339353967],[-36.03800384665909,-5.887104666192878],[-36.039670498927066,-5.887104667545198],[-36.03967049790094,-5.887937994006136],[-36.04133715103491,-5.887937994966949],[-36.04133714919986,-5.889604648458226],[-36.04217047610896,-5.889604648905376],[-36.04217047455419,-5.888771321922959],[-36.045503779381704,-5.888771323518584],[-36.045503779649174,-5.887104671200983],[-36.04633710732229,-5.887104672170838],[-36.04633710584624,-5.886271345029248],[-36.053837039919856,-5.886271349116054],[-36.053837041103485,-5.884604695708883],[-36.056337018181,-5.884604698071795],[-36.05633701933223,-5.883771370823473],[-36.05717034309493,-5.883771370529113],[-36.05717034442824,-5.882938044282929],[-36.06050364803373,-5.882938046530396],[-36.06050364899089,-5.881271393050153],[-36.06133697531168,-5.881271393559728],[-36.06133697762103,-5.880438067291332],[-36.062170300398556,-5.8804380679770505],[-36.06217030167134,-5.881271394992746],[-36.063836952676986,-5.881271394869378],[-36.06383695305396,-5.880438068665546],[-36.064670279063634,-5.880438069879539],[-36.06467028156053,-5.877104764176815],[-36.06550360610598,-5.877104763530898],[-36.06550360727796,-5.87543811038498],[-36.068836911047626,-5.875438111853888],[-36.06883691294759,-5.874604785583505],[-36.06967023722304,-5.87460478620357],[-36.06967023711368,-5.875438112937965],[-36.070503564399985,-5.875438113308729],[-36.07050356296597,-5.876271439343232],[-36.072170215253266,-5.876271441012564],[-36.07217021349917,-5.877938093791523],[-36.07133688749963,-5.877938093983065],[-36.07133688718163,-5.878771420185948],[-36.072170212284874,-5.8787714200333605],[-36.0721702115833,-5.880438074425419],[-36.07300353790568,-5.8804380739210025],[-36.07300353676917,-5.881271401079663],[-36.075503513854024,-5.881271401667422],[-36.07550351470684,-5.880438075744897],[-36.07633684251028,-5.88043807640849],[-36.07633684293548,-5.8796047495671555],[-36.077170167196186,-5.879604750406739],[-36.07717016719386,-5.878771422646487],[-36.08050347261579,-5.878771424837747],[-36.08050347265542,-5.877938098424887],[-36.08133679947694,-5.877938100246536],[-36.08133679902631,-5.876271445874684],[-36.08217012438274,-5.876271446196326],[-36.08217012623628,-5.877104773700311],[-36.08300345177428,-5.877104774237073],[-36.08300345171276,-5.876271446835416],[-36.08383677639542,-5.876271447972881],[-36.083836778450895,-5.8754381209656685],[-36.08467010510791,-5.875438122239577],[-36.084670105918384,-5.872938142182893],[-36.08633675723949,-5.872938142432983],[-36.08633675776753,-5.872104816514509],[-36.09133671375178,-5.872104820269114],[-36.09133671503944,-5.870438166102211],[-36.09217003961773,-5.87043816691887],[-36.09217003858229,-5.8696048392927045],[-36.0930033658883,-5.8696048412760975],[-36.09300336428325,-5.868771513618314],[-36.092170040416384,-5.8687715132717235],[-36.09217004072442,-5.867104860505899],[-36.09383669312241,-5.8671048612158305],[-36.09383669577296,-5.865438208140897],[-36.09467002165726,-5.865438209002433],[-36.09467002284383,-5.8629382292871295],[-36.09633667337475,-5.862938229740569],[-36.09633667437518,-5.862104903683217],[-36.09883665319335,-5.862104905244668],[-36.0988366519778,-5.861271577619408],[-36.10050330240615,-5.861271578290695],[-36.101336628718826,-5.861271579263092],[-36.10133662831469,-5.862938232658834],[-36.10300328073169,-5.862938234400123],[-36.103003277376885,-5.86710486759207],[-36.10383660555499,-5.867104867410592],[-36.10383660328299,-5.870438173777521],[-36.10466992716245,-5.870438173648761],[-36.10466992583551,-5.872938154495885],[-36.10550325272518,-5.872938154481418],[-36.10550325055987,-5.875438133345044],[-36.104669925463675,-5.875438133097696],[-36.10466992354288,-5.877938113619931],[-36.10550324877965,-5.877938113523051],[-36.105503245878204,-5.88043809295722],[-36.1046699222921,-5.880438093681385],[-36.10466992152194,-5.881271419579526],[-36.10383659453647,-5.88127141959031],[-36.10383659409236,-5.882104745599735],[-36.10300326997754,-5.8821047458877125],[-36.10300326806799,-5.882938071725474],[-36.10216994234513,-5.8829380715832595],[-36.10216994165728,-5.8837713976739785],[-36.101336617156136,-5.883771396637008],[-36.10133661600838,-5.8862713768715285],[-36.10050328782334,-5.886271376536587],[-36.100503287542395,-5.887104703296074],[-36.09966996312365,-5.887104703380233],[-36.09966996113671,-5.888771355214369],[-36.09883663586326,-5.888771355717745],[-36.098836634767785,-5.889604682712369],[-36.09633665868138,-5.889604680935185],[-36.096336656597124,-5.892104661020105],[-36.0955033302645,-5.892104660653189],[-36.09550332770636,-5.893771313494534],[-36.09633665493418,-5.893771314365669],[-36.0963366541046,-5.895437966080653],[-36.09716997958046,-5.895437967955199],[-36.09716997915601,-5.897104621070344],[-36.098003304203594,-5.897104621422739],[-36.0980033035738,-5.898771274019419],[-36.09883663163389,-5.898771274304902],[-36.098836631287696,-5.899604601601191],[-36.09966995490872,-5.899604602284378],[-36.099669954134605,-5.900437929026847],[-36.100503279119344,-5.900437928289821],[-36.10050327970895,-5.901271254761659],[-36.10133660652555,-5.901271255413087],[-36.10133660599348,-5.902937909181821],[-36.10216993044785,-5.902937908917633],[-36.102169928530024,-5.904604563807969],[-36.10300325689328,-5.9046045636187445],[-36.1030032535873,-5.907104543707957],[-36.10466990624076,-5.9071045447054935],[-36.1046699058888,-5.908771196999169],[-36.105503231360174,-5.90877119636804],[-36.10550322948042,-5.910437850675664],[-36.10633655499244,-5.910437851331945],[-36.10633655572213,-5.91127117747598],[-36.107169882313215,-5.911271178490499],[-36.1071698796425,-5.9121045054362815],[-36.1080032055209,-5.912104506526251],[-36.10800320252634,-5.917104465571088],[-36.108836530808745,-5.917104465402406],[-36.10883653084574,-5.9179377921260246],[-36.10966985365076,-5.917937793103709],[-36.10966985340289,-5.918771118387402],[-36.11216983230511,-5.918771120825697],[-36.11216983134542,-5.919604447700151],[-36.11383648337044,-5.919604449630776],[-36.11383648196145,-5.92127110219285],[-36.113003154655196,-5.921271099745038],[-36.113003153568854,-5.923771080512149],[-36.11383648040797,-5.92377108069715],[-36.11383648060777,-5.925437735071709],[-36.11300315287176,-5.9254377343815285],[-36.113003152400985,-5.9262710598450905],[-36.11383647924152,-5.926271060575621],[-36.113836480604036,-5.927104388580704],[-36.11550313049851,-5.927104388916408],[-36.11550312888893,-5.92793771524074],[-36.117169782205856,-5.9279377165072615],[-36.11716978092321,-5.928771043494566],[-36.11966975980162,-5.928771044450409],[-36.119669758989076,-5.929604371394076],[-36.12050308564936,-5.929604371966125],[-36.1205030835138,-5.9304376982194835],[-36.122169735594035,-5.930437699552286],[-36.12300306101344,-5.930437700130927],[-36.12300306114026,-5.9312710266238255],[-36.12383638688632,-5.931271026531481],[-36.123836388235894,-5.93210435364751],[-36.1246697140237,-5.932104354661988],[-36.12466971096149,-5.933771006359962],[-36.125503037830306,-5.933771007916004],[-36.12550303808249,-5.934604337790932],[-36.12966966675359,-5.934604336576383],[-36.1296696659281,-5.9337710093458735],[-36.13050299300326,-5.933771010975732],[-36.1305029933994,-5.932937684004118],[-36.13133632080016,-5.932937684598536],[-36.131336320340935,-5.932104359380901],[-36.13216964717127,-5.932104358798485],[-36.13216964642654,-5.931271031778981],[-36.13383629931417,-5.931271032882232],[-36.13383629875208,-5.93043770668645],[-36.13550294878995,-5.930437707002628],[-36.135502951135216,-5.9279377276214635],[-36.13633627755878,-5.927937728830979],[-36.13633627948126,-5.927104401648281],[-36.13966958088376,-5.9271044042348295],[-36.139669583130534,-5.926271076620752],[-36.140502907785155,-5.926271077219563],[-36.14050290752739,-5.92543775018686],[-36.141336234157656,-5.925437750921151],[-36.14133623276626,-5.9262710769649996],[-36.1421695585428,-5.926271078665272],[-36.142169560897436,-5.924604425480661],[-36.14133623497953,-5.924604425034747],[-36.14133623641268,-5.923771097669095],[-36.14216956143409,-5.923771097791021],[-36.14216956125887,-5.9229377711476685],[-36.14383621515261,-5.922937773475692],[-36.14383621351104,-5.922104446482787],[-36.14550286469907,-5.922104447133312],[-36.14550286606896,-5.91960446844246],[-36.144669541493556,-5.919604467455597],[-36.14466954322544,-5.917937814291547],[-36.14550286794251,-5.917937814023844],[-36.14550286843443,-5.916271160372408],[-36.14466954371798,-5.9162711610058],[-36.144669543230144,-5.913771180449861],[-36.14383621794507,-5.913771180636646],[-36.14383622082393,-5.911271200636495],[-36.14300289332057,-5.91127119920495],[-36.14300289667786,-5.910437873893648],[-36.142169567566995,-5.910437872397454],[-36.142169570497344,-5.909604546535321],[-36.14300289423245,-5.909604547001199],[-36.14300289508558,-5.907937893034153],[-36.144669549237,-5.907937895218042],[-36.14466954781213,-5.9062712411403435],[-36.14383622474729,-5.906271240587522],[-36.14383622586859,-5.905437914387648],[-36.1446695489334,-5.905437914757597],[-36.144669549485265,-5.904604588529659],[-36.14633620154289,-5.904604589856428],[-36.14633620360183,-5.9037712619218],[-36.14883617948664,-5.903771263060517],[-36.148836180257824,-5.904604591078395],[-36.149669506220064,-5.904604591757869],[-36.14966950416127,-5.905437917022503],[-36.15050283030793,-5.9054379179198575],[-36.15050282957356,-5.907104571904982],[-36.15216948077091,-5.907104573365232],[-36.15216948205531,-5.908771224821981],[-36.1530028051719,-5.908771225991586],[-36.15300280493346,-5.91043787946572],[-36.153836131207235,-5.910437879682057],[-36.153836131522596,-5.912104533678815],[-36.15466945633165,-5.912104533124984],[-36.154669454811,-5.912937859954313],[-36.15550278324635,-5.912937861072576],[-36.155502779649424,-5.913771186180327],[-36.15633610826959,-5.9137711875169625],[-36.15633610664939,-5.914604514276444],[-36.157169431870564,-5.9146045152666975],[-36.15716943168777,-5.91627116854805],[-36.16216938609981,-5.916271170923281],[-36.16216938690163,-5.917937823896216],[-36.163002712663136,-5.917937824836339],[-36.163002710435975,-5.919604477771976],[-36.16383603638302,-5.919604479114173],[-36.16383603678755,-5.921271131082284],[-36.165502686834216,-5.921271132404972],[-36.1655026878337,-5.922104460162518],[-36.16633601462103,-5.922104460383147],[-36.16633601161021,-5.922937787027822],[-36.16716933962115,-5.922937786719434],[-36.16716933693793,-5.923771113845902],[-36.16883598978925,-5.9237711140271925],[-36.168835990264476,-5.9246044413534085],[-36.17050264027255,-5.92460444147944],[-36.17050263942614,-5.925437768300157],[-36.17216929286353,-5.925437769358768],[-36.1721692906955,-5.926271095674224],[-36.173002616419375,-5.9262710957843625],[-36.17300261802124,-5.92710442403555],[-36.17383594228084,-5.927104423193835],[-36.1738359435989,-5.927937750008519],[-36.17466926865592,-5.927937751305053],[-36.17466926789807,-5.928771076401324],[-36.17550259328303,-5.9287710770282285],[-36.17550259322014,-5.930437731293689],[-36.17633591803763,-5.930437731293689],[-36.1763359168658,-5.9329377117424755],[-36.18050254581873,-5.932937713539132],[-36.18050254627608,-5.933771040688395],[-36.183835850646474,-5.933771041893973],[-36.18383584888814,-5.934604368766599],[-36.18633582781749,-5.934604371533633],[-36.18633582577713,-5.935437697339306],[-36.183835848353475,-5.935437696080229],[-36.18383584855116,-5.937104349829667],[-36.18300252102163,-5.937104348784779],[-36.18300252033006,-5.939604329656496],[-36.18383584725028,-5.9396043293343],[-36.183835844577885,-5.943770962188937],[-36.18466916914181,-5.943770961510687],[-36.184669167635256,-5.948770922344237],[-36.18383584037664,-5.948770921495736],[-36.18383584164093,-5.949604248775751],[-36.18300251456667,-5.949604247779571],[-36.183002511455776,-5.955437534389008],[-36.182169185312844,-5.95543753317163],[-36.182169183418715,-5.95793751523254],[-36.18300251103033,-5.957937513587192],[-36.18300251004998,-5.958770840357682],[-36.183835834875225,-5.958770840287536],[-36.18383583408163,-5.959604168434065],[-36.184669159235824,-5.959604167695499],[-36.184669158027354,-5.9621041480034584],[-36.18800246098551,-5.962104150430918],[-36.189669114097306,-5.962104151490463],[-36.18966911436821,-5.96127082395299],[-36.191335766285185,-5.961270825397789],[-36.19133576931317,-5.959604172556349],[-36.19300241824038,-5.95960417373596],[-36.1930024194893,-5.958770846372082],[-36.19383574654193,-5.958770846740392],[-36.19383574618269,-5.957937520102514],[-36.19466907238144,-5.9579375210710595],[-36.194669071889884,-5.956270867306142],[-36.19550239737559,-5.956270867801712],[-36.1955023979975,-5.955437541704273],[-36.19633572635655,-5.955437542474704],[-36.19633572551259,-5.95460421621387],[-36.19716905226377,-5.954604216554564],[-36.19716905363387,-5.952937563075984],[-36.19966903112631,-5.952937564424312],[-36.19966903036519,-5.952104238192672],[-36.20133568374107,-5.952104237813128],[-36.20133568420185,-5.95127091165569],[-36.202169009233096,-5.951270911943054],[-36.20216900926658,-5.950437584873567],[-36.20383566153529,-5.950437586358771],[-36.20383566104681,-5.952104240508301],[-36.2046689848449,-5.952104240807315],[-36.20466898575517,-5.952937567257089],[-36.20966894095208,-5.95293756952324],[-36.20966894144351,-5.953770896353506],[-36.21633554820081,-5.953770900309581],[-36.216335547379906,-5.954604227750351],[-36.217168873221596,-5.954604228119282],[-36.217168873144985,-5.953770900352731],[-36.21800219813371,-5.9537709013211755],[-36.21800219824235,-5.95293757456107],[-36.2213355048229,-5.952937576984411],[-36.22133550497777,-5.95127092363908],[-36.22216883089567,-5.951270924233993],[-36.22216883108756,-5.9504375973146315],[-36.22300215719094,-5.9504375977607],[-36.22300215681398,-5.949604270817494],[-36.22383548475343,-5.949604272285103],[-36.22383548333909,-5.950437599131966],[-36.225502135583014,-5.9504376000645856],[-36.22550213326818,-5.949604273173332],[-36.22633546280594,-5.949604274001397],[-36.22633545984227,-5.95127092630078],[-36.22716878419165,-5.951270926691073],[-36.22716878537366,-5.952104254275421],[-36.22800211094917,-5.952104254139126],[-36.228002110810486,-5.952937581040556],[-36.229668761628126,-5.9529375811066405],[-36.22966876196248,-5.953770907792154],[-36.23216874065492,-5.953770910708654],[-36.23216873722359,-5.955437563477147],[-36.2330020639254,-5.9554375643001745],[-36.23300206388425,-5.956270889686634],[-36.23300206388822,-5.957104217153762],[-36.233835390779625,-5.957104218384095],[-36.23383538870859,-5.957937544139583],[-36.234668715033926,-5.9579375445622365],[-36.23466871418938,-5.958770870946944],[-36.23550203994864,-5.958770870561865],[-36.235502037456364,-5.960437524330365],[-36.23633536519807,-5.960437524634199],[-36.236335366239345,-5.961270852440281],[-36.23716868968795,-5.9612708522628255],[-36.237168689600395,-5.962937505927115],[-36.23800201323897,-5.96293750615742],[-36.23800201390285,-5.9637708322972225],[-36.238835340419065,-5.963770833171642],[-36.23883533990588,-5.96543748720089],[-36.239668664961414,-5.965437487312938],[-36.23966866496444,-5.966270813565527],[-36.2405019920014,-5.966270814181231],[-36.24050198941218,-5.9679374674075785],[-36.24133531663951,-5.967937468431252],[-36.24133531687826,-5.968770794938314],[-36.24216864250167,-5.968770795903233],[-36.24216864127831,-5.969604122619145],[-36.24300196723247,-5.969604122917605],[-36.24300196737803,-5.970437449375617],[-36.24383529352109,-5.970437449896659],[-36.243835292204665,-5.971270776563833],[-36.24466861688574,-5.971270776137275],[-36.244668617692874,-5.972104103576305],[-36.245501942421164,-5.972104104261266],[-36.24550194125693,-5.9746040835369865],[-36.24633526811233,-5.974604084208621],[-36.24633526873044,-5.975437411180623],[-36.245501940080466,-5.975437410042017],[-36.24550193871502,-5.977104063968177],[-36.246335265717555,-5.977104064308413],[-36.24633526609793,-5.978770717162054],[-36.247168590602186,-5.978770717489106],[-36.24716858866962,-5.979604043694281],[-36.247168590416166,-5.981270696836701],[-36.24633526307516,-5.981270696419175],[-36.246335263779464,-5.982104024526702],[-36.24550193676579,-5.982104023071667],[-36.245501937184564,-5.982937349381447],[-36.24633526344551,-5.982937349992851],[-36.24633526258514,-5.9846040034815235],[-36.24550193528197,-5.984604003246707],[-36.245501933328676,-5.986270655390851],[-36.24466860710545,-5.9862706549623335],[-36.24466860827172,-5.987103982478936],[-36.2438352831303,-5.987103982042643],[-36.24383528059645,-5.9887706339746645],[-36.24300195445817,-5.988770634841235],[-36.24300195529016,-5.991270615282374],[-36.24383527964171,-5.991270614691755],[-36.24383527773426,-5.9937705939186365],[-36.24466860393079,-5.993770595092654],[-36.24466860185622,-5.9954372479182005],[-36.24550192748979,-5.995437248471932],[-36.245501927467714,-5.996270575158558],[-36.246335254187436,-5.9962705760762125],[-36.24633525449686,-5.9971039032568],[-36.248001905058786,-5.997103904125554],[-36.24800190419248,-5.997937229927378],[-36.24966855730197,-5.997937231599491],[-36.24966855384553,-6.001270537039928],[-36.25050188090351,-6.00127053734294],[-36.250501879001035,-6.002103864824217],[-36.252168531749554,-6.002103866522929],[-36.25216853150317,-6.002937192159444],[-36.25300185629715,-6.002937193414725],[-36.25300185575901,-6.004603846735317],[-36.25383518268044,-6.004603847792784],[-36.25383518177574,-6.005437173559153],[-36.25466850723587,-6.005437173670643],[-36.254668506663066,-6.006270499932522],[-36.255501832313314,-6.006270500267917],[-36.255501832827335,-6.0071038280547],[-36.25633515866778,-6.00710382861404],[-36.256335158004084,-6.007937154838098],[-36.257168483138194,-6.007937155480983],[-36.257168482806506,-6.008770482200899],[-36.258001809169286,-6.008770482319641],[-36.258001807376445,-6.009603809254579],[-36.25883513482619,-6.009603809737979],[-36.25883513633891,-6.010437135813173],[-36.259668461289145,-6.010437136099176],[-36.25966846030234,-6.011270463137932],[-36.26050178648141,-6.011270462899955],[-36.26050178672344,-6.012103790575685],[-36.26216843592208,-6.012103790912968],[-36.262168433799324,-6.016270424490388],[-36.26300176159644,-6.016270424735892],[-36.26300175948286,-6.017103753243084],[-36.2655017359401,-6.0171037535034655],[-36.26550173640073,-6.018770406769587],[-36.266335062268006,-6.018770407305538],[-36.26633505872917,-6.027937000366103],[-36.26716838151255,-6.027937000651458],[-36.26716838247363,-6.028770326924587],[-36.26633505595855,-6.028770326779626],[-36.26633505423868,-6.030436980077453],[-36.26800170746899,-6.030436981151437],[-36.26800170508053,-6.0312703069583415],[-36.268835031980906,-6.031270307739635],[-36.26883503142943,-6.033770287411544],[-36.26883503215707,-6.034603614938342],[-36.26800170406406,-6.034603615048086],[-36.268001703750045,-6.0354369397551455],[-36.266335052747856,-6.035436939531575],[-36.26633505247394,-6.036270265956611],[-36.26550172508073,-6.036270264921178],[-36.26550172513346,-6.037103591473568],[-36.26133509503078,-6.037103589314642],[-36.261335097049276,-6.037936916418971],[-36.260501767945556,-6.037936915710937],[-36.26050176760011,-6.038770242521532],[-36.25966844316515,-6.038770242368512],[-36.25966844441055,-6.037936915884596],[-36.249668532507734,-6.037936909530772],[-36.249668532875845,-6.038770234952179],[-36.24716855400328,-6.038770234017995],[-36.24716855351071,-6.039603560832567],[-36.24716855145866,-6.043770193445332],[-36.24800187682649,-6.043770193803523],[-36.24800187576482,-6.044603521380302],[-36.248835202362194,-6.044603521215321],[-36.24883520076414,-6.047936828025874],[-36.24966852845943,-6.047936828783798],[-36.249668525467946,-6.050436808291765],[-36.25050185067052,-6.0504368092248715],[-36.250501849921605,-6.052103462901557],[-36.24966852277646,-6.052103462204159],[-36.24966852289269,-6.052936789330377],[-36.24883519697038,-6.052936787738433],[-36.248835198451275,-6.053770114246818],[-36.24716854673679,-6.053770113474914],[-36.24716854481061,-6.054603440254109],[-36.24633521916019,-6.054603440185569],[-36.24633521770174,-6.055436766206776],[-36.245501893274046,-6.055436765243911],[-36.245501891148464,-6.054603438846229],[-36.242168591455076,-6.054603437346269],[-36.24216858840625,-6.056270090513587],[-36.24133526311835,-6.0562700892808845],[-36.24133526152131,-6.057936742454302],[-36.24216858681639,-6.057936744058156],[-36.24216858593054,-6.059603396951942],[-36.243001911704084,-6.059603397189545],[-36.24300191152964,-6.061270049804727],[-36.243835235562166,-6.061270051060471],[-36.243835235957306,-6.0629367042864235],[-36.244668562120495,-6.062936705345694],[-36.24466855986101,-6.065436684098914],[-36.243835235196656,-6.065436684540657],[-36.243835235134895,-6.067936664567241],[-36.24300190540665,-6.067936662759868],[-36.24300190604087,-6.068769989885683],[-36.242168579942174,-6.0687699893831395],[-36.24216857910788,-6.06960331636036],[-36.241335253947774,-6.069603316741066],[-36.24133525461974,-6.070436642214692],[-36.24050192605518,-6.070436641887258],[-36.24050192691059,-6.071269968382179],[-36.239668601220416,-6.071269968330795],[-36.23966860032324,-6.072936621342854],[-36.23966860140751,-6.073769947579109],[-36.24050192531551,-6.07376994790598],[-36.24050192119215,-6.079603234865465],[-36.23966859517801,-6.079603234735506],[-36.239668594683415,-6.0812698867881245],[-36.24050192070582,-6.08126988728919],[-36.24050192049763,-6.082936541740291],[-36.23966859536396,-6.082936541008752],[-36.23966859454599,-6.08376986742963],[-36.23716861562919,-6.0837698651054],[-36.23716861484396,-6.084603193066858],[-36.23633528941209,-6.0846031928731295],[-36.236335289235775,-6.08543651919266],[-36.23550196233476,-6.085436517684287],[-36.23550196158633,-6.086269843998316],[-36.23466863741757,-6.086269843655033],[-36.23466863571867,-6.0879364985103335],[-36.23383531007637,-6.087936496667101],[-36.23383530955177,-6.088769822543574],[-36.23300198201425,-6.088769822050821],[-36.23300198153049,-6.089603149839589],[-36.233835309969436,-6.089603150658255],[-36.23383531010316,-6.090436477176677],[-36.234668634248145,-6.090436477518056],[-36.23466863216604,-6.09126980323293],[-36.236335287447965,-6.091269804503671],[-36.2363352864589,-6.092103131939408],[-36.23800193621884,-6.092103132758821],[-36.238001937645926,-6.092936459391342],[-36.23716860990559,-6.092936458798364],[-36.237168608784664,-6.097103091973066],[-36.23716860740386,-6.100436398387712],[-36.23633528132072,-6.100436398224276],[-36.236335280932394,-6.101269725085893],[-36.23550195413478,-6.101269724637244],[-36.23550195331588,-6.102103050607216],[-36.23466862655894,-6.10210305090227],[-36.23466862710381,-6.102936376261899],[-36.2330019751814,-6.102936375856057],[-36.23300197281229,-6.105436355470345],[-36.23216864659832,-6.105436355146633],[-36.23216864830395,-6.106269682130825],[-36.22716869147412,-6.106269678485514],[-36.227168691402255,-6.107103006177216],[-36.2255020390697,-6.107103004981051],[-36.22550204019024,-6.10626967691189],[-36.22383538861487,-6.106269676249694],[-36.22383538484158,-6.110436309564459],[-36.223002058719906,-6.110436309187611],[-36.22300205696447,-6.111269635233458],[-36.22216873461369,-6.111269635275279],[-36.222168732143096,-6.112102962207739],[-36.218835428439206,-6.112102959514761],[-36.218835428827745,-6.112936287341904],[-36.218002103057366,-6.11293628562807],[-36.21800210211755,-6.113769612425062],[-36.2171687753476,-6.113769612203272],[-36.21716877562897,-6.114602939280461],[-36.21633545173254,-6.114602939337126],[-36.21633545172481,-6.1154362646369735],[-36.21550212442129,-6.115436263987299],[-36.215502123698094,-6.11626959017451],[-36.21466879733143,-6.116269590410223],[-36.21466879640717,-6.115436263238156],[-36.21050216990191,-6.115436261799148],[-36.210502168110075,-6.116269587625734],[-36.209668843146936,-6.116269586332489],[-36.20966883811852,-6.122102873756214],[-36.21050216429784,-6.122102874705841],[-36.21050215998855,-6.125436181577209],[-36.20966883558351,-6.125436180170625],[-36.20966883453088,-6.128769486656747],[-36.21050215924077,-6.128769487025308],[-36.210502159251604,-6.13124760603186],[-36.21574920679314,-6.13257185672851],[-36.216442295017146,-6.134602785369742],[-36.21883541680124,-6.134602778699787],[-36.21883541388828,-6.135436105218659],[-36.22216871783947,-6.135436107629801],[-36.22216871787799,-6.138769413958562],[-36.22300204139124,-6.138769413803311],[-36.22300203994774,-6.14043606785331],[-36.22383536649295,-6.1404360676436855],[-36.22383536537203,-6.1429360492326355],[-36.22466869136532,-6.142936048591229],[-36.2246686905534,-6.143769375849558],[-36.223835363941376,-6.143769374389084],[-36.22383536537263,-6.145436028026358],[-36.22466868854818,-6.145436028406241],[-36.22466868785908,-6.147102682277791],[-36.224424796666355,-6.147102682825818],[-36.224960171233576,-6.148173402499403],[-36.22510293913907,-6.15138567531735],[-36.22510293917786,-6.152102643149488],[-36.22550201058258,-6.152102642658404],[-36.22550200988229,-6.1537692949677165],[-36.22633533736234,-6.153769296068549],[-36.226335335439614,-6.155435948757561],[-36.227168661181175,-6.155435950877723],[-36.227168660450424,-6.158089368922092],[-36.22717307019188,-6.158095755496041],[-36.227672756858574,-6.162664320371669],[-36.22610231262657,-6.164091997118456],[-36.22550200460081,-6.164366498674978],[-36.22550200509178,-6.1646025420896144],[-36.224985785268025,-6.164602547125168],[-36.22495994512149,-6.164614362544244],[-36.22519572641793,-6.166217840865807],[-36.22751267473107,-6.1725459643572975],[-36.22723287765963,-6.174583038662627],[-36.22764341807347,-6.174663203185617],[-36.22838317243996,-6.17793576979407],[-36.22883529929609,-6.177935770329671],[-36.22883529935279,-6.178769095809432],[-36.22966862488267,-6.178769097631086],[-36.22966862258203,-6.179602423207561],[-36.23050194920303,-6.179602425397989],[-36.23050194698856,-6.18210240510538],[-36.23133527424213,-6.182102405230664],[-36.23133527341334,-6.182935731623786],[-36.23216859906524,-6.182935731696263],[-36.23216859856555,-6.183878665112188],[-36.23284780711209,-6.184602386670108],[-36.23300192336278,-6.184602386200202],[-36.23300192356165,-6.184766601292251],[-36.23330613081571,-6.185090740331594],[-36.23416908471908,-6.187102368182913],[-36.23466857533106,-6.187102366963503],[-36.234668574992945,-6.187935694045359],[-36.23633522565112,-6.187935694605645],[-36.23633522673176,-6.187102368181644],[-36.23716855188649,-6.18710236827126],[-36.23716855260772,-6.187935695161641],[-36.2396685290739,-6.187935697134718],[-36.239668528632976,-6.1887690228588665],[-36.24383515934014,-6.188769025433885],[-36.24383515870864,-6.187935699529764],[-36.24440874591914,-6.187935700408996],[-36.24466848604662,-6.187440519809065],[-36.2446684869362,-6.183769065601502],[-36.245501813797986,-6.183769066270162],[-36.24550181361989,-6.182935739943319],[-36.24633514156054,-6.182935740610077],[-36.246335140717925,-6.180435759989968],[-36.24716846674768,-6.1804357616379715],[-36.247168467119735,-6.179602435246042],[-36.248001792575174,-6.1796024357231625],[-36.24800179355454,-6.1787691077029985],[-36.24921653838202,-6.17876911143364],[-36.25050177377296,-6.176318383106771],[-36.25050177324028,-6.176269130149516],[-36.250527602580085,-6.176269130194381],[-36.25158888194347,-6.174245356596601],[-36.2508809999515,-6.171054000342392],[-36.25359099982146,-6.169715999983369],[-36.256293999959745,-6.169729999845936],[-36.25888629189255,-6.170435849863675],[-36.260501688244275,-6.170435849053049],[-36.26050168712151,-6.170875675198087],[-36.261354999605416,-6.17110799990041],[-36.26292728698263,-6.1721025098536835],[-36.26383498975904,-6.172102506311201],[-36.263834989383476,-6.172676638400114],[-36.264048999337014,-6.172811999970777],[-36.26415791760466,-6.172935833109887],[-36.26466831481052,-6.172935833134828],[-36.26466831527174,-6.173516121871703],[-36.26673700003867,-6.175868000279974],[-36.271459999660955,-6.177243999833927],[-36.27686300022451,-6.177946999682082],[-36.2836199998669,-6.177981999650446],[-36.291133377689505,-6.174546303234829],[-36.293178685048225,-6.165690123228361],[-36.290906116023216,-6.155244369390381],[-36.28863355596355,-6.147296517024001],[-36.28658824888416,-6.142300720343232],[-36.28454294240857,-6.138667412283967],[-36.28636098718583,-6.134807027783497],[-36.28892199995843,-6.13204499992689],[-36.291970999912614,-6.130369999668726],[-36.29536099984147,-6.128020999693995],[-36.29842699975973,-6.122966999603764],[-36.30013200009423,-6.119933999634274],[-36.30115399985566,-6.11824899946799],[-36.30116399946908,-6.116222000147046],[-36.301849999775015,-6.114197000004061],[-36.30389100020034,-6.111503999818308],[-36.30592399955049,-6.110162000150144],[-36.30829299946252,-6.109497999913317],[-36.31099400008069,-6.109848999988719],[-36.314717000173744,-6.108515999848916],[-36.31742299957351,-6.107852999874441],[-36.32080499963662,-6.10719399971067],[-36.327460607227756,-6.096542339115226],[-36.33735615522606,-6.090029967627808],[-36.352673141866646,-6.080568569202055],[-36.371053526175665,-6.065819926999834],[-36.381357671564295,-6.054967149337468],[-36.39110484503266,-6.035209531759441],[-36.39416824208912,-6.015730192459107],[-36.3940611666107,-6.015437180590636],[-36.39383392881238,-6.01543717900719],[-36.39383392737747,-6.014815336181183],[-36.393756645380506,-6.014603852410431],[-36.39300060177021,-6.014603852007802],[-36.39300060330364,-6.012534866229965],[-36.39253861304718,-6.011270543681437],[-36.392167279032755,-6.011270542890669],[-36.392167279592734,-6.010254297826725],[-36.39131802365539,-6.007930025091129],[-36.39121899968118,-6.007829999424306],[-36.38785700021701,-6.0044339994903],[-36.38495691456894,-6.003051580289882],[-36.38476000735936,-6.003210518165951],[-36.38379752195555,-6.004572931673164],[-36.382298461477525,-6.005786456026805],[-36.38054955708795,-6.006500294490054],[-36.37894342078123,-6.006250451485292],[-36.377944047201915,-6.005643688995051],[-36.37730159299529,-6.00393047671989],[-36.37726590142126,-6.0028240273561515],[-36.37769420405129,-6.001432042637887],[-36.37770227585592,-6.001270616983279],[-36.37716741820796,-6.001270614979344],[-36.37716741755904,-5.999603962312628],[-36.37633409398274,-5.999603961710566],[-36.376334093026,-5.9987706344865375],[-36.37716742032763,-5.998770634569341],[-36.377167420551636,-5.99712395086474],[-36.37372799935222,-5.992197999949905],[-36.373330866579394,-5.99043736729686],[-36.37300079509924,-5.990437365951214],[-36.373000794503916,-5.98960404053372],[-36.37133414304449,-5.9896040387300244],[-36.37133414589901,-5.988770711751737],[-36.370500819491255,-5.988770711399888],[-36.37050081715954,-5.987937384967819],[-36.368834167752965,-5.987937384285645],[-36.36883416858882,-5.987104058070141],[-36.36800084200349,-5.987104057180204],[-36.36800084330626,-5.985437403101746],[-36.36883416691531,-5.985437404970864],[-36.36883416799238,-5.984604078646378],[-36.36800084141351,-5.984604078324928],[-36.368000843622326,-5.982104097642462],[-36.367167520071675,-5.982104097457323],[-36.367167519282646,-5.9796041173404735],[-36.36633419621137,-5.97960411598285],[-36.36633419511387,-5.977104136848047],[-36.36883417323451,-5.9771041388075785],[-36.36883417371533,-5.976270811286402],[-36.370500825945044,-5.976270811665453],[-36.370500825575526,-5.975437485708453],[-36.37300080372147,-5.97543748755257],[-36.37300080292302,-5.974604160303026],[-36.37383412944628,-5.9746041602090445],[-36.373834131587785,-5.972104181029384],[-36.37300080700422,-5.972104181083133],[-36.373000806024095,-5.9712708529951275],[-36.37216748073711,-5.971270853135344],[-36.36800085221436,-5.971270850880752],[-36.36800085143638,-5.970437525123723],[-36.3663342010849,-5.970437523173609],[-36.36633419974615,-5.969604197960062],[-36.363834221552466,-5.969604195693104],[-36.363834222908544,-5.968770868075982],[-36.36300089807719,-5.9687708680192895],[-36.363000896936526,-5.967937541364984],[-36.362167571542514,-5.96793754050528],[-36.36216757233594,-5.9662708869894026],[-36.36133424803274,-5.9662708866849075],[-36.36133424922776,-5.9621042544822105],[-36.35966759686935,-5.9621042542870155],[-36.359667597304096,-5.961270926094695],[-36.35883427193153,-5.961270925866419],[-36.35883427345513,-5.960437599195487],[-36.35800094544451,-5.960437599662038],[-36.358000947442704,-5.959604272594383],[-36.357167622454895,-5.95960427281738],[-36.357167622238364,-5.958770944932971],[-36.3538343184902,-5.958770942409218],[-36.353834320404445,-5.957937615864184],[-36.351334342607686,-5.957937617342224],[-36.35050101329688,-5.957937614587075],[-36.35050101323254,-5.9596042679167045],[-36.3496676872714,-5.959604268046935],[-36.34966768794706,-5.960437593643692],[-36.34883436127851,-5.960437593481389],[-36.34883436154663,-5.9621042467043885],[-36.3480010358207,-5.9621042472296955],[-36.34800103450593,-5.964604226294571],[-36.347167708965635,-5.964604226289584],[-36.34716770638918,-5.965437551410752],[-36.34633438179297,-5.965437552282458],[-36.34633438044295,-5.966270877658647],[-36.34466772747747,-5.966270877544812],[-36.34466772706976,-5.9671042047652],[-36.343834401389756,-5.9671042041998925],[-36.34383440352853,-5.967937529148678],[-36.34133442555022,-5.967937528603993],[-36.34133442490236,-5.968770855537517],[-36.33966777076618,-5.968770853281332],[-36.3396677703051,-5.969604181030677],[-36.33550114279175,-5.969604178526017],[-36.33550114226969,-5.9679375249372075],[-36.33300116386364,-5.967937523621921],[-36.33300116514252,-5.967104197100411],[-36.33216783943605,-5.967104196627322],[-36.332167840584255,-5.965437542675068],[-36.32966786371838,-5.965437542465802],[-36.32966786448734,-5.96460421555158],[-36.328834536101304,-5.964604214340523],[-36.32883454057032,-5.9629375611910564],[-36.328001211480995,-5.962937560253076],[-36.32800121145395,-5.962104234346035],[-36.32716788628308,-5.962104233304357],[-36.32716788673006,-5.961270906999984],[-36.32216793210492,-5.9612709041908065],[-36.32216793061094,-5.962104230114757],[-36.32050127924751,-5.962104229795844],[-36.3205012780014,-5.963770882830777],[-36.31966795363883,-5.963770881601114],[-36.319667952541295,-5.962937556243114],[-36.317167976727525,-5.962937554554661],[-36.317167978182525,-5.962104227677687],[-36.316334649958044,-5.96210422715806],[-36.31633465188687,-5.9612708998834805],[-36.316334651316026,-5.960437573380579],[-36.31716797670687,-5.960437573992689],[-36.31716797722045,-5.9596042486341085],[-36.31800130294076,-5.9596042482056735],[-36.31800130510421,-5.958770920435399],[-36.3188346289371,-5.958770921352899],[-36.31883463099933,-5.95710426948048],[-36.321334611080694,-5.9571042706663295],[-36.321334610362996,-5.956270944269601],[-36.32216793509145,-5.956270943879301],[-36.32216793649611,-5.9554376178773545],[-36.32300126320557,-5.955437617615511],[-36.32300126121306,-5.9546042920563],[-36.323834587073144,-5.954604292391364],[-36.32383458905827,-5.951270985264006],[-36.32466791496139,-5.951270985771622],[-36.32466791799951,-5.948771005681151],[-36.32550124408854,-5.948771005660171],[-36.3255012430893,-5.947937680782709],[-36.326334569366885,-5.947937680609567],[-36.32633456987647,-5.947104354207365],[-36.32550124463775,-5.947104353819872],[-36.32550124486592,-5.9462710259889695],[-36.32466791788424,-5.946271026434469],[-36.32466792003717,-5.942937720372668],[-36.32550124776918,-5.942937720203479],[-36.32550124837346,-5.938771086949438],[-36.326334574214656,-5.9387710873726345],[-36.32633457752333,-5.934604455255465],[-36.32550125093209,-5.934604454744364],[-36.325501252781585,-5.932937800629117],[-36.32466792638199,-5.932937800530113],[-36.324667927887454,-5.928771166836866],[-36.32383460451177,-5.928771167245978],[-36.32383460445483,-5.926271186400212],[-36.3263345836824,-5.926271187654188],[-36.3263345828928,-5.925437862032977],[-36.32383460649733,-5.925437860875129],[-36.32383460721973,-5.924604534478905],[-36.3230012788016,-5.924604534134255],[-36.3230012808334,-5.922104553322166],[-36.32216795454068,-5.922104552968597],[-36.322167956088705,-5.920437898604867],[-36.32300128120139,-5.9204379002202145],[-36.32300128150438,-5.919604573601149],[-36.32216795700585,-5.919604574092503],[-36.32216796231863,-5.912104640375516],[-36.31883465996209,-5.91210463116879],[-36.318834657905484,-5.912937958010223],[-36.3146680277746,-5.91293795513629],[-36.314668028734914,-5.913771281755125],[-36.31383470104117,-5.91377128129426],[-36.31383470219046,-5.914604608911126],[-36.309668071181605,-5.914604606005271],[-36.30966807012825,-5.916271258660811],[-36.308834745361246,-5.916271258127385],[-36.30883474646217,-5.917104586257128],[-36.30800141919553,-5.9171045851502795],[-36.30800141622574,-5.919604564911775],[-36.3071680916937,-5.91960456458689],[-36.30716809081409,-5.9204378911914874],[-36.304668112078325,-5.920437888882869],[-36.30466811242363,-5.92127121536248],[-36.302168135246745,-5.921271213697405],[-36.302168134148495,-5.9204378867511185],[-36.30050148150555,-5.9204378861614675],[-36.30050148253118,-5.9196045601686285],[-36.298834833475155,-5.919604559626819],[-36.298834831552256,-5.920437885104339],[-36.29633485296907,-5.920437883900253],[-36.29633485428047,-5.919604557066413],[-36.29550152687654,-5.9196045572817395],[-36.295501529351064,-5.917104577677037],[-36.294668203316604,-5.917104576851751],[-36.29466820533695,-5.916271249663806],[-36.295501531370924,-5.916271250301763],[-36.295501533116834,-5.911271291398061],[-36.29633486023311,-5.911271291087178],[-36.296334863464594,-5.902938025462813],[-36.29550153781293,-5.902938024231068],[-36.29550154020611,-5.901271370489293],[-36.29466821356466,-5.901271371305084],[-36.29466821360616,-5.900438043894292],[-36.29300156117277,-5.900438044226139],[-36.293001564321784,-5.898771389541191],[-36.29216823584185,-5.898771388823216],[-36.29216823748223,-5.897104736160102],[-36.29133491187915,-5.897104736272443],[-36.291334912958774,-5.89627140916605],[-36.292168239316375,-5.896271409896044],[-36.29216824058465,-5.895438083785994],[-36.29300156444297,-5.895438083942138],[-36.293001566031826,-5.8929381043352835],[-36.29216824245629,-5.892938102962623],[-36.29216824122078,-5.891271449598891],[-36.29133491679638,-5.891271449384018],[-36.29133491570708,-5.890438123634344],[-36.29050158892484,-5.890438122330652],[-36.29050158995259,-5.888771469699661],[-36.289668265150674,-5.88877146908562],[-36.28966826547577,-5.887938141923208],[-36.28883494072084,-5.887938142419932],[-36.28883494047992,-5.887104815597668],[-36.28716828927201,-5.887104813979187],[-36.287168288464805,-5.886271487684011],[-36.28633496276628,-5.886271486598352],[-36.28633496557773,-5.883771506896486],[-36.28550163827518,-5.883771506125548],[-36.28550163929971,-5.882104853222099],[-36.28466831397689,-5.882104853140366],[-36.28466831405737,-5.880438198691931],[-36.28383498981825,-5.8804381991588714],[-36.283834989795466,-5.877938219373367],[-36.28300166305598,-5.877938220014121],[-36.28300166431244,-5.8762715652565465],[-36.28216833893938,-5.876271564667145],[-36.282168338505976,-5.8754382390362645],[-36.28050168742816,-5.87543823819276],[-36.28050168760669,-5.87460491144886],[-36.27966836369356,-5.874604911475631],[-36.27966836448442,-5.873771583431502],[-36.27883503717574,-5.873771583117169],[-36.278835037529575,-5.872104930663811],[-36.278001711445484,-5.872104930008295],[-36.27800171232879,-5.871271603071313],[-36.27716838732821,-5.871271602776938],[-36.27716838674905,-5.8704382760369045],[-36.27633506207765,-5.870438275073838],[-36.276335062048794,-5.868771621950847],[-36.27466841133497,-5.868771621481506],[-36.27466841292197,-5.867938294536256],[-36.27133510762014,-5.867938292876259],[-36.27133510774257,-5.867104966687499],[-36.27050178259383,-5.867104966426449],[-36.270501781536716,-5.866271638655068],[-36.266335152621856,-5.866271636025525],[-36.26633515547397,-5.865438310039678],[-36.26550182980153,-5.865438309183322],[-36.26550182850347,-5.864604982971472],[-36.26466850198079,-5.8646049830839955],[-36.26466850233195,-5.863771654821377],[-36.26050187234402,-5.86377165223282],[-36.26050187467078,-5.862938326362827],[-36.25883522255492,-5.862938325710205],[-36.258835224376,-5.857938365794626],[-36.25966855109915,-5.857938366016173],[-36.25966855049718,-5.857105040626894],[-36.258835226743535,-5.8571050392347574],[-36.25883522947754,-5.852105080322893],[-36.25716857625157,-5.852105078889742],[-36.25716857762212,-5.851271752382991],[-36.255501926181765,-5.851271750706475],[-36.25550192556931,-5.849605097710345],[-36.254668600057535,-5.8496050977389675],[-36.254668602355615,-5.847107552024059],[-36.249439148260436,-5.848337033280956]]]]},"properties":{"OBJECTID":1,"CodigoAPC":"CAAT","ImportBio":"","RestauClas":"Muito Alta","RestClassI":"Muito Alta","DesmatUrg":"Alta","DesertUrg":"Muito Alta","Insubst":207.3,"Prior_Cons":"Alta","Area_ha":84106.7453965,"Area_ha_ma":84105.9688,"Shape_Leng":216809.602684,"Shape_Area":527979167.014}}],"fileName":"AreaPrioAlta"}