{"type":"FeatureCollection","features":[{"type":"Feature","geometry":{"bbox":[793539.7965264756,9331534.059043389,793652.4745671707,9331669.17861322],"type":"LineString","coordinates":[[-30.348124545494166,-6.041124645970666],[-30.34833176453531,-6.0410041873526925],[-30.348288375013382,-6.040956238478162],[-30.348215742039784,-6.0409232631370555],[-30.348144189033963,-6.0409028297272025],[-30.348058809639735,-6.0408582745649415],[-30.347914296158613,-6.040722537798306],[-30.347845120950716,-6.040603692101357],[-30.34778567959482,-6.040418806128743],[-30.34774961394419,-6.040325133378999],[-30.347723859464573,-6.040259311811897],[-30.34767765433399,-6.040165701524549],[-30.347549958673095,-6.040011688463479],[-30.347456764919013,-6.03990034299609],[-30.34731920206708,-6.0400617958945215]]},"properties":{"Id":0,"compriment":167.820920234,"Nome":""}},{"type":"Feature","geometry":{"bbox":[793518.2886241938,9331550.90754117,793632.5027308417,9331685.012549985],"type":"LineString","coordinates":[[-30.34763333863875,-6.039758117057662],[-30.34750038296314,-6.039878173526942],[-30.347574248920807,-6.039940593832928],[-30.347661651398553,-6.04004144161977],[-30.347728106229763,-6.040127841289228],[-30.347750745721022,-6.04018724814243],[-30.347772870066276,-6.040257006436158],[-30.34779109168509,-6.040316272184311],[-30.3478359918149,-6.0403849237749165],[-30.34787456527537,-6.0404637249795705],[-30.34791010540687,-6.040522477495849],[-30.347958158229172,-6.04058667078384],[-30.34802637240604,-6.040679654254364],[-30.34810665936666,-6.040745798070372],[-30.34824653892386,-6.040836142497813],[-30.348321000696227,-6.040902745654545],[-30.34836199580536,-6.040973548595627],[-30.34852635671817,-6.04091405440878]]},"properties":{"Id":0,"compriment":158.796834702,"Nome":""}},{"type":"Feature","geometry":{"bbox":[793128.0477119233,9331210.558300002,793236.154049518,9331309.073370468],"type":"LineString","coordinates":[[-30.35106124670927,-6.043372829642595],[-30.351082841606758,-6.043173993808373],[-30.351288420179642,-6.043173224846404],[-30.351380794041876,-6.0431767239672265],[-30.351461887164454,-6.043200072828967],[-30.351530453732238,-6.0432453577199805],[-30.351584662137128,-6.043296310985175],[-30.351600438864427,-6.0433289912108545],[-30.351731602897313,-6.0434997591669095],[-30.35192912381365,-6.043777144723616],[-30.35203458635815,-6.043897208378973],[-30.351991597617275,-6.043924255974118],[-30.35174308005091,-6.044065701984583]]},"properties":{"Id":0,"compriment":199.109842586,"Nome":""}},{"type":"Feature","geometry":{"bbox":[793339.1475666687,9331318.56749519,793439.5281999996,9331356.215317925],"type":"LineString","coordinates":[[-30.35010516960022,-6.043081658128869],[-30.35013356887884,-6.042950074284624],[-30.349997185196155,-6.042929443195273],[-30.349844371281822,-6.042920090225494],[-30.349732576861417,-6.042923370451019],[-30.349647611355948,-6.04291052282916],[-30.349572551836797,-6.04287780145086],[-30.34952558281335,-6.042857325811532],[-30.349262314292893,-6.042752998722986],[-30.349237312035473,-6.042737209249415],[-30.349228081875705,-6.042814452324627]]},"properties":{"Id":0,"compriment":122.57495993,"Nome":""}},{"type":"Feature","geometry":{"bbox":[793235.306923137,9331313.963735988,793536.6140605109,9331551.323834619],"type":"LineString","coordinates":[[-30.351070093971156,-6.043126173874492],[-30.351031871244267,-6.043127780741698],[-30.350964092193983,-6.043117009591807],[-30.35079247159624,-6.043094892915565],[-30.35068943693107,-6.043064981303499],[-30.350519597632662,-6.043020397951488],[-30.35040483089868,-6.042996406551352],[-30.35032041863081,-6.042968020301491],[-30.350249380100458,-6.042939938369475],[-30.35018237039502,-6.042918331747764],[-30.350126115189784,-6.0429002843571205],[-30.350045462852645,-6.042879647274607],[-30.349969760769966,-6.042877365229812],[-30.349840101276506,-6.042870755293038],[-30.349693845486605,-6.042873790562534],[-30.349654648305922,-6.04286901376849],[-30.349538555799164,-6.042818327457982],[-30.349429995376706,-6.042775267070761],[-30.349303024075578,-6.042707102249821],[-30.34924588653543,-6.042669165453922],[-30.349198267560702,-6.042638448053657],[-30.349157260259844,-6.042598796714852],[-30.349123282227964,-6.042566337068655],[-30.34909562247419,-6.042504052052084],[-30.34906022474302,-6.042416010629903],[-30.349033582595936,-6.042369256425826],[-30.348984130375953,-6.042299596350138],[-30.348916091777667,-6.042218051100391],[-30.348866241649745,-6.042155044512103],[-30.348799853406124,-6.042054896963745],[-30.348775532720442,-6.042021902253687],[-30.348741719691063,-6.041976308557194],[-30.348718622297273,-6.0419373423545375],[-30.348690142353433,-6.041900143127297],[-30.34865348648673,-6.041825245998879],[-30.348638789122955,-6.041777952338921],[-30.34862167720305,-6.041736026613261],[-30.34860167004913,-6.041675556631265],[-30.34857935602173,-6.041598338502835],[-30.348558751780764,-6.041537865609801],[-30.34853818828569,-6.041469024471224],[-30.34848863800689,-6.041344451512194],[-30.34845693060715,-6.041234311524319],[-30.348429906806373,-6.041143322266068],[-30.34840044517384,-6.041062482798181],[-30.348380965284925,-6.041016361305668],[-30.348360660403344,-6.040969780130776]]},"properties":{"Id":0,"compriment":0,"Nome":""}}],"fileName":"cercas"}