{"type":"FeatureCollection","features":[{"type":"Feature","id":1,"properties":{"declividade":45,"area_ha":27.54624,"fonte":"Mapeamento a partir do MDE (ALOS PALSAR - JAXA/METI 2010) e Código Florestal Brasileiro (2012)"},"geometry":{"type":"MultiPolygon","coordinates":[[[[-36.240437,-6.158595],[-36.240897,-6.159163],[-36.241239,-6.159161],[-36.241008,-6.158705],[-36.240437,-6.158595]]],[[[-36.2394,-6.156888],[-36.239515,-6.157002],[-36.239514,-6.156888],[-36.2394,-6.156888]]],[[[-36.240646,-6.155397],[-36.240875,-6.155509],[-36.240874,-6.155395],[-36.240646,-6.155397]]],[[[-36.28502,-6.155696],[-36.285363,-6.155694],[-36.285588,-6.155236],[-36.28536,-6.155237],[-36.28502,-6.155696]]],[[[-36.249883,-6.154998],[-36.249998,-6.155111],[-36.249997,-6.154997],[-36.249883,-6.154998]]],[[[-36.285473,-6.155122],[-36.285815,-6.15512],[-36.285812,-6.154549],[-36.285584,-6.154551],[-36.285473,-6.155122]]],[[[-36.240871,-6.154939],[-36.241213,-6.154822],[-36.241211,-6.15448],[-36.24087,-6.15471],[-36.240871,-6.154939]]],[[[-36.248739,-6.154434],[-36.249196,-6.154545],[-36.24885,-6.153977],[-36.248736,-6.153977],[-36.248739,-6.154434]]],[[[-36.234591,-6.153949],[-36.234821,-6.154176],[-36.235049,-6.154175],[-36.234819,-6.153834],[-36.234591,-6.153949]]],[[[-36.285349,-6.153525],[-36.28478,-6.153643],[-36.283875,-6.154904],[-36.283995,-6.155931],[-36.284799,-6.156725],[-36.285141,-6.156723],[-36.285593,-6.156035],[-36.284794,-6.15604],[-36.284447,-6.155243],[-36.285237,-6.153868],[-36.285808,-6.153979],[-36.285349,-6.153525]]],[[[-36.23459,-6.153721],[-36.23436,-6.153494],[-36.234132,-6.153495],[-36.234363,-6.153836],[-36.23459,-6.153721]]],[[[-36.251101,-6.14894],[-36.250988,-6.149054],[-36.251102,-6.149054],[-36.251101,-6.14894]]],[[[-36.251101,-6.14894],[-36.251214,-6.148825],[-36.2511,-6.148825],[-36.251101,-6.14894]]],[[[-36.277515,-6.140901],[-36.277859,-6.141127],[-36.278087,-6.141126],[-36.277741,-6.140443],[-36.277513,-6.140444],[-36.277515,-6.140901]]],[[[-36.289357,-6.137517],[-36.289702,-6.137858],[-36.28993,-6.137856],[-36.289585,-6.137402],[-36.289357,-6.137517]]],[[[-36.288096,-6.136498],[-36.288669,-6.136951],[-36.288897,-6.136949],[-36.288209,-6.136268],[-36.288096,-6.136498]]],[[[-36.227756,-6.136523],[-36.228097,-6.136292],[-36.228095,-6.136064],[-36.227755,-6.136294],[-36.227756,-6.136523]]],[[[-36.232539,-6.135238],[-36.233571,-6.136145],[-36.234143,-6.13637],[-36.234141,-6.136027],[-36.23288,-6.135007],[-36.232539,-6.135238]]],[[[-36.294704,-6.135201],[-36.295502,-6.135196],[-36.295501,-6.134968],[-36.294702,-6.134973],[-36.294704,-6.135201]]],[[[-36.229908,-6.133998],[-36.230023,-6.134225],[-36.230022,-6.133997],[-36.229908,-6.133998]]],[[[-36.245075,-6.133335],[-36.244962,-6.13345],[-36.245076,-6.133449],[-36.245075,-6.133335]]],[[[-36.245075,-6.133335],[-36.245188,-6.133106],[-36.245074,-6.133107],[-36.245075,-6.133335]]],[[[-36.2307,-6.132851],[-36.231274,-6.133533],[-36.231502,-6.133531],[-36.231155,-6.132734],[-36.2307,-6.132851]]],[[[-35.960993,-6.129729],[-35.961107,-6.129843],[-35.961107,-6.129729],[-35.960993,-6.129729]]],[[[-35.960879,-6.12973],[-35.960993,-6.129729],[-35.960992,-6.129615],[-35.960878,-6.129616],[-35.960879,-6.12973]]],[[[-35.960878,-6.129616],[-35.960763,-6.129502],[-35.960764,-6.129616],[-35.960878,-6.129616]]],[[[-36.297044,-6.126168],[-36.297277,-6.12708],[-36.297505,-6.127078],[-36.297501,-6.126279],[-36.297044,-6.126168]]],[[[-36.298178,-6.125133],[-36.298295,-6.125589],[-36.298292,-6.125133],[-36.298178,-6.125133]]],[[[-35.944878,-6.124793],[-35.944993,-6.124907],[-35.944992,-6.124793],[-35.944878,-6.124793]]],[[[-35.944878,-6.124793],[-35.944649,-6.12468],[-35.94465,-6.124794],[-35.944878,-6.124793]]],[[[-35.943621,-6.124343],[-35.943965,-6.124684],[-35.943964,-6.124456],[-35.943621,-6.124343]]],[[[-35.945902,-6.124217],[-35.946246,-6.124557],[-35.946359,-6.124328],[-35.945902,-6.124217]]],[[[-35.943271,-6.123089],[-35.943388,-6.123545],[-35.944073,-6.123541],[-35.944647,-6.124223],[-35.945216,-6.123992],[-35.945099,-6.123536],[-35.944758,-6.123766],[-35.944185,-6.123198],[-35.943271,-6.123089]]],[[[-35.944068,-6.122742],[-35.944183,-6.122856],[-35.944182,-6.122741],[-35.944068,-6.122742]]],[[[-35.955013,-6.121197],[-35.955128,-6.121311],[-35.955127,-6.121197],[-35.955013,-6.121197]]],[[[-36.294616,-6.120931],[-36.294163,-6.121391],[-36.294164,-6.121619],[-36.294619,-6.121388],[-36.294616,-6.120931]]],[[[-35.954098,-6.120746],[-35.954556,-6.121086],[-35.954784,-6.121084],[-35.95421,-6.120516],[-35.954098,-6.120746]]],[[[-35.952268,-6.12007],[-35.952383,-6.120184],[-35.952382,-6.12007],[-35.952268,-6.12007]]],[[[-35.953294,-6.119836],[-35.952725,-6.120182],[-35.953868,-6.120404],[-35.953294,-6.119836]]],[[[-36.267432,-6.114704],[-36.267776,-6.11493],[-36.268004,-6.114929],[-36.267659,-6.114475],[-36.267432,-6.114704]]],[[[-36.288865,-6.113089],[-36.288753,-6.113318],[-36.288981,-6.113317],[-36.288865,-6.113089]]],[[[-36.288294,-6.112864],[-36.288523,-6.113091],[-36.288637,-6.113091],[-36.288521,-6.112749],[-36.288294,-6.112864]]],[[[-36.288293,-6.11275],[-36.288178,-6.112637],[-36.288179,-6.112751],[-36.288293,-6.11275]]],[[[-36.246545,-6.112319],[-36.24666,-6.112433],[-36.246659,-6.112319],[-36.246545,-6.112319]]],[[[-36.288393,-6.110466],[-36.288622,-6.110579],[-36.288621,-6.110351],[-36.288393,-6.110466]]],[[[-36.289533,-6.110345],[-36.289306,-6.110461],[-36.289534,-6.110459],[-36.289533,-6.110345]]],[[[-36.289533,-6.110345],[-36.289646,-6.11023],[-36.289532,-6.110231],[-36.289533,-6.110345]]],[[[-36.246416,-6.109808],[-36.246302,-6.109923],[-36.246416,-6.109923],[-36.246416,-6.109808]]],[[[-36.246416,-6.109808],[-36.246529,-6.109693],[-36.246415,-6.109694],[-36.246416,-6.109808]]],[[[-36.245834,-6.107871],[-36.24595,-6.108213],[-36.245948,-6.10787],[-36.245834,-6.107871]]],[[[-36.245369,-6.106504],[-36.24594,-6.106614],[-36.246053,-6.106385],[-36.245595,-6.10616],[-36.245369,-6.106504]]],[[[-36.317767,-6.102066],[-36.317883,-6.102294],[-36.317882,-6.102065],[-36.317767,-6.102066]]],[[[-36.262222,-6.101835],[-36.262563,-6.101719],[-36.262446,-6.101149],[-36.262218,-6.10115],[-36.262222,-6.101835]]],[[[-36.244653,-6.101142],[-36.244541,-6.1016],[-36.24477,-6.101712],[-36.244653,-6.101142]]],[[[-36.243849,-6.100234],[-36.244421,-6.100573],[-36.244649,-6.100571],[-36.244647,-6.100229],[-36.244075,-6.09989],[-36.243849,-6.100234]]],[[[-36.298477,-6.099445],[-36.298818,-6.099329],[-36.298816,-6.098986],[-36.298475,-6.099217],[-36.298477,-6.099445]]],[[[-36.298243,-6.098533],[-36.298358,-6.098646],[-36.298357,-6.098532],[-36.298243,-6.098533]]],[[[-36.262191,-6.096812],[-36.262311,-6.097725],[-36.262769,-6.098064],[-36.262191,-6.096812]]],[[[-36.242456,-6.096246],[-36.243493,-6.098067],[-36.243498,-6.098752],[-36.244413,-6.099317],[-36.24476,-6.1],[-36.245098,-6.099427],[-36.243952,-6.098406],[-36.243601,-6.096924],[-36.242912,-6.096243],[-36.242456,-6.096246]]],[[[-35.722667,-6.0933],[-35.722557,-6.094101],[-35.722331,-6.094559],[-35.722786,-6.094214],[-35.722667,-6.0933]]],[[[-36.347317,-6.085444],[-36.347432,-6.085558],[-36.347431,-6.085444],[-36.347317,-6.085444]]],[[[-36.125132,-6.084951],[-36.125247,-6.085064],[-36.125246,-6.08495],[-36.125132,-6.084951]]],[[[-36.125132,-6.084951],[-36.124903,-6.084838],[-36.124904,-6.084952],[-36.125132,-6.084951]]],[[[-36.232577,-6.084546],[-36.232919,-6.084544],[-36.232802,-6.084088],[-36.232574,-6.084089],[-36.232577,-6.084546]]],[[[-35.92423,-6.083451],[-35.924345,-6.083564],[-35.924345,-6.08345],[-35.92423,-6.083451]]],[[[-36.123527,-6.083476],[-36.123756,-6.083703],[-36.123984,-6.083701],[-36.123754,-6.08336],[-36.123527,-6.083476]]],[[[-36.122491,-6.081997],[-36.122608,-6.082453],[-36.122722,-6.082453],[-36.122491,-6.081997]]],[[[-36.12157,-6.080518],[-36.121685,-6.080632],[-36.121684,-6.080518],[-36.12157,-6.080518]]],[[[-36.121453,-6.079948],[-36.121568,-6.080062],[-36.121567,-6.079947],[-36.121453,-6.079948]]],[[[-36.119967,-6.079386],[-36.120196,-6.079613],[-36.120081,-6.079385],[-36.119967,-6.079386]]],[[[-36.119393,-6.078818],[-36.119508,-6.078932],[-36.119507,-6.078818],[-36.119393,-6.078818]]],[[[-36.119735,-6.078702],[-36.119964,-6.078929],[-36.120192,-6.078928],[-36.119962,-6.078587],[-36.119735,-6.078702]]],[[[-35.923289,-6.078202],[-35.923517,-6.078087],[-35.923401,-6.077745],[-35.923287,-6.077746],[-35.923289,-6.078202]]],[[[-35.923973,-6.07797],[-35.923863,-6.07877],[-35.92432,-6.078996],[-35.924427,-6.077625],[-35.923973,-6.07797]]],[[[-35.923738,-6.076715],[-35.92397,-6.077514],[-35.923966,-6.076714],[-35.923738,-6.076715]]],[[[-35.833368,-6.075141],[-35.833483,-6.075255],[-35.833482,-6.075141],[-35.833368,-6.075141]]],[[[-36.154367,-6.071193],[-36.154482,-6.071307],[-36.154481,-6.071193],[-36.154367,-6.071193]]],[[[-36.147408,-6.071006],[-36.147638,-6.071233],[-36.147862,-6.07066],[-36.147408,-6.071006]]],[[[-36.225991,-6.070428],[-36.226106,-6.070542],[-36.226105,-6.070428],[-36.225991,-6.070428]]],[[[-36.225991,-6.070428],[-36.225647,-6.069974],[-36.225418,-6.069975],[-36.225763,-6.07043],[-36.225991,-6.070428]]],[[[-36.220262,-6.065896],[-36.220376,-6.066009],[-36.220376,-6.065895],[-36.220262,-6.065896]]],[[[-36.126948,-6.063703],[-36.127064,-6.06393],[-36.12729,-6.063586],[-36.126948,-6.063703]]],[[[-36.127289,-6.063358],[-36.127403,-6.063472],[-36.127403,-6.063357],[-36.127289,-6.063358]]],[[[-36.21346,-6.053605],[-36.213346,-6.05372],[-36.21346,-6.05372],[-36.21346,-6.053605]]],[[[-36.21346,-6.053605],[-36.213573,-6.053491],[-36.213459,-6.053491],[-36.21346,-6.053605]]],[[[-36.164867,-6.052749],[-36.164982,-6.052863],[-36.164981,-6.052749],[-36.164867,-6.052749]]],[[[-36.211268,-6.049394],[-36.211611,-6.049506],[-36.21138,-6.049051],[-36.211266,-6.049051],[-36.211268,-6.049394]]],[[[-36.240806,-6.049333],[-36.241034,-6.049217],[-36.241033,-6.048989],[-36.240805,-6.049104],[-36.240806,-6.049333]]],[[[-36.210694,-6.048712],[-36.210922,-6.048825],[-36.21115,-6.048824],[-36.21092,-6.048483],[-36.210694,-6.048712]]],[[[-36.281498,-6.045549],[-36.28196,-6.046459],[-36.282874,-6.046796],[-36.282643,-6.046227],[-36.281498,-6.045549]]],[[[-36.280697,-6.045097],[-36.280812,-6.04521],[-36.280811,-6.045096],[-36.280697,-6.045097]]],[[[-36.279784,-6.044988],[-36.279899,-6.045102],[-36.279898,-6.044988],[-36.279784,-6.044988]]],[[[-36.280697,-6.045097],[-36.280467,-6.044756],[-36.280583,-6.045098],[-36.280697,-6.045097]]],[[[-36.279784,-6.044988],[-36.279206,-6.043736],[-36.278291,-6.043285],[-36.278293,-6.043627],[-36.279208,-6.044078],[-36.27967,-6.044989],[-36.279784,-6.044988]]],[[[-36.172907,-6.042769],[-36.173135,-6.042654],[-36.173018,-6.042198],[-36.172904,-6.042198],[-36.172907,-6.042769]]],[[[-36.17164,-6.040607],[-36.17256,-6.041972],[-36.172789,-6.042085],[-36.171866,-6.040263],[-36.17164,-6.040607]]],[[[-36.20116,-6.037351],[-36.201275,-6.037465],[-36.201274,-6.037351],[-36.20116,-6.037351]]],[[[-36.200019,-6.037244],[-36.200248,-6.037357],[-36.20059,-6.037355],[-36.200475,-6.037127],[-36.200019,-6.037244]]],[[[-36.200701,-6.036783],[-36.20093,-6.03701],[-36.200815,-6.036782],[-36.200701,-6.036783]]],[[[-36.003828,-6.036194],[-36.0036,-6.036081],[-36.003601,-6.036309],[-36.003828,-6.036194]]],[[[-36.003827,-6.035965],[-36.003941,-6.03585],[-36.003827,-6.035851],[-36.003827,-6.035965]]],[[[-35.942668,-6.033102],[-35.942783,-6.033216],[-35.942782,-6.033101],[-35.942668,-6.033102]]],[[[-35.942772,-6.03116],[-35.942207,-6.032305],[-35.942553,-6.032874],[-35.942894,-6.032758],[-35.94255,-6.032303],[-35.942772,-6.03116]]],[[[-36.263618,-6.030587],[-36.263506,-6.03093],[-36.263734,-6.030928],[-36.263618,-6.030587]]],[[[-36.262586,-6.029794],[-36.262933,-6.030591],[-36.263161,-6.030589],[-36.262815,-6.029792],[-36.262586,-6.029794]]],[[[-35.943448,-6.029672],[-35.94288,-6.030018],[-35.942542,-6.030933],[-35.94345,-6.030129],[-35.943448,-6.029672]]],[[[-35.949607,-6.02941],[-35.949721,-6.029524],[-35.949721,-6.029409],[-35.949607,-6.02941]]],[[[-36.152863,-6.028157],[-36.152977,-6.02827],[-36.152977,-6.028156],[-36.152863,-6.028157]]],[[[-36.168488,-6.028066],[-36.167806,-6.028527],[-36.167808,-6.028869],[-36.168488,-6.028066]]],[[[-36.168145,-6.027954],[-36.167687,-6.027614],[-36.167458,-6.027615],[-36.167804,-6.028184],[-36.168145,-6.027954]]],[[[-36.004693,-6.02751],[-36.004922,-6.027623],[-36.004921,-6.027509],[-36.004693,-6.02751]]],[[[-36.003892,-6.027058],[-36.004122,-6.027285],[-36.004579,-6.027397],[-36.004119,-6.026828],[-36.003892,-6.027058]]],[[[-36.170304,-6.026685],[-36.17042,-6.027027],[-36.170648,-6.027026],[-36.170304,-6.026685]]],[[[-36.001717,-6.025585],[-36.001946,-6.025698],[-36.001945,-6.025584],[-36.001717,-6.025585]]],[[[-36.252957,-6.021403],[-36.253187,-6.021744],[-36.253071,-6.021402],[-36.252957,-6.021403]]],[[[-36.002375,-6.0209],[-36.00295,-6.021582],[-36.003522,-6.021921],[-36.002602,-6.02067],[-36.002375,-6.0209]]],[[[-36.165023,-6.020665],[-36.165138,-6.020778],[-36.165137,-6.020664],[-36.165023,-6.020665]]],[[[-36.164678,-6.02021],[-36.164795,-6.020666],[-36.165023,-6.020665],[-36.164678,-6.02021]]],[[[-36.164564,-6.020211],[-36.164334,-6.019869],[-36.16445,-6.020211],[-36.164564,-6.020211]]],[[[-36.155204,-6.01878],[-36.15475,-6.019126],[-36.155319,-6.019008],[-36.155204,-6.01878]]],[[[-36.154062,-6.018559],[-36.154519,-6.01867],[-36.154518,-6.018556],[-36.154062,-6.018559]]],[[[-36.001221,-6.018394],[-36.001108,-6.018508],[-36.001222,-6.018508],[-36.001221,-6.018394]]],[[[-36.001221,-6.018394],[-36.001334,-6.018279],[-36.00122,-6.018279],[-36.001221,-6.018394]]],[[[-36.156211,-6.015463],[-36.15644,-6.015576],[-36.156439,-6.015462],[-36.156211,-6.015463]]],[[[-36.183416,-6.0064],[-36.183532,-6.006742],[-36.18376,-6.00674],[-36.183416,-6.0064]]],[[[-36.158779,-6.005972],[-36.15912,-6.005741],[-36.159119,-6.005513],[-36.158891,-6.005514],[-36.158779,-6.005972]]],[[[-36.280198,-5.999891],[-36.2802,-6.000233],[-36.280428,-6.000232],[-36.280198,-5.999891]]],[[[-36.279511,-5.999438],[-36.279969,-5.999892],[-36.280083,-5.999891],[-36.279738,-5.999323],[-36.279511,-5.999438]]],[[[-36.27951,-5.999324],[-36.279395,-5.99921],[-36.279396,-5.999325],[-36.27951,-5.999324]]],[[[-36.245058,-5.977723],[-36.245285,-5.977608],[-36.245283,-5.977265],[-36.245056,-5.977495],[-36.245058,-5.977723]]],[[[-35.922288,-5.976453],[-35.920347,-5.976121],[-35.920123,-5.976807],[-35.922288,-5.976453]]],[[[-36.238433,-5.975936],[-36.238662,-5.976163],[-36.238661,-5.975934],[-36.238433,-5.975936]]],[[[-36.24275,-5.97317],[-36.242979,-5.973397],[-36.242864,-5.973169],[-36.24275,-5.97317]]],[[[-36.240233,-5.971701],[-36.240576,-5.971927],[-36.240919,-5.972039],[-36.240573,-5.97147],[-36.240233,-5.971701]]],[[[-36.308301,-5.970496],[-36.308757,-5.970493],[-36.308756,-5.970379],[-36.308299,-5.970268],[-36.308301,-5.970496]]],[[[-36.296764,-5.96714],[-36.296993,-5.967253],[-36.296992,-5.967139],[-36.296764,-5.96714]]],[[[-36.232174,-5.958733],[-36.23229,-5.959075],[-36.232402,-5.958731],[-36.232174,-5.958733]]],[[[-36.233195,-5.957699],[-36.23331,-5.957927],[-36.233309,-5.957698],[-36.233195,-5.957699]]],[[[-35.901648,-5.956005],[-35.901992,-5.956346],[-35.90222,-5.956345],[-35.901876,-5.95589],[-35.901648,-5.956005]]],[[[-36.229416,-5.955095],[-36.229646,-5.955322],[-36.22953,-5.955095],[-36.229416,-5.955095]]],[[[-35.912095,-5.947042],[-35.91221,-5.947156],[-35.912209,-5.947042],[-35.912095,-5.947042]]],[[[-36.183063,-5.945432],[-36.183179,-5.94566],[-36.183178,-5.945431],[-36.183063,-5.945432]]],[[[-36.183063,-5.945432],[-36.182949,-5.945318],[-36.182949,-5.945432],[-36.183063,-5.945432]]],[[[-36.173735,-5.929501],[-36.17385,-5.929614],[-36.17385,-5.9295],[-36.173735,-5.929501]]],[[[-36.337174,-5.918037],[-36.337061,-5.918151],[-36.337175,-5.918151],[-36.337174,-5.918037]]],[[[-36.337174,-5.918037],[-36.337287,-5.917922],[-36.337173,-5.917922],[-36.337174,-5.918037]]],[[[-36.124176,-5.917337],[-36.124292,-5.917565],[-36.124405,-5.917336],[-36.124176,-5.917337]]],[[[-36.205052,-5.902489],[-36.205167,-5.902603],[-36.205166,-5.902489],[-36.205052,-5.902489]]],[[[-36.27718,-5.894876],[-36.277295,-5.89499],[-36.277294,-5.894876],[-36.27718,-5.894876]]],[[[-36.128609,-5.894361],[-36.128839,-5.894703],[-36.128723,-5.894361],[-36.128609,-5.894361]]],[[[-36.052983,-5.890214],[-36.054461,-5.88952],[-36.054459,-5.889178],[-36.053662,-5.889411],[-36.052983,-5.890214]]],[[[-36.054912,-5.888604],[-36.054799,-5.888719],[-36.054913,-5.888719],[-36.054912,-5.888604]]],[[[-36.054912,-5.888604],[-36.055026,-5.88849],[-36.054912,-5.88849],[-36.054912,-5.888604]]],[[[-36.055025,-5.888375],[-36.055253,-5.888374],[-36.055591,-5.887573],[-36.055135,-5.88769],[-36.055025,-5.888375]]],[[[-36.273359,-5.884852],[-36.273475,-5.88508],[-36.273473,-5.884852],[-36.273359,-5.884852]]],[[[-36.055573,-5.884262],[-36.055461,-5.884605],[-36.055803,-5.884603],[-36.055573,-5.884262]]],[[[-36.054654,-5.883125],[-36.054885,-5.88358],[-36.05557,-5.883691],[-36.055453,-5.883235],[-36.054654,-5.883125]]],[[[-36.199122,-5.882429],[-36.199466,-5.882769],[-36.199694,-5.882768],[-36.199349,-5.882313],[-36.199122,-5.882429]]],[[[-36.193285,-5.878695],[-36.1934,-5.878808],[-36.193399,-5.878694],[-36.193285,-5.878695]]],[[[-36.271272,-5.878928],[-36.271613,-5.878698],[-36.271612,-5.878469],[-36.271271,-5.8787],[-36.271272,-5.878928]]],[[[-36.193154,-5.875613],[-36.193383,-5.87584],[-36.193382,-5.875611],[-36.193154,-5.875613]]],[[[-36.268856,-5.87506],[-36.26897,-5.875174],[-36.26897,-5.87506],[-36.268856,-5.87506]]],[[[-36.192694,-5.87493],[-36.192809,-5.875044],[-36.192808,-5.87493],[-36.192694,-5.87493]]],[[[-36.192694,-5.87493],[-36.192579,-5.874817],[-36.19258,-5.874931],[-36.192694,-5.87493]]],[[[-36.116974,-5.873303],[-36.117089,-5.873416],[-36.117088,-5.873302],[-36.116974,-5.873303]]],[[[-36.116974,-5.873303],[-36.11686,-5.873189],[-36.11686,-5.873303],[-36.116974,-5.873303]]],[[[-36.165165,-5.865953],[-36.165508,-5.866179],[-36.165507,-5.865951],[-36.165165,-5.865953]]],[[[-36.069826,-5.863287],[-36.069941,-5.8634],[-36.06994,-5.863286],[-36.069826,-5.863287]]],[[[-36.06692,-5.85314],[-36.067035,-5.853254],[-36.067034,-5.853139],[-36.06692,-5.85314]]],[[[-35.860839,-5.80512],[-35.861071,-5.805918],[-35.861067,-5.805118],[-35.860839,-5.80512]]]]}}]}