{"type":"FeatureCollection","features":[{"type":"Feature","id":1,"properties":{"area_atuacao":"APP do Açude Eloy de Souza — Cerro Corá","acao":"Áreas de plantio","fonte_dado":"Área de Plantio","nome":"sem individuos arboreos","elemento":1},"geometry":{"type":"Polygon","coordinates":[[[-36.352042,-6.043889],[-36.351585,-6.043296],[-36.351462,-6.0432],[-36.351381,-6.043177],[-36.350942,-6.043169],[-36.35047,-6.043061],[-36.350151,-6.042956],[-36.349997,-6.042929],[-36.349663,-6.042913],[-36.349201,-6.042725],[-36.349105,-6.042635],[-36.349014,-6.042446],[-36.348718,-6.042041],[-36.348597,-6.041818],[-36.348379,-6.041198],[-36.348351,-6.041068],[-36.348307,-6.041004],[-36.348098,-6.041163],[-36.348159,-6.041196],[-36.348193,-6.041243],[-36.348193,-6.041327],[-36.348237,-6.041387],[-36.348273,-6.041404],[-36.348256,-6.041452],[-36.348291,-6.041626],[-36.348286,-6.041695],[-36.348424,-6.041785],[-36.348668,-6.042156],[-36.348721,-6.042199],[-36.348813,-6.042377],[-36.348843,-6.042416],[-36.3489,-6.042434],[-36.348934,-6.042506],[-36.34894,-6.042605],[-36.348985,-6.042685],[-36.349101,-6.0427],[-36.349124,-6.04272],[-36.349133,-6.042787],[-36.349211,-6.042794],[-36.349256,-6.042888],[-36.3493,-6.042898],[-36.349314,-6.042996],[-36.349404,-6.043088],[-36.34948,-6.043093],[-36.349525,-6.043134],[-36.34966,-6.043039],[-36.349954,-6.043011],[-36.350064,-6.043021],[-36.350136,-6.043079],[-36.350151,-6.042961],[-36.350307,-6.043009],[-36.350328,-6.043129],[-36.350517,-6.043131],[-36.350811,-6.043219],[-36.350966,-6.043317],[-36.351012,-6.043389],[-36.351072,-6.043408],[-36.351119,-6.04346],[-36.351309,-6.043519],[-36.351296,-6.043557],[-36.351425,-6.043644],[-36.3515,-6.04377],[-36.351743,-6.044066],[-36.352042,-6.043889]]]}},{"type":"Feature","id":2,"properties":{"area_atuacao":"APP do Açude Eloy de Souza — Cerro Corá","acao":"Áreas de plantio","fonte_dado":"Área de Plantio","nome":"Completo","elemento":2},"geometry":{"type":"Polygon","coordinates":[[[-36.352042,-6.043889],[-36.351585,-6.043296],[-36.351462,-6.0432],[-36.351381,-6.043177],[-36.350942,-6.043169],[-36.350542,-6.043083],[-36.350151,-6.042956],[-36.349997,-6.042929],[-36.349663,-6.042913],[-36.349201,-6.042725],[-36.349105,-6.042635],[-36.349014,-6.042446],[-36.348718,-6.042041],[-36.348597,-6.041818],[-36.348379,-6.041198],[-36.348351,-6.041068],[-36.348275,-6.040959],[-36.348145,-6.040903],[-36.347981,-6.040785],[-36.347855,-6.040653],[-36.347656,-6.040168],[-36.347488,-6.03992],[-36.347428,-6.039877],[-36.347319,-6.040062],[-36.34771,-6.040614],[-36.347508,-6.04081],[-36.34788,-6.041124],[-36.347986,-6.041177],[-36.34814,-6.041196],[-36.348193,-6.041243],[-36.348193,-6.041327],[-36.348237,-6.041387],[-36.348273,-6.041404],[-36.348256,-6.041452],[-36.348291,-6.041626],[-36.348286,-6.041695],[-36.348424,-6.041785],[-36.348668,-6.042156],[-36.348721,-6.042199],[-36.348813,-6.042377],[-36.348843,-6.042416],[-36.3489,-6.042434],[-36.348934,-6.042506],[-36.34894,-6.042605],[-36.348985,-6.042685],[-36.349101,-6.0427],[-36.349124,-6.04272],[-36.349133,-6.042787],[-36.349211,-6.042794],[-36.349256,-6.042888],[-36.3493,-6.042898],[-36.349314,-6.042996],[-36.349404,-6.043088],[-36.34948,-6.043093],[-36.349525,-6.043134],[-36.34966,-6.043039],[-36.349954,-6.043011],[-36.350064,-6.043021],[-36.350136,-6.043079],[-36.350151,-6.042961],[-36.350307,-6.043009],[-36.350328,-6.043129],[-36.350517,-6.043131],[-36.350811,-6.043219],[-36.350966,-6.043317],[-36.351012,-6.043389],[-36.351072,-6.043408],[-36.351119,-6.04346],[-36.351309,-6.043519],[-36.351296,-6.043557],[-36.351425,-6.043644],[-36.3515,-6.04377],[-36.351743,-6.044066],[-36.352042,-6.043889]]]}},{"type":"Feature","id":3,"properties":{"area_atuacao":"APP do Açude Eloy de Souza — Cerro Corá","acao":"Áreas de plantio","fonte_dado":"Área de Plantio","nome":"Parcela 1 - cassiano","elemento":3},"geometry":{"type":"Polygon","coordinates":[[[-36.351743,-6.044066],[-36.352042,-6.043889],[-36.351585,-6.043296],[-36.35153,-6.043245],[-36.351462,-6.0432],[-36.351381,-6.043177],[-36.351083,-6.043174],[-36.351053,-6.043402],[-36.351119,-6.04346],[-36.351309,-6.043519],[-36.351296,-6.043557],[-36.351425,-6.043644],[-36.3515,-6.04377],[-36.351743,-6.044066]]]}},{"type":"Feature","id":4,"properties":{"area_atuacao":"APP do Açude Eloy de Souza — Cerro Corá","acao":"Áreas de plantio","fonte_dado":"Área de Plantio","nome":"Parcela 2 - Ate a pedra","elemento":4},"geometry":{"type":"Polygon","coordinates":[[[-36.351083,-6.043174],[-36.350942,-6.043169],[-36.350714,-6.043133],[-36.350307,-6.043009],[-36.350328,-6.043129],[-36.350517,-6.043131],[-36.350811,-6.043219],[-36.350966,-6.043317],[-36.351012,-6.043389],[-36.351053,-6.043402],[-36.351083,-6.043174]]]}},{"type":"Feature","id":5,"properties":{"area_atuacao":"APP do Açude Eloy de Souza — Cerro Corá","acao":"Áreas de plantio","fonte_dado":"Área de Plantio","nome":"Parcela 3 - da pedra ate caminho","elemento":5},"geometry":{"type":"Polygon","coordinates":[[[-36.350151,-6.042961],[-36.349997,-6.042929],[-36.349648,-6.042911],[-36.349201,-6.042725],[-36.34916,-6.042687],[-36.349124,-6.04272],[-36.349133,-6.042787],[-36.349211,-6.042794],[-36.349256,-6.042888],[-36.3493,-6.042898],[-36.349314,-6.042996],[-36.349404,-6.043088],[-36.34948,-6.043093],[-36.349525,-6.043134],[-36.34966,-6.043039],[-36.349783,-6.043019],[-36.350064,-6.043021],[-36.350136,-6.043079],[-36.350151,-6.042961]]]}},{"type":"Feature","id":6,"properties":{"area_atuacao":"APP do Açude Eloy de Souza — Cerro Corá","acao":"Áreas de plantio","fonte_dado":"Área de Plantio","nome":"Parcela 4 - do caminho ate solo exposto","elemento":6},"geometry":{"type":"Polygon","coordinates":[[[-36.34916,-6.042687],[-36.349105,-6.042635],[-36.349014,-6.042446],[-36.348752,-6.042086],[-36.348613,-6.041847],[-36.348495,-6.041902],[-36.348668,-6.042156],[-36.348721,-6.042199],[-36.348813,-6.042377],[-36.348843,-6.042416],[-36.3489,-6.042434],[-36.348934,-6.042506],[-36.34894,-6.042605],[-36.348985,-6.042685],[-36.349101,-6.0427],[-36.349124,-6.04272],[-36.34916,-6.042687]]]}},{"type":"Feature","id":7,"properties":{"area_atuacao":"APP do Açude Eloy de Souza — Cerro Corá","acao":"Áreas de plantio","fonte_dado":"Área de Plantio","nome":"Parcela 5 - Caminhao pipa","elemento":7},"geometry":{"type":"Polygon","coordinates":[[[-36.348613,-6.041847],[-36.348379,-6.041198],[-36.348351,-6.041068],[-36.348314,-6.041014],[-36.348089,-6.041177],[-36.34814,-6.041196],[-36.348193,-6.041243],[-36.348193,-6.041327],[-36.348237,-6.041387],[-36.348273,-6.041404],[-36.348256,-6.041452],[-36.348291,-6.041626],[-36.348286,-6.041695],[-36.348424,-6.041785],[-36.348495,-6.041902],[-36.348613,-6.041847]]]}},{"type":"Feature","id":8,"properties":{"area_atuacao":"APP do Açude Eloy de Souza — Cerro Corá","acao":"Áreas de plantio","fonte_dado":"Área de Plantio","nome":"Parcela 6 - Café genilson","elemento":8},"geometry":{"type":"Polygon","coordinates":[[[-36.348313,-6.041014],[-36.348275,-6.040959],[-36.348059,-6.040858],[-36.347855,-6.040653],[-36.347638,-6.040138],[-36.347488,-6.03992],[-36.347428,-6.039877],[-36.347319,-6.040062],[-36.34771,-6.040614],[-36.347508,-6.04081],[-36.347651,-6.040919],[-36.34773,-6.041011],[-36.34788,-6.041124],[-36.347986,-6.041177],[-36.348052,-6.041191],[-36.348089,-6.041177],[-36.348313,-6.041014]]]}},{"type":"Feature","id":9,"properties":{"area_atuacao":"APP do Açude Eloy de Souza — Cerro Corá","acao":"Áreas de plantio","fonte_dado":"Área de Plantio","nome":"Clareira genilson","elemento":9},"geometry":{"type":"Polygon","coordinates":[[[-36.34771,-6.040614],[-36.347508,-6.04081],[-36.34756,-6.040849],[-36.347642,-6.04078],[-36.347723,-6.04085],[-36.347891,-6.040911],[-36.347995,-6.040987],[-36.347984,-6.040952],[-36.347875,-6.040835],[-36.34771,-6.040614]]]}}]}
