{"type":"FeatureCollection","features":[{"type":"Feature","id":1,"properties":{"area_atuacao":"Fazenda Mundo Novo — São Tomé","acao":"Área de recuperação","fonte_dado":"Aluviaomundonovo","elemento":1},"geometry":{"type":"Polygon","coordinates":[[[-36.181479,-5.925268],[-36.180385,-5.925601],[-36.180456,-5.925666],[-36.180669,-5.925716],[-36.181022,-5.925932],[-36.181214,-5.926071],[-36.181337,-5.926287],[-36.181639,-5.927101],[-36.181812,-5.927462],[-36.1823,-5.927384],[-36.182012,-5.92661],[-36.181993,-5.926493],[-36.181948,-5.926463],[-36.181958,-5.926408],[-36.1819,-5.926299],[-36.181855,-5.926251],[-36.181847,-5.926137],[-36.181779,-5.925898],[-36.181588,-5.925471],[-36.181479,-5.925268]]]}}]}
