{"type":"FeatureCollection","features":[{"type":"Feature","id":1,"properties":{"area_atuacao":"APP do Açude Eloy de Souza — Cerro Corá","acao":"Cercamento","fonte_dado":"CercasEloy","elemento":1},"geometry":{"type":"LineString","coordinates":[[-36.348313,-6.041014],[-36.348275,-6.040959],[-36.348078,-6.040861],[-36.34798,-6.040785],[-36.347866,-6.04065],[-36.347651,-6.040156],[-36.347488,-6.03992],[-36.347428,-6.039877],[-36.347319,-6.040062]]}},{"type":"Feature","id":2,"properties":{"area_atuacao":"APP do Açude Eloy de Souza — Cerro Corá","acao":"Cercamento","fonte_dado":"CercasEloy","elemento":2},"geometry":{"type":"LineString","coordinates":[[-36.347633,-6.039758],[-36.3475,-6.039878],[-36.347574,-6.039941],[-36.347728,-6.040128],[-36.347791,-6.040316],[-36.34791,-6.040522],[-36.348026,-6.04068],[-36.348247,-6.040836],[-36.348393,-6.040966],[-36.348526,-6.040914]]}},{"type":"Feature","id":3,"properties":{"area_atuacao":"APP do Açude Eloy de Souza — Cerro Corá","acao":"Cercamento","fonte_dado":"CercasEloy","elemento":3},"geometry":{"type":"LineString","coordinates":[[-36.351061,-6.043373],[-36.351083,-6.043174],[-36.351381,-6.043177],[-36.351462,-6.0432],[-36.351585,-6.043296],[-36.352039,-6.043894],[-36.351743,-6.044066]]}},{"type":"Feature","id":4,"properties":{"area_atuacao":"APP do Açude Eloy de Souza — Cerro Corá","acao":"Cercamento","fonte_dado":"CercasEloy","elemento":4},"geometry":{"type":"LineString","coordinates":[[-36.351083,-6.043174],[-36.350951,-6.04317],[-36.350714,-6.043132],[-36.35023,-6.042979],[-36.349997,-6.042929],[-36.349648,-6.042911],[-36.349201,-6.042725],[-36.349105,-6.042635],[-36.349014,-6.042446],[-36.348638,-6.041935],[-36.348449,-6.041346],[-36.348351,-6.04107],[-36.348313,-6.041014]]}},{"type":"Feature","id":5,"properties":{"area_atuacao":"APP do Açude Eloy de Souza — Cerro Corá","acao":"Cercamento","fonte_dado":"CercasEloy","nome":"Porteira 2m","elemento":5},"geometry":{"type":"LineString","coordinates":[[-36.347464,-6.039903],[-36.34748,-6.039913]]}},{"type":"Feature","id":6,"properties":{"area_atuacao":"APP do Açude Eloy de Souza — Cerro Corá","acao":"Cercamento","fonte_dado":"CercasEloy","nome":"Porteira 2m","elemento":6},"geometry":{"type":"LineString","coordinates":[[-36.351919,-6.04373],[-36.351907,-6.043714]]}},{"type":"Feature","id":7,"properties":{"area_atuacao":"APP do Açude Eloy de Souza — Cerro Corá","acao":"Cercamento","fonte_dado":"CercasEloy","nome":"Porteira 4,5m","elemento":7},"geometry":{"type":"LineString","coordinates":[[-36.348434,-6.041302],[-36.348449,-6.041346]]}},{"type":"Feature","id":8,"properties":{"area_atuacao":"APP do Açude Eloy de Souza — Cerro Corá","acao":"Cercamento","fonte_dado":"CercasEloy","elemento":8},"geometry":{"type":"LineString","coordinates":[[-36.348393,-6.040966],[-36.348561,-6.041474],[-36.348585,-6.041621],[-36.34865,-6.041814],[-36.34884,-6.042114],[-36.349034,-6.042363],[-36.349122,-6.042552],[-36.349188,-6.04263],[-36.349442,-6.042778],[-36.349656,-6.042867],[-36.350003,-6.042874],[-36.350094,-6.042889],[-36.350375,-6.043],[-36.350572,-6.043038],[-36.350776,-6.043101],[-36.351074,-6.043135],[-36.351072,-6.043089]]}},{"type":"Feature","id":9,"properties":{"area_atuacao":"APP do Açude Eloy de Souza — Cerro Corá","acao":"Cercamento","fonte_dado":"CercasEloy","nome":"Porteira 2m","elemento":9},"geometry":{"type":"LineString","coordinates":[[-36.349681,-6.042916],[-36.349663,-6.042913]]}},{"type":"Feature","id":10,"properties":{"area_atuacao":"APP do Açude Eloy de Souza — Cerro Corá","acao":"Cercamento","fonte_dado":"CercasEloy","nome":"Porteira 2m","elemento":10},"geometry":{"type":"LineString","coordinates":[[-36.348939,-6.042342],[-36.348928,-6.042326]]}},{"type":"Feature","id":11,"properties":{"area_atuacao":"APP do Açude Eloy de Souza — Cerro Corá","acao":"Cercamento","fonte_dado":"CercasEloy","nome":"Porteira 2m","elemento":11},"geometry":{"type":"LineString","coordinates":[[-36.349338,-6.042722],[-36.349322,-6.042712]]}},{"type":"Feature","id":12,"properties":{"area_atuacao":"APP do Açude Eloy de Souza — Cerro Corá","acao":"Cercamento","fonte_dado":"CercasEloy","nome":"Porteira 2m","elemento":12},"geometry":{"type":"LineString","coordinates":[[-36.348539,-6.041428],[-36.348547,-6.041445]]}}]}