{"type":"FeatureCollection","features":[{"type":"Feature","id":1,"properties":{"valor_referencia":307,"faixa":"284mm/mes - 307mm/mes","fonte":"Interpolação a partir de dados pluviométricos - EMPARN (2022)"},"geometry":{"type":"MultiPolygon","coordinates":[[[[-35.363983,-5.908407],[-35.37282,-5.906795],[-35.37371,-5.895721],[-35.363805,-5.892083],[-35.35908,-5.900553],[-35.363983,-5.908407]]],[[[-35.51851,-5.866264],[-35.537291,-5.865287],[-35.547222,-5.857335],[-35.548959,-5.843368],[-35.539616,-5.830075],[-35.527022,-5.825234],[-35.512403,-5.829883],[-35.505576,-5.841497],[-35.50798,-5.857431],[-35.517617,-5.865149],[-35.51851,-5.866264]]],[[[-35.211462,-5.808065],[-35.224432,-5.806742],[-35.221966,-5.791081],[-35.208641,-5.793667],[-35.207938,-5.802419],[-35.211462,-5.808065]]],[[[-35.774677,-5.746022],[-35.768695,-5.768358],[-35.76697,-5.797298],[-35.771284,-5.841989],[-35.766863,-5.856305],[-35.762398,-5.861303],[-35.741157,-5.879195],[-35.714086,-5.902805],[-35.699285,-5.90677],[-35.68671,-5.900998],[-35.660287,-5.869629],[-35.638767,-5.851323],[-35.632049,-5.850922],[-35.629847,-5.853386],[-35.609576,-5.851012],[-35.577145,-5.845248],[-35.573641,-5.849149],[-35.569854,-5.857402],[-35.563889,-5.868377],[-35.561327,-5.882799],[-35.562016,-5.894359],[-35.561389,-5.904877],[-35.574438,-5.923502],[-35.601779,-5.947931],[-35.613648,-5.964923],[-35.617792,-5.988245],[-35.612926,-6.012715],[-35.607871,-6.025864],[-35.601242,-6.040924],[-35.598783,-6.048886],[-35.599545,-6.048977],[-35.600117,-6.048119],[-35.601247,-6.047739],[-35.601749,-6.047982],[-35.601973,-6.049004],[-35.603984,-6.049706],[-35.605514,-6.050833],[-35.605492,-6.05189],[-35.606256,-6.052517],[-35.606854,-6.052529],[-35.607001,-6.052074],[-35.608312,-6.052289],[-35.609016,-6.052965],[-35.60843,-6.054476],[-35.609453,-6.056269],[-35.610821,-6.055922],[-35.611139,-6.057689],[-35.611726,-6.058073],[-35.611544,-6.058636],[-35.610806,-6.058639],[-35.612373,-6.061385],[-35.621067,-6.066348],[-35.625442,-6.065367],[-35.626313,-6.064537],[-35.627548,-6.064895],[-35.62993,-6.064361],[-35.631964,-6.065685],[-35.632686,-6.065321],[-35.633623,-6.066766],[-35.637454,-6.06926],[-35.638062,-6.07163],[-35.639039,-6.072694],[-35.63901,-6.074147],[-35.639595,-6.074745],[-35.644901,-6.072928],[-35.660012,-6.069978],[-35.661979,-6.067931],[-35.704752,-6.065965],[-35.735143,-6.070406],[-35.754295,-6.08202],[-35.7583,-6.081939],[-35.772356,-6.094061],[-35.782657,-6.102228],[-35.798169,-6.107262],[-35.819849,-6.101705],[-35.882377,-6.061666],[-35.940481,-6.033477],[-35.955143,-6.021641],[-35.96429,-5.99845],[-35.96702,-5.967157],[-35.962693,-5.946036],[-35.950569,-5.931016],[-35.9304,-5.921231],[-35.883496,-5.912075],[-35.861769,-5.900882],[-35.849225,-5.887826],[-35.846649,-5.868877],[-35.862854,-5.828635],[-35.867122,-5.806773],[-35.866624,-5.782398],[-35.862423,-5.766005],[-35.853994,-5.749643],[-35.837391,-5.733691],[-35.831578,-5.731805],[-35.820356,-5.732625],[-35.811009,-5.73492],[-35.808623,-5.735928],[-35.807903,-5.735683],[-35.806832,-5.735947],[-35.796337,-5.729113],[-35.789434,-5.727791],[-35.783658,-5.733166],[-35.774677,-5.746022]],[[-35.821856,-5.842465],[-35.810449,-5.841046],[-35.807495,-5.842181],[-35.806603,-5.841067],[-35.79545,-5.832136],[-35.790724,-5.815585],[-35.794788,-5.801369],[-35.802286,-5.792006],[-35.815038,-5.787104],[-35.829314,-5.789751],[-35.840482,-5.803035],[-35.842504,-5.819293],[-35.835678,-5.83434],[-35.821856,-5.842465]],[[-35.886766,-5.932503],[-35.917281,-5.930684],[-35.932118,-5.936008],[-35.940286,-5.945149],[-35.944823,-5.959841],[-35.937758,-5.992905],[-35.933646,-6.00826],[-35.922794,-6.025813],[-35.897053,-6.044494],[-35.87274,-6.055653],[-35.85244,-6.061922],[-35.825557,-6.062934],[-35.82461,-6.061875],[-35.816357,-6.058087],[-35.806062,-6.052493],[-35.792927,-6.037791],[-35.785916,-6.022515],[-35.780598,-5.999661],[-35.786917,-5.976067],[-35.796674,-5.959365],[-35.819623,-5.93886],[-35.842953,-5.929891],[-35.886766,-5.932503]],[[-35.697119,-6.040859],[-35.693979,-6.035971],[-35.692231,-6.031562],[-35.699367,-6.02393],[-35.707347,-6.028744],[-35.705774,-6.039389],[-35.697119,-6.040859]]]]}},{"type":"Feature","id":2,"properties":{"valor_referencia":284,"faixa":"244mm/mes - 284mm/mes","fonte":"Interpolação a partir de dados pluviométricos - EMPARN (2022)"},"geometry":{"type":"MultiPolygon","coordinates":[[[[-35.697119,-6.040859],[-35.705774,-6.039389],[-35.707347,-6.028744],[-35.699367,-6.02393],[-35.692231,-6.031562],[-35.693979,-6.035971],[-35.697119,-6.040859]]],[[[-35.819623,-5.93886],[-35.796674,-5.959365],[-35.786917,-5.976067],[-35.780598,-5.999661],[-35.785916,-6.022515],[-35.792927,-6.037791],[-35.806062,-6.052493],[-35.816357,-6.058087],[-35.82461,-6.061875],[-35.825557,-6.062934],[-35.85244,-6.061922],[-35.87274,-6.055653],[-35.897053,-6.044494],[-35.922794,-6.025813],[-35.933646,-6.00826],[-35.937758,-5.992905],[-35.944823,-5.959841],[-35.940286,-5.945149],[-35.932118,-5.936008],[-35.917281,-5.930684],[-35.886766,-5.932503],[-35.842953,-5.929891],[-35.819623,-5.93886]],[[-35.851646,-6.038852],[-35.850735,-6.037756],[-35.836536,-6.031598],[-35.825372,-6.015883],[-35.82264,-5.997773],[-35.828666,-5.981734],[-35.839737,-5.968458],[-35.854519,-5.962047],[-35.872479,-5.963878],[-35.887197,-5.972308],[-35.899642,-5.98729],[-35.903625,-6.000861],[-35.902538,-6.011521],[-35.895418,-6.023953],[-35.881646,-6.03452],[-35.870248,-6.037865],[-35.851646,-6.038852]]],[[[-35.806603,-5.841067],[-35.807495,-5.842181],[-35.810449,-5.841046],[-35.821856,-5.842465],[-35.835678,-5.83434],[-35.842504,-5.819293],[-35.840482,-5.803035],[-35.829314,-5.789751],[-35.815038,-5.787104],[-35.802286,-5.792006],[-35.794788,-5.801369],[-35.790724,-5.815585],[-35.79545,-5.832136],[-35.806603,-5.841067]]]]}},{"type":"Feature","id":3,"properties":{"valor_referencia":425,"faixa":"375mm/mes -425mm/mes","fonte":"Interpolação a partir de dados pluviométricos - EMPARN (2022)"},"geometry":{"type":"MultiPolygon","coordinates":[[[[-35.915865,-6.121133],[-35.926567,-6.118153],[-35.934495,-6.112033],[-35.93676,-6.096708],[-35.929137,-6.086831],[-35.917029,-6.083301],[-35.903462,-6.088854],[-35.898936,-6.100366],[-35.901815,-6.113295],[-35.908583,-6.117378],[-35.914991,-6.12],[-35.915865,-6.121133]]],[[[-36.074406,-6.038852],[-36.10776,-6.037643],[-36.127066,-6.028276],[-36.146712,-6.0094],[-36.155482,-5.992376],[-36.159668,-5.976044],[-36.160092,-5.955284],[-36.155864,-5.93794],[-36.15016,-5.926184],[-36.137882,-5.909621],[-36.120282,-5.897691],[-36.104761,-5.891395],[-36.071085,-5.890708],[-36.049677,-5.899152],[-36.034086,-5.914131],[-36.02409,-5.930615],[-36.017231,-5.954317],[-36.019674,-5.988312],[-36.028911,-6.00735],[-36.047782,-6.026992],[-36.060982,-6.033792],[-36.073422,-6.037829],[-36.074406,-6.038852]]],[[[-35.933927,-5.898373],[-35.952184,-5.896511],[-35.969847,-5.888629],[-35.982407,-5.873445],[-35.987033,-5.856541],[-35.981853,-5.838537],[-35.975128,-5.83073],[-35.962116,-5.821505],[-35.946279,-5.81717],[-35.928864,-5.820002],[-35.909898,-5.831882],[-35.899226,-5.851008],[-35.897935,-5.867078],[-35.905646,-5.884358],[-35.917457,-5.892733],[-35.924821,-5.895437],[-35.932998,-5.897295],[-35.933927,-5.898373]]],[[[-35.289385,-5.77752],[-35.286859,-5.802298],[-35.29354,-5.825064],[-35.300922,-5.833951],[-35.313047,-5.840896],[-35.332644,-5.842893],[-35.355138,-5.836292],[-35.370816,-5.825154],[-35.379968,-5.81359],[-35.384772,-5.800807],[-35.386618,-5.782695],[-35.381864,-5.766496],[-35.37712,-5.758805],[-35.376024,-5.757894],[-35.375145,-5.759373],[-35.370392,-5.764674],[-35.361727,-5.76676],[-35.354037,-5.766341],[-35.349218,-5.766832],[-35.326763,-5.760997],[-35.316915,-5.754791],[-35.313373,-5.753751],[-35.312367,-5.754022],[-35.308429,-5.75268],[-35.307115,-5.749053],[-35.305784,-5.74786],[-35.295834,-5.760356],[-35.289385,-5.77752]]]]}},{"type":"Feature","id":4,"properties":{"valor_referencia":336,"faixa":"307mm/mes - 336mm/mes","fonte":"Interpolação a partir de dados pluviométricos - EMPARN (2022)"},"geometry":{"type":"MultiPolygon","coordinates":[[[[-35.199276,-5.759557],[-35.200271,-5.764065],[-35.199176,-5.771891],[-35.198378,-5.77462],[-35.198014,-5.780719],[-35.199467,-5.782017],[-35.20369,-5.784557],[-35.204126,-5.788654],[-35.202425,-5.792111],[-35.202079,-5.797926],[-35.203404,-5.80483],[-35.203161,-5.806019],[-35.204406,-5.815329],[-35.205022,-5.815585],[-35.206069,-5.817108],[-35.210536,-5.818129],[-35.216536,-5.817152],[-35.22263,-5.815205],[-35.227257,-5.814281],[-35.236519,-5.822185],[-35.237767,-5.823671],[-35.240103,-5.828011],[-35.242225,-5.835267],[-35.244519,-5.841234],[-35.249414,-5.842373],[-35.253054,-5.841878],[-35.255567,-5.845246],[-35.259627,-5.848202],[-35.260555,-5.841103],[-35.263702,-5.803253],[-35.261992,-5.781978],[-35.258549,-5.762986],[-35.25762,-5.755887],[-35.255144,-5.753116],[-35.254192,-5.75311],[-35.246526,-5.754827],[-35.244678,-5.756358],[-35.239139,-5.758841],[-35.235188,-5.756527],[-35.231115,-5.755288],[-35.230687,-5.754788],[-35.231476,-5.752066],[-35.233268,-5.751057],[-35.236178,-5.745518],[-35.23033,-5.743081],[-35.229901,-5.741511],[-35.230577,-5.741004],[-35.230721,-5.738587],[-35.229442,-5.736817],[-35.219403,-5.736219],[-35.21481,-5.737671],[-35.204452,-5.742558],[-35.203479,-5.74571],[-35.203267,-5.749129],[-35.202033,-5.751176],[-35.20089,-5.752201],[-35.197725,-5.753602],[-35.195168,-5.755887],[-35.199276,-5.759557]],[[-35.211462,-5.808065],[-35.207938,-5.802419],[-35.208641,-5.793667],[-35.221966,-5.791081],[-35.224432,-5.806742],[-35.211462,-5.808065]]],[[[-35.843495,-5.728805],[-35.841809,-5.729532],[-35.837696,-5.729662],[-35.83251,-5.728708],[-35.831578,-5.731805],[-35.837391,-5.733691],[-35.853994,-5.749643],[-35.862423,-5.766005],[-35.866624,-5.782398],[-35.867122,-5.806773],[-35.862854,-5.828635],[-35.846649,-5.868877],[-35.849225,-5.887826],[-35.861769,-5.900882],[-35.883496,-5.912075],[-35.9304,-5.921231],[-35.950569,-5.931016],[-35.962693,-5.946036],[-35.96702,-5.967157],[-35.96429,-5.99845],[-35.955143,-6.021641],[-35.940481,-6.033477],[-35.882377,-6.061666],[-35.819849,-6.101705],[-35.798169,-6.107262],[-35.782657,-6.102228],[-35.772356,-6.094061],[-35.7583,-6.081939],[-35.754295,-6.08202],[-35.735143,-6.070406],[-35.704752,-6.065965],[-35.661979,-6.067931],[-35.660012,-6.069978],[-35.644901,-6.072928],[-35.639595,-6.074745],[-35.639374,-6.075747],[-35.64219,-6.080538],[-35.643562,-6.07995],[-35.644886,-6.080383],[-35.64573,-6.079716],[-35.646168,-6.080619],[-35.646671,-6.080544],[-35.648339,-6.079846],[-35.648321,-6.078966],[-35.650032,-6.078476],[-35.65037,-6.077566],[-35.651395,-6.077796],[-35.652385,-6.076676],[-35.66722,-6.075971],[-35.671021,-6.075374],[-35.672306,-6.076731],[-35.673106,-6.079064],[-35.674002,-6.080031],[-35.676932,-6.080958],[-35.681371,-6.079895],[-35.681728,-6.081037],[-35.680943,-6.084107],[-35.681942,-6.08789],[-35.680932,-6.090657],[-35.681137,-6.092791],[-35.6821,-6.094441],[-35.681447,-6.096031],[-35.682029,-6.102106],[-35.683784,-6.10453],[-35.684709,-6.104311],[-35.685669,-6.106249],[-35.685402,-6.106767],[-35.686633,-6.10733],[-35.686317,-6.108032],[-35.697866,-6.12365],[-35.699694,-6.126579],[-35.702221,-6.132471],[-35.704942,-6.134992],[-35.705797,-6.134961],[-35.707136,-6.1358],[-35.707031,-6.136724],[-35.708789,-6.139204],[-35.709929,-6.139209],[-35.70964,-6.139771],[-35.710091,-6.140337],[-35.709969,-6.140918],[-35.712153,-6.143473],[-35.714139,-6.148264],[-35.715309,-6.148961],[-35.715604,-6.149621],[-35.716751,-6.149278],[-35.717344,-6.149847],[-35.716495,-6.150489],[-35.718153,-6.152277],[-35.720991,-6.153176],[-35.72217,-6.153292],[-35.723494,-6.152839],[-35.724207,-6.153581],[-35.724775,-6.153288],[-35.725451,-6.154588],[-35.726573,-6.154943],[-35.730632,-6.158704],[-35.73265,-6.159936],[-35.732773,-6.16128],[-35.734553,-6.165051],[-35.736334,-6.16625],[-35.744148,-6.166133],[-35.744941,-6.165444],[-35.747929,-6.166023],[-35.752739,-6.170097],[-35.753649,-6.171323],[-35.754563,-6.171575],[-35.759361,-6.175511],[-35.75946,-6.175798],[-35.758828,-6.176003],[-35.758828,-6.176782],[-35.760296,-6.178366],[-35.762341,-6.179331],[-35.76284,-6.178592],[-35.767102,-6.183228],[-35.774421,-6.18238],[-35.776325,-6.179431],[-35.777342,-6.176439],[-35.778758,-6.175663],[-35.779302,-6.17482],[-35.784168,-6.172822],[-35.786191,-6.171591],[-35.799928,-6.166348],[-35.812432,-6.165104],[-35.819037,-6.168849],[-35.826556,-6.172361],[-35.829828,-6.171214],[-35.834738,-6.168568],[-35.835416,-6.168906],[-35.836803,-6.168401],[-35.837522,-6.168771],[-35.839219,-6.168672],[-35.843773,-6.167283],[-35.845999,-6.164881],[-35.846087,-6.163703],[-35.847791,-6.161842],[-35.849001,-6.161641],[-35.849686,-6.160901],[-35.864733,-6.160305],[-35.869616,-6.158966],[-35.8648,-6.145159],[-35.861221,-6.125981],[-35.865086,-6.104232],[-35.875032,-6.085929],[-35.89398,-6.068999],[-35.910664,-6.061341],[-35.929299,-6.057974],[-35.973759,-6.060624],[-35.988215,-6.055437],[-35.995079,-6.038072],[-35.989958,-5.955925],[-35.986798,-5.938141],[-35.980724,-5.926964],[-35.966295,-5.917787],[-35.916552,-5.9068],[-35.904357,-5.902425],[-35.889495,-5.893236],[-35.879066,-5.878867],[-35.876788,-5.858014],[-35.881426,-5.836304],[-35.893849,-5.808913],[-35.905769,-5.789631],[-35.909845,-5.78599],[-35.907688,-5.783854],[-35.90554,-5.782524],[-35.901873,-5.778844],[-35.896875,-5.770864],[-35.893565,-5.767286],[-35.893006,-5.767105],[-35.892088,-5.765274],[-35.889382,-5.763194],[-35.889025,-5.761726],[-35.887503,-5.760651],[-35.885102,-5.756828],[-35.885514,-5.756335],[-35.884242,-5.753482],[-35.883299,-5.752381],[-35.881906,-5.752187],[-35.880984,-5.750403],[-35.880866,-5.748842],[-35.876566,-5.745408],[-35.877118,-5.744878],[-35.87724,-5.743739],[-35.87674,-5.742619],[-35.860737,-5.724044],[-35.857247,-5.723661],[-35.852575,-5.724706],[-35.849489,-5.727026],[-35.847944,-5.72729],[-35.845521,-5.728642],[-35.843495,-5.728805]]],[[[-35.717148,-5.692397],[-35.717347,-5.69306],[-35.71686,-5.693025],[-35.715309,-5.697256],[-35.714124,-5.698988],[-35.712789,-5.698908],[-35.712126,-5.699863],[-35.710869,-5.69952],[-35.709692,-5.699858],[-35.709115,-5.698689],[-35.708111,-5.698629],[-35.707166,-5.699143],[-35.707141,-5.700279],[-35.70587,-5.700435],[-35.705155,-5.701558],[-35.704185,-5.700762],[-35.699459,-5.702931],[-35.699423,-5.703644],[-35.696907,-5.705494],[-35.695054,-5.708048],[-35.694792,-5.709389],[-35.693313,-5.711873],[-35.691725,-5.713002],[-35.691741,-5.713786],[-35.69084,-5.714546],[-35.690612,-5.715917],[-35.689855,-5.716946],[-35.686299,-5.720112],[-35.684607,-5.722443],[-35.678987,-5.722778],[-35.67774,-5.723233],[-35.676226,-5.722943],[-35.675653,-5.721889],[-35.674266,-5.720996],[-35.667759,-5.705971],[-35.666209,-5.704794],[-35.663003,-5.704593],[-35.655897,-5.705125],[-35.648092,-5.700514],[-35.645951,-5.700099],[-35.643985,-5.700287],[-35.640497,-5.70419],[-35.63905,-5.706695],[-35.636725,-5.707675],[-35.636719,-5.708633],[-35.634813,-5.708226],[-35.633612,-5.709149],[-35.633142,-5.708993],[-35.630704,-5.710112],[-35.630061,-5.71104],[-35.626472,-5.713894],[-35.625228,-5.719241],[-35.625011,-5.724327],[-35.623777,-5.725476],[-35.623547,-5.726465],[-35.61175,-5.72921],[-35.610639,-5.731085],[-35.60828,-5.732285],[-35.604881,-5.735971],[-35.60099,-5.738689],[-35.598857,-5.742484],[-35.597969,-5.741975],[-35.596802,-5.742001],[-35.592303,-5.744757],[-35.589998,-5.744895],[-35.588249,-5.745606],[-35.587725,-5.744908],[-35.583327,-5.744814],[-35.582182,-5.745412],[-35.581274,-5.744936],[-35.580109,-5.745006],[-35.575926,-5.742879],[-35.575321,-5.74196],[-35.572536,-5.741788],[-35.571944,-5.740963],[-35.570964,-5.740487],[-35.571162,-5.739182],[-35.570452,-5.738067],[-35.570525,-5.736848],[-35.569577,-5.736373],[-35.569446,-5.735269],[-35.570234,-5.734593],[-35.570141,-5.733174],[-35.569574,-5.732667],[-35.570041,-5.732038],[-35.569741,-5.730745],[-35.566837,-5.729849],[-35.563681,-5.72948],[-35.563581,-5.728843],[-35.561956,-5.728609],[-35.560717,-5.727457],[-35.560179,-5.724917],[-35.55893,-5.724026],[-35.558863,-5.722899],[-35.55954,-5.722714],[-35.557056,-5.717301],[-35.547165,-5.72085],[-35.547149,-5.721506],[-35.545889,-5.721974],[-35.544639,-5.72181],[-35.543519,-5.722158],[-35.543434,-5.722881],[-35.542731,-5.723035],[-35.539444,-5.722557],[-35.537323,-5.719891],[-35.535208,-5.718413],[-35.533143,-5.718631],[-35.527736,-5.724681],[-35.52768,-5.725655],[-35.525742,-5.725299],[-35.524794,-5.724466],[-35.5188,-5.721443],[-35.516964,-5.72172],[-35.517419,-5.720789],[-35.514786,-5.717842],[-35.51412,-5.717699],[-35.50987,-5.722456],[-35.509739,-5.723657],[-35.508349,-5.724285],[-35.506567,-5.727109],[-35.504291,-5.72853],[-35.503069,-5.730106],[-35.502072,-5.729768],[-35.500067,-5.731044],[-35.49997,-5.731811],[-35.499121,-5.731645],[-35.497375,-5.732756],[-35.497443,-5.733892],[-35.499664,-5.735142],[-35.499003,-5.73649],[-35.498164,-5.736485],[-35.497204,-5.737138],[-35.493326,-5.740603],[-35.494358,-5.741777],[-35.495907,-5.742161],[-35.495576,-5.743488],[-35.49462,-5.743297],[-35.494106,-5.743941],[-35.493729,-5.743706],[-35.489103,-5.745829],[-35.488302,-5.747332],[-35.488365,-5.748383],[-35.48886,-5.748685],[-35.489014,-5.749588],[-35.4885,-5.750648],[-35.48937,-5.765248],[-35.491004,-5.768417],[-35.490219,-5.769488],[-35.489628,-5.769579],[-35.489706,-5.770882],[-35.479493,-5.768172],[-35.477708,-5.766566],[-35.476924,-5.764539],[-35.474872,-5.762243],[-35.471173,-5.760391],[-35.464268,-5.758542],[-35.458867,-5.758864],[-35.457182,-5.760808],[-35.452614,-5.760903],[-35.44573,-5.757015],[-35.440243,-5.755887],[-35.43879,-5.775987],[-35.434291,-5.795322],[-35.430052,-5.809051],[-35.422476,-5.825558],[-35.40839,-5.841322],[-35.398927,-5.846465],[-35.391131,-5.849262],[-35.361155,-5.857243],[-35.330512,-5.86844],[-35.314758,-5.877245],[-35.313811,-5.878305],[-35.318837,-5.887968],[-35.322943,-5.903995],[-35.326284,-5.905695],[-35.332802,-5.907479],[-35.341834,-5.909126],[-35.348997,-5.90997],[-35.349886,-5.910595],[-35.352583,-5.911087],[-35.354565,-5.913882],[-35.355417,-5.914481],[-35.355217,-5.914802],[-35.356551,-5.916684],[-35.357425,-5.917251],[-35.357307,-5.918085],[-35.358929,-5.922358],[-35.359669,-5.922492],[-35.361278,-5.923922],[-35.360343,-5.924002],[-35.359746,-5.924512],[-35.360887,-5.927518],[-35.361455,-5.927397],[-35.362966,-5.92904],[-35.362737,-5.933495],[-35.364223,-5.934075],[-35.364338,-5.935236],[-35.364918,-5.935576],[-35.370018,-5.937112],[-35.37104,-5.936932],[-35.372203,-5.938412],[-35.373774,-5.938183],[-35.373507,-5.939925],[-35.377442,-5.944492],[-35.378063,-5.944637],[-35.378109,-5.945267],[-35.379612,-5.947011],[-35.381906,-5.948035],[-35.382171,-5.947522],[-35.383592,-5.948306],[-35.384689,-5.948],[-35.385429,-5.949607],[-35.385947,-5.949838],[-35.387631,-5.955989],[-35.389042,-5.959601],[-35.389563,-5.960066],[-35.388734,-5.962804],[-35.38905,-5.963565],[-35.387729,-5.964197],[-35.38692,-5.965647],[-35.390342,-5.966413],[-35.390586,-5.967186],[-35.391541,-5.967302],[-35.392443,-5.968426],[-35.391905,-5.969193],[-35.392256,-5.969358],[-35.392118,-5.970086],[-35.395014,-5.977718],[-35.395433,-5.978469],[-35.396407,-5.97859],[-35.396745,-5.98057],[-35.39712,-5.980555],[-35.397723,-5.982822],[-35.398676,-5.982922],[-35.398303,-5.984121],[-35.399102,-5.985913],[-35.401349,-5.985732],[-35.401716,-5.984781],[-35.402643,-5.984744],[-35.403124,-5.985591],[-35.410819,-5.986209],[-35.412999,-5.983292],[-35.414743,-5.983368],[-35.415584,-5.984906],[-35.417089,-5.985745],[-35.418692,-5.986038],[-35.422478,-5.985887],[-35.422647,-5.986759],[-35.423838,-5.986118],[-35.423982,-5.985214],[-35.425161,-5.985995],[-35.425377,-5.98668],[-35.426861,-5.985837],[-35.427473,-5.986351],[-35.429091,-5.986572],[-35.428645,-5.987475],[-35.429043,-5.988591],[-35.431137,-5.989759],[-35.436313,-5.991317],[-35.436832,-5.991058],[-35.43727,-5.991531],[-35.438992,-5.991507],[-35.43912,-5.992163],[-35.441748,-5.992848],[-35.443484,-5.993909],[-35.444664,-5.993788],[-35.447836,-5.995769],[-35.451326,-6.004077],[-35.463579,-6.008879],[-35.464608,-6.009605],[-35.464383,-6.009903],[-35.46521,-6.010272],[-35.464214,-6.011129],[-35.463962,-6.01224],[-35.463103,-6.012444],[-35.462591,-6.013547],[-35.461605,-6.013377],[-35.460386,-6.014428],[-35.459356,-6.016174],[-35.459158,-6.018637],[-35.460183,-6.018266],[-35.462474,-6.018987],[-35.4634,-6.018232],[-35.4644,-6.018754],[-35.465988,-6.018722],[-35.465816,-6.019746],[-35.468339,-6.019948],[-35.470746,-6.019755],[-35.470964,-6.019101],[-35.471647,-6.019087],[-35.471942,-6.019659],[-35.476408,-6.020803],[-35.476863,-6.020341],[-35.478351,-6.020453],[-35.479775,-6.021817],[-35.480511,-6.021502],[-35.480955,-6.022172],[-35.48265,-6.022683],[-35.484587,-6.026155],[-35.486276,-6.027188],[-35.486155,-6.027876],[-35.485444,-6.028227],[-35.485296,-6.030071],[-35.488221,-6.029836],[-35.489309,-6.029027],[-35.490356,-6.029665],[-35.491013,-6.029612],[-35.492755,-6.031113],[-35.495455,-6.032334],[-35.495397,-6.033435],[-35.496361,-6.034104],[-35.496247,-6.034621],[-35.497503,-6.036079],[-35.499932,-6.035883],[-35.500382,-6.035186],[-35.507285,-6.037091],[-35.50849,-6.036657],[-35.509397,-6.03711],[-35.509535,-6.037677],[-35.510189,-6.03745],[-35.511186,-6.03794],[-35.511531,-6.038575],[-35.51411,-6.040397],[-35.514808,-6.039998],[-35.515056,-6.04051],[-35.515856,-6.040399],[-35.516527,-6.039719],[-35.517105,-6.041761],[-35.516732,-6.04231],[-35.520407,-6.044949],[-35.521498,-6.044338],[-35.52322,-6.045663],[-35.522882,-6.047289],[-35.524152,-6.04856],[-35.525598,-6.048689],[-35.525353,-6.049595],[-35.529257,-6.053691],[-35.53164,-6.051963],[-35.530928,-6.050494],[-35.531174,-6.048787],[-35.533942,-6.045918],[-35.533131,-6.045682],[-35.532744,-6.045112],[-35.534218,-6.044245],[-35.535492,-6.044119],[-35.536326,-6.043151],[-35.536028,-6.042482],[-35.536252,-6.041756],[-35.538965,-6.039945],[-35.541222,-6.040847],[-35.542613,-6.040775],[-35.542828,-6.041657],[-35.545927,-6.041969],[-35.549243,-6.038121],[-35.54975,-6.03696],[-35.550578,-6.036676],[-35.552749,-6.037019],[-35.552988,-6.037483],[-35.552579,-6.037934],[-35.560321,-6.039338],[-35.560391,-6.037562],[-35.56118,-6.038134],[-35.56174,-6.037942],[-35.561884,-6.038824],[-35.563635,-6.039939],[-35.564924,-6.038931],[-35.565068,-6.038339],[-35.56798,-6.038468],[-35.568102,-6.03958],[-35.571498,-6.038582],[-35.571942,-6.039263],[-35.573407,-6.038812],[-35.573876,-6.039492],[-35.577295,-6.040064],[-35.577894,-6.039776],[-35.5809,-6.039841],[-35.580888,-6.039266],[-35.582063,-6.039473],[-35.583327,-6.038728],[-35.583894,-6.039601],[-35.585163,-6.039499],[-35.586232,-6.04042],[-35.588477,-6.040863],[-35.588642,-6.04183],[-35.588005,-6.042202],[-35.589546,-6.044066],[-35.589237,-6.044829],[-35.589679,-6.045954],[-35.590724,-6.045879],[-35.591786,-6.045269],[-35.592102,-6.045921],[-35.593337,-6.045769],[-35.59606,-6.047677],[-35.598783,-6.048886],[-35.601242,-6.040924],[-35.607871,-6.025864],[-35.612926,-6.012715],[-35.617792,-5.988245],[-35.613648,-5.964923],[-35.601779,-5.947931],[-35.574438,-5.923502],[-35.561389,-5.904877],[-35.562016,-5.894359],[-35.561327,-5.882799],[-35.563889,-5.868377],[-35.569854,-5.857402],[-35.573641,-5.849149],[-35.577145,-5.845248],[-35.609576,-5.851012],[-35.629847,-5.853386],[-35.632049,-5.850922],[-35.638767,-5.851323],[-35.660287,-5.869629],[-35.68671,-5.900998],[-35.699285,-5.90677],[-35.714086,-5.902805],[-35.741157,-5.879195],[-35.762398,-5.861303],[-35.766863,-5.856305],[-35.771284,-5.841989],[-35.76697,-5.797298],[-35.768695,-5.768358],[-35.774677,-5.746022],[-35.783658,-5.733166],[-35.789434,-5.727791],[-35.782385,-5.725467],[-35.779781,-5.725006],[-35.778962,-5.72441],[-35.777031,-5.72427],[-35.774976,-5.722945],[-35.775141,-5.721497],[-35.772794,-5.71887],[-35.771784,-5.718666],[-35.771124,-5.719255],[-35.767294,-5.716815],[-35.765245,-5.716461],[-35.764999,-5.716168],[-35.765923,-5.714383],[-35.764196,-5.71245],[-35.759719,-5.712717],[-35.758863,-5.713653],[-35.757505,-5.712956],[-35.757305,-5.714183],[-35.756171,-5.714017],[-35.755309,-5.71277],[-35.755759,-5.712231],[-35.754343,-5.710646],[-35.749841,-5.712261],[-35.749237,-5.713597],[-35.747848,-5.712976],[-35.746808,-5.713349],[-35.746246,-5.712544],[-35.745446,-5.712328],[-35.745268,-5.711145],[-35.743904,-5.709192],[-35.74152,-5.708104],[-35.740845,-5.708354],[-35.740351,-5.707102],[-35.741377,-5.704947],[-35.73988,-5.701685],[-35.73899,-5.701557],[-35.738262,-5.702183],[-35.736649,-5.702403],[-35.735498,-5.703029],[-35.734685,-5.704393],[-35.731668,-5.70511],[-35.730783,-5.703718],[-35.729691,-5.7036],[-35.729679,-5.701981],[-35.728765,-5.700544],[-35.727649,-5.700314],[-35.727495,-5.699428],[-35.727923,-5.69922],[-35.726275,-5.696629],[-35.723762,-5.695475],[-35.722949,-5.695548],[-35.72178,-5.694562],[-35.721211,-5.694791],[-35.720629,-5.694193],[-35.720882,-5.693557],[-35.719943,-5.69307],[-35.719954,-5.692519],[-35.718064,-5.690403],[-35.717148,-5.692397]],[[-35.705146,-5.86225],[-35.704254,-5.861135],[-35.694119,-5.85498],[-35.685304,-5.843972],[-35.681154,-5.829457],[-35.682779,-5.816393],[-35.689772,-5.804496],[-35.700355,-5.797058],[-35.723093,-5.795132],[-35.738301,-5.807294],[-35.745882,-5.825286],[-35.743948,-5.840838],[-35.736057,-5.853241],[-35.721863,-5.861266],[-35.705146,-5.86225]],[[-35.547222,-5.857335],[-35.537291,-5.865287],[-35.51851,-5.866264],[-35.517617,-5.865149],[-35.50798,-5.857431],[-35.505576,-5.841497],[-35.512403,-5.829883],[-35.527022,-5.825234],[-35.539616,-5.830075],[-35.548959,-5.843368],[-35.547222,-5.857335]],[[-35.363983,-5.908407],[-35.35908,-5.900553],[-35.363805,-5.892083],[-35.37371,-5.895721],[-35.37282,-5.906795],[-35.363983,-5.908407]]]]}},{"type":"Feature","id":5,"properties":{"valor_referencia":375,"faixa":"336mm/mes - 375mm/mes","fonte":"Interpolação a partir de dados pluviométricos - EMPARN (2022)"},"geometry":{"type":"MultiPolygon","coordinates":[[[[-36.411918,-6.044156],[-36.412769,-6.044391],[-36.413547,-6.044009],[-36.413438,-6.043395],[-36.411556,-6.042866],[-36.411918,-6.044156]]],[[[-35.705146,-5.86225],[-35.721863,-5.861266],[-35.736057,-5.853241],[-35.743948,-5.840838],[-35.745882,-5.825286],[-35.738301,-5.807294],[-35.723093,-5.795132],[-35.700355,-5.797058],[-35.689772,-5.804496],[-35.682779,-5.816393],[-35.681154,-5.829457],[-35.685304,-5.843972],[-35.694119,-5.85498],[-35.704254,-5.861135],[-35.705146,-5.86225]]],[[[-36.411556,-6.042866],[-36.410557,-6.039711],[-36.410022,-6.039621],[-36.410272,-6.038809],[-36.409303,-6.03575],[-36.407529,-6.035871],[-36.406937,-6.035422],[-36.402782,-6.039817],[-36.399524,-6.03684],[-36.398421,-6.036772],[-36.39807,-6.035851],[-36.397057,-6.034938],[-36.395692,-6.035073],[-36.395273,-6.034636],[-36.395136,-6.03393],[-36.395819,-6.032681],[-36.395833,-6.031449],[-36.396491,-6.031743],[-36.398886,-6.027217],[-36.398423,-6.024468],[-36.399494,-6.02193],[-36.39855,-6.019749],[-36.396164,-6.016282],[-36.395438,-6.016217],[-36.394203,-6.015101],[-36.393901,-6.012194],[-36.393083,-6.010785],[-36.393321,-6.008881],[-36.39287,-6.007622],[-36.393216,-6.00729],[-36.392392,-6.002976],[-36.391841,-6.002446],[-36.392074,-6.001746],[-36.390512,-6.000473],[-36.384643,-6.003579],[-36.382298,-6.005786],[-36.38055,-6.0065],[-36.379447,-6.006328],[-36.378113,-6.007034],[-36.378163,-6.005777],[-36.377302,-6.00393],[-36.377266,-6.002824],[-36.378,-5.998219],[-36.378484,-5.997679],[-36.37798,-5.995286],[-36.374549,-5.991876],[-36.373955,-5.992007],[-36.3739,-5.991274],[-36.372461,-5.989941],[-36.372977,-5.98664],[-36.372783,-5.984169],[-36.376686,-5.968697],[-36.378633,-5.950892],[-36.378529,-5.941467],[-36.379446,-5.941528],[-36.379775,-5.93773],[-36.379262,-5.935334],[-36.379375,-5.933202],[-36.38013,-5.932482],[-36.380641,-5.927758],[-36.38036,-5.927455],[-36.379169,-5.927551],[-36.378606,-5.926966],[-36.378491,-5.925438],[-36.377218,-5.924797],[-36.376181,-5.923421],[-36.36479,-5.919621],[-36.362878,-5.920427],[-36.361788,-5.917849],[-36.361795,-5.916301],[-36.358805,-5.909966],[-36.354675,-5.905497],[-36.347567,-5.904541],[-36.340762,-5.905615],[-36.336583,-5.903227],[-36.334677,-5.902999],[-36.334271,-5.901062],[-36.333058,-5.89919],[-36.332225,-5.895799],[-36.332891,-5.894467],[-36.332266,-5.891479],[-36.331518,-5.890403],[-36.332328,-5.88928],[-36.332457,-5.886028],[-36.331548,-5.884912],[-36.330774,-5.884766],[-36.330614,-5.883292],[-36.330978,-5.882585],[-36.330306,-5.881611],[-36.330532,-5.879949],[-36.326899,-5.869037],[-36.325903,-5.869076],[-36.324882,-5.868152],[-36.324797,-5.867253],[-36.312679,-5.864367],[-36.309497,-5.864719],[-36.304244,-5.862358],[-36.300704,-5.861514],[-36.293292,-5.855653],[-36.292386,-5.853808],[-36.290268,-5.851845],[-36.293219,-5.846686],[-36.294443,-5.845778],[-36.297158,-5.841832],[-36.296242,-5.84115],[-36.294191,-5.840661],[-36.293132,-5.841248],[-36.291671,-5.840605],[-36.289881,-5.84084],[-36.288949,-5.840496],[-36.287911,-5.839082],[-36.281826,-5.834895],[-36.278931,-5.834526],[-36.272909,-5.839071],[-36.26961,-5.842341],[-36.266587,-5.84363],[-36.264151,-5.837254],[-36.263173,-5.836737],[-36.261531,-5.834344],[-36.26191,-5.833185],[-36.258206,-5.833038],[-36.253333,-5.834746],[-36.251061,-5.836223],[-36.249961,-5.835195],[-36.245952,-5.835037],[-36.247571,-5.836377],[-36.247579,-5.837256],[-36.248719,-5.838316],[-36.24891,-5.839493],[-36.251973,-5.843945],[-36.250899,-5.84466],[-36.251157,-5.845084],[-36.249614,-5.846506],[-36.247496,-5.846432],[-36.244768,-5.847787],[-36.245203,-5.8493],[-36.244529,-5.849518],[-36.24357,-5.849109],[-36.242714,-5.850373],[-36.241595,-5.851045],[-36.240367,-5.850116],[-36.238817,-5.850936],[-36.238979,-5.851725],[-36.238506,-5.852179],[-36.23777,-5.852391],[-36.236996,-5.8519],[-36.234896,-5.853189],[-36.231581,-5.853194],[-36.231359,-5.853755],[-36.229225,-5.853744],[-36.228242,-5.852402],[-36.225923,-5.851154],[-36.218335,-5.855169],[-36.216516,-5.855565],[-36.21494,-5.855303],[-36.213918,-5.855815],[-36.213405,-5.855247],[-36.210871,-5.855146],[-36.206806,-5.855672],[-36.205872,-5.855345],[-36.205194,-5.856141],[-36.200899,-5.856513],[-36.198482,-5.855035],[-36.185158,-5.852755],[-36.17633,-5.853001],[-36.173521,-5.850482],[-36.169731,-5.849154],[-36.165182,-5.850748],[-36.162148,-5.852906],[-36.157199,-5.850907],[-36.156008,-5.849971],[-36.151706,-5.848777],[-36.150961,-5.852679],[-36.151706,-5.858374],[-36.150388,-5.859949],[-36.148851,-5.859611],[-36.146453,-5.8576],[-36.141746,-5.855109],[-36.140776,-5.855622],[-36.139238,-5.857613],[-36.136986,-5.858717],[-36.132708,-5.859891],[-36.125802,-5.855552],[-36.121904,-5.853882],[-36.121301,-5.852525],[-36.119801,-5.851557],[-36.11874,-5.849553],[-36.117026,-5.848027],[-36.117036,-5.846222],[-36.115461,-5.842885],[-36.111934,-5.839617],[-36.110771,-5.839455],[-36.108027,-5.837553],[-36.107188,-5.83488],[-36.101621,-5.829276],[-36.101576,-5.828823],[-36.099844,-5.828852],[-36.098547,-5.829751],[-36.09788,-5.831099],[-36.096998,-5.831081],[-36.094727,-5.832139],[-36.092442,-5.834378],[-36.091149,-5.83463],[-36.089859,-5.836154],[-36.088316,-5.836146],[-36.085759,-5.837764],[-36.085031,-5.839573],[-36.083548,-5.840552],[-36.082723,-5.839685],[-36.080762,-5.840926],[-36.075034,-5.841153],[-36.075167,-5.841461],[-36.066663,-5.841098],[-36.06547,-5.842589],[-36.064827,-5.845288],[-36.065146,-5.846436],[-36.064429,-5.84698],[-36.06539,-5.850452],[-36.064586,-5.85332],[-36.063338,-5.852053],[-36.06008,-5.851831],[-36.059827,-5.851191],[-36.057681,-5.851239],[-36.056349,-5.851709],[-36.056249,-5.851296],[-36.053008,-5.850055],[-36.050655,-5.850459],[-36.050485,-5.849763],[-36.049607,-5.849337],[-36.048462,-5.847748],[-36.044691,-5.845904],[-36.043819,-5.846386],[-36.043147,-5.845808],[-36.042181,-5.845828],[-36.038939,-5.84314],[-36.025675,-5.834012],[-36.02444,-5.833584],[-36.023477,-5.8325],[-36.019636,-5.829857],[-36.016886,-5.829243],[-36.009496,-5.829333],[-36.007712,-5.826099],[-35.999264,-5.816981],[-35.996871,-5.814764],[-35.994754,-5.814089],[-35.993789,-5.811337],[-35.988811,-5.804549],[-35.987962,-5.804572],[-35.98589,-5.803532],[-35.985584,-5.802756],[-35.984142,-5.802147],[-35.98198,-5.799584],[-35.978925,-5.797481],[-35.977455,-5.797079],[-35.977217,-5.796306],[-35.975132,-5.794871],[-35.973449,-5.797086],[-35.969008,-5.798996],[-35.965304,-5.801836],[-35.963138,-5.804518],[-35.96201,-5.804701],[-35.960934,-5.805604],[-35.959434,-5.80548],[-35.94737,-5.808353],[-35.943585,-5.815056],[-35.943012,-5.815102],[-35.941749,-5.817058],[-35.935735,-5.811844],[-35.932759,-5.810416],[-35.929914,-5.807676],[-35.926576,-5.803812],[-35.926584,-5.802491],[-35.923889,-5.796782],[-35.923389,-5.796852],[-35.920786,-5.793475],[-35.915025,-5.789058],[-35.909845,-5.78599],[-35.905769,-5.789631],[-35.893849,-5.808913],[-35.881426,-5.836304],[-35.876788,-5.858014],[-35.879066,-5.878867],[-35.889495,-5.893236],[-35.904357,-5.902425],[-35.916552,-5.9068],[-35.966295,-5.917787],[-35.980724,-5.926964],[-35.986798,-5.938141],[-35.989958,-5.955925],[-35.995079,-6.038072],[-35.988215,-6.055437],[-35.973759,-6.060624],[-35.929299,-6.057974],[-35.910664,-6.061341],[-35.89398,-6.068999],[-35.875032,-6.085929],[-35.865086,-6.104232],[-35.861221,-6.125981],[-35.8648,-6.145159],[-35.869616,-6.158966],[-35.877909,-6.156944],[-35.884312,-6.158173],[-35.890432,-6.15822],[-35.892156,-6.156675],[-35.893244,-6.157182],[-35.89957,-6.153829],[-35.900041,-6.15426],[-35.902346,-6.153964],[-35.904868,-6.154308],[-35.90633,-6.153783],[-35.906865,-6.153046],[-35.908519,-6.152853],[-35.910976,-6.150274],[-35.915659,-6.151558],[-35.915761,-6.152233],[-35.917044,-6.152309],[-35.916957,-6.153756],[-35.917821,-6.154399],[-35.916859,-6.155404],[-35.916668,-6.158615],[-35.919221,-6.160896],[-35.919984,-6.161092],[-35.920859,-6.162359],[-35.922336,-6.161821],[-35.923251,-6.162331],[-35.922683,-6.169744],[-35.929829,-6.171776],[-35.934109,-6.170834],[-35.937685,-6.168891],[-35.940685,-6.16624],[-35.954053,-6.171478],[-35.956493,-6.168335],[-35.957462,-6.168188],[-35.966983,-6.174371],[-35.969439,-6.17532],[-35.971299,-6.175433],[-35.970998,-6.170223],[-35.970479,-6.169678],[-35.968737,-6.169307],[-35.9695,-6.168752],[-35.971067,-6.169074],[-35.971456,-6.162539],[-35.967955,-6.156091],[-35.965729,-6.154277],[-35.9659,-6.152309],[-35.965218,-6.151053],[-35.980673,-6.147308],[-35.980885,-6.148273],[-35.984867,-6.14806],[-35.984912,-6.146648],[-35.985752,-6.146107],[-35.985634,-6.144121],[-35.985036,-6.143213],[-35.985553,-6.142757],[-35.985138,-6.1358],[-35.984758,-6.135791],[-35.983443,-6.125688],[-35.983471,-6.120711],[-35.985458,-6.120757],[-35.986852,-6.119492],[-35.989208,-6.116034],[-35.988786,-6.115412],[-35.989216,-6.114795],[-35.988733,-6.110436],[-35.989161,-6.110332],[-35.988753,-6.107599],[-35.989102,-6.107302],[-35.989112,-6.105037],[-35.987974,-6.104199],[-35.988029,-6.094248],[-35.98869,-6.094643],[-35.990791,-6.094443],[-35.993057,-6.092369],[-35.994658,-6.088881],[-35.994629,-6.08743],[-35.996399,-6.087035],[-35.998762,-6.08688],[-36.000294,-6.087325],[-36.003911,-6.086882],[-36.005226,-6.086103],[-36.007504,-6.086442],[-36.010542,-6.08607],[-36.019211,-6.092125],[-36.022933,-6.090102],[-36.023367,-6.089289],[-36.023271,-6.087689],[-36.021741,-6.085225],[-36.022936,-6.079922],[-36.022414,-6.078977],[-36.022978,-6.077704],[-36.021992,-6.075601],[-36.023204,-6.075432],[-36.023421,-6.071797],[-36.02491,-6.071886],[-36.025089,-6.070971],[-36.026377,-6.071973],[-36.029654,-6.072001],[-36.030231,-6.070993],[-36.031778,-6.07149],[-36.034104,-6.074349],[-36.035159,-6.074132],[-36.035688,-6.073583],[-36.035444,-6.075982],[-36.036369,-6.0766],[-36.037442,-6.078287],[-36.042544,-6.083997],[-36.045465,-6.086248],[-36.048761,-6.090005],[-36.057784,-6.091411],[-36.062077,-6.091619],[-36.063338,-6.09254],[-36.068272,-6.099171],[-36.077241,-6.10194],[-36.077828,-6.101362],[-36.079849,-6.103303],[-36.081325,-6.104105],[-36.083436,-6.101065],[-36.083302,-6.099439],[-36.084054,-6.097321],[-36.084878,-6.097325],[-36.085103,-6.097788],[-36.086498,-6.097334],[-36.087855,-6.098501],[-36.095446,-6.100123],[-36.095746,-6.099521],[-36.096539,-6.099214],[-36.099454,-6.099999],[-36.107402,-6.100287],[-36.113692,-6.104245],[-36.116503,-6.104078],[-36.117781,-6.102875],[-36.117552,-6.099044],[-36.116304,-6.097789],[-36.117717,-6.095577],[-36.117146,-6.09487],[-36.119862,-6.089165],[-36.121038,-6.089417],[-36.121002,-6.088559],[-36.122625,-6.088233],[-36.124586,-6.090175],[-36.128296,-6.090967],[-36.129588,-6.090601],[-36.131329,-6.091167],[-36.131906,-6.091739],[-36.133576,-6.092095],[-36.135582,-6.091715],[-36.136769,-6.091908],[-36.138497,-6.093042],[-36.139018,-6.094371],[-36.14151,-6.096302],[-36.142524,-6.096282],[-36.144237,-6.097398],[-36.151879,-6.104337],[-36.156978,-6.108191],[-36.158144,-6.108121],[-36.159128,-6.106742],[-36.162386,-6.107868],[-36.163641,-6.109841],[-36.164155,-6.10964],[-36.164249,-6.110797],[-36.167668,-6.116172],[-36.169427,-6.11698],[-36.16962,-6.116208],[-36.17121,-6.117798],[-36.172814,-6.118493],[-36.173019,-6.11895],[-36.172677,-6.119614],[-36.173688,-6.122193],[-36.184612,-6.12675],[-36.185146,-6.126408],[-36.185625,-6.126772],[-36.187287,-6.126738],[-36.18841,-6.127427],[-36.189922,-6.129227],[-36.19175,-6.13022],[-36.197301,-6.131085],[-36.201565,-6.130928],[-36.202045,-6.131824],[-36.212102,-6.133392],[-36.212948,-6.132942],[-36.21342,-6.133186],[-36.214043,-6.132526],[-36.215858,-6.133775],[-36.216323,-6.134945],[-36.216817,-6.135065],[-36.219567,-6.142012],[-36.221066,-6.143351],[-36.223033,-6.144319],[-36.22496,-6.148173],[-36.225036,-6.151862],[-36.225839,-6.156164],[-36.227173,-6.158096],[-36.227673,-6.162664],[-36.226102,-6.164092],[-36.224664,-6.16475],[-36.223382,-6.167108],[-36.223197,-6.169409],[-36.226206,-6.173717],[-36.227643,-6.174663],[-36.228024,-6.176348],[-36.22988,-6.180391],[-36.231234,-6.182883],[-36.233306,-6.185091],[-36.234933,-6.188883],[-36.239733,-6.191372],[-36.242163,-6.191371],[-36.249746,-6.178878],[-36.251673,-6.177724],[-36.252548,-6.177742],[-36.254075,-6.176378],[-36.254387,-6.176028],[-36.254156,-6.174076],[-36.256145,-6.174101],[-36.259921,-6.170727],[-36.263596,-6.173294],[-36.264489,-6.173453],[-36.264686,-6.174055],[-36.26801,-6.176378],[-36.272137,-6.178272],[-36.274036,-6.180398],[-36.276157,-6.18024],[-36.277195,-6.179767],[-36.285089,-6.179739],[-36.285549,-6.179217],[-36.286946,-6.178983],[-36.287986,-6.179566],[-36.289207,-6.179493],[-36.291899,-6.176481],[-36.291865,-6.175619],[-36.293117,-6.175349],[-36.29502,-6.173649],[-36.294155,-6.170251],[-36.293223,-6.169649],[-36.29289,-6.168943],[-36.293503,-6.166286],[-36.291133,-6.155193],[-36.289367,-6.149012],[-36.289472,-6.147418],[-36.288265,-6.141768],[-36.289629,-6.140549],[-36.289362,-6.139671],[-36.290736,-6.13956],[-36.295385,-6.135407],[-36.300337,-6.129863],[-36.300192,-6.127427],[-36.299584,-6.127073],[-36.29939,-6.124781],[-36.300108,-6.124107],[-36.302353,-6.119976],[-36.301881,-6.115607],[-36.302309,-6.112996],[-36.304755,-6.113651],[-36.30526,-6.113303],[-36.306182,-6.114034],[-36.312444,-6.115711],[-36.312992,-6.115534],[-36.313167,-6.115904],[-36.31541,-6.116505],[-36.317344,-6.11576],[-36.317677,-6.116763],[-36.32,-6.116509],[-36.321455,-6.114881],[-36.321253,-6.11422],[-36.322349,-6.113881],[-36.328162,-6.108507],[-36.328154,-6.106913],[-36.328618,-6.106012],[-36.328287,-6.104958],[-36.328858,-6.103509],[-36.331472,-6.103445],[-36.338598,-6.09999],[-36.3396,-6.098908],[-36.34639,-6.096104],[-36.353556,-6.090551],[-36.353549,-6.089997],[-36.354554,-6.089126],[-36.355925,-6.088714],[-36.35715,-6.087765],[-36.356918,-6.086881],[-36.357264,-6.086561],[-36.358477,-6.086736],[-36.35802,-6.084465],[-36.359591,-6.082103],[-36.360573,-6.082325],[-36.361668,-6.08317],[-36.369303,-6.081394],[-36.36994,-6.079905],[-36.370474,-6.080045],[-36.372034,-6.077593],[-36.372027,-6.076918],[-36.372961,-6.076135],[-36.372699,-6.075107],[-36.373942,-6.074593],[-36.374371,-6.073919],[-36.374298,-6.072856],[-36.376461,-6.072569],[-36.377596,-6.071783],[-36.378461,-6.069862],[-36.37959,-6.069582],[-36.380332,-6.070126],[-36.380628,-6.069937],[-36.380179,-6.065541],[-36.380832,-6.065081],[-36.384707,-6.058641],[-36.385636,-6.058537],[-36.386006,-6.058937],[-36.388299,-6.056847],[-36.388904,-6.05706],[-36.38978,-6.05585],[-36.390285,-6.055699],[-36.39071,-6.056157],[-36.392531,-6.054679],[-36.392629,-6.053953],[-36.394591,-6.05388],[-36.395811,-6.051222],[-36.395024,-6.050496],[-36.39594,-6.050371],[-36.396709,-6.049734],[-36.398511,-6.052016],[-36.400129,-6.050206],[-36.400633,-6.048582],[-36.401707,-6.04924],[-36.404588,-6.04794],[-36.408314,-6.045226],[-36.408995,-6.043832],[-36.410689,-6.043497],[-36.411556,-6.042866]],[[-36.251295,-5.845123],[-36.251196,-5.845222],[-36.251157,-5.845084],[-36.251295,-5.845123]],[[-35.929137,-6.086831],[-35.93676,-6.096708],[-35.934495,-6.112033],[-35.926567,-6.118153],[-35.915865,-6.121133],[-35.914991,-6.12],[-35.908583,-6.117378],[-35.901815,-6.113295],[-35.898936,-6.100366],[-35.903462,-6.088854],[-35.917029,-6.083301],[-35.929137,-6.086831]],[[-36.071085,-5.890708],[-36.104761,-5.891395],[-36.120282,-5.897691],[-36.137882,-5.909621],[-36.15016,-5.926184],[-36.155864,-5.93794],[-36.160092,-5.955284],[-36.159668,-5.976044],[-36.155482,-5.992376],[-36.146712,-6.0094],[-36.127066,-6.028276],[-36.10776,-6.037643],[-36.074406,-6.038852],[-36.073422,-6.037829],[-36.060982,-6.033792],[-36.047782,-6.026992],[-36.028911,-6.00735],[-36.019674,-5.988312],[-36.017231,-5.954317],[-36.02409,-5.930615],[-36.034086,-5.914131],[-36.049677,-5.899152],[-36.071085,-5.890708]],[[-35.933927,-5.898373],[-35.932998,-5.897295],[-35.924821,-5.895437],[-35.917457,-5.892733],[-35.905646,-5.884358],[-35.897935,-5.867078],[-35.899226,-5.851008],[-35.909898,-5.831882],[-35.928864,-5.820002],[-35.946279,-5.81717],[-35.962116,-5.821505],[-35.975128,-5.83073],[-35.981853,-5.838537],[-35.987033,-5.856541],[-35.982407,-5.873445],[-35.969847,-5.888629],[-35.952184,-5.896511],[-35.933927,-5.898373]]],[[[-35.283435,-5.756296],[-35.280738,-5.765941],[-35.28017,-5.766868],[-35.279421,-5.766468],[-35.277312,-5.767312],[-35.276055,-5.766512],[-35.27123,-5.760007],[-35.271315,-5.759506],[-35.266587,-5.754215],[-35.260143,-5.755348],[-35.258981,-5.756212],[-35.258588,-5.75568],[-35.25762,-5.755887],[-35.258549,-5.762986],[-35.261992,-5.781978],[-35.263702,-5.803253],[-35.260555,-5.841103],[-35.259627,-5.848202],[-35.264488,-5.853448],[-35.274429,-5.853317],[-35.286152,-5.850543],[-35.286784,-5.850732],[-35.305901,-5.862441],[-35.311701,-5.875553],[-35.313811,-5.878305],[-35.314758,-5.877245],[-35.330512,-5.86844],[-35.361155,-5.857243],[-35.391131,-5.849262],[-35.398927,-5.846465],[-35.40839,-5.841322],[-35.422476,-5.825558],[-35.430052,-5.809051],[-35.434291,-5.795322],[-35.43879,-5.775987],[-35.440243,-5.755887],[-35.438748,-5.754152],[-35.436896,-5.75293],[-35.434374,-5.752846],[-35.43134,-5.758543],[-35.428322,-5.762509],[-35.420632,-5.765087],[-35.418127,-5.765299],[-35.412458,-5.76685],[-35.401378,-5.764348],[-35.395951,-5.762539],[-35.384565,-5.752682],[-35.379668,-5.749724],[-35.379242,-5.749935],[-35.376952,-5.752802],[-35.376024,-5.757894],[-35.37712,-5.758805],[-35.381864,-5.766496],[-35.386618,-5.782695],[-35.384772,-5.800807],[-35.379968,-5.81359],[-35.370816,-5.825154],[-35.355138,-5.836292],[-35.332644,-5.842893],[-35.313047,-5.840896],[-35.300922,-5.833951],[-35.29354,-5.825064],[-35.286859,-5.802298],[-35.289385,-5.77752],[-35.295834,-5.760356],[-35.305784,-5.74786],[-35.298812,-5.745358],[-35.298129,-5.746117],[-35.296932,-5.745903],[-35.296262,-5.74633],[-35.295877,-5.747634],[-35.293094,-5.748478],[-35.283435,-5.756296]]]]}},{"type":"Feature","id":6,"properties":{"valor_referencia":244,"faixa":"180mm/mes - 244mm/mes","fonte":"Interpolação a partir de dados pluviométricos - EMPARN (2022)"},"geometry":{"type":"Polygon","coordinates":[[[-35.870248,-6.037865],[-35.881646,-6.03452],[-35.895418,-6.023953],[-35.902538,-6.011521],[-35.903625,-6.000861],[-35.899642,-5.98729],[-35.887197,-5.972308],[-35.872479,-5.963878],[-35.854519,-5.962047],[-35.839737,-5.968458],[-35.828666,-5.981734],[-35.82264,-5.997773],[-35.825372,-6.015883],[-35.836536,-6.031598],[-35.850735,-6.037756],[-35.851646,-6.038852],[-35.870248,-6.037865]]]}}]}