{"type":"FeatureCollection","features":[{"type":"Feature","id":1,"properties":{"nome":"Marcador de local 1","grupo":"Document/Camada 4","data_registro":"2025-07-22 12:57:22.0"},"geometry":{"type":"Point","coordinates":[-36.020479,-5.976648]}},{"type":"Feature","id":2,"properties":{"nome":"Marcador de local 10","grupo":"Document/Camada 4","data_registro":"2025-07-22 12:58:14.0"},"geometry":{"type":"Point","coordinates":[-36.053481,-5.981998]}},{"type":"Feature","id":3,"properties":{"nome":"Marcador de local 100","grupo":"Document/Camada 4","data_registro":"2025-07-22 13:14:32.0"},"geometry":{"type":"Point","coordinates":[-36.349695,-6.0429]}},{"type":"Feature","id":4,"properties":{"nome":"Marcador de local 101","grupo":"Document/Camada 4","data_registro":"2025-07-22 13:14:38.0"},"geometry":{"type":"Point","coordinates":[-36.218713,-6.191642]}},{"type":"Feature","id":5,"properties":{"nome":"Marcador de local 102","grupo":"Document/Camada 4","data_registro":"2025-07-22 13:14:44.0"},"geometry":{"type":"Point","coordinates":[-36.216896,-6.192028]}},{"type":"Feature","id":6,"properties":{"nome":"Marcador de local 103","grupo":"Document/Camada 4","data_registro":"2025-07-22 13:14:57.0"},"geometry":{"type":"Point","coordinates":[-36.198811,-6.199627]}},{"type":"Feature","id":7,"properties":{"nome":"Marcador de local 104","grupo":"Document/Camada 4","data_registro":"2025-07-22 13:15:04.0"},"geometry":{"type":"Point","coordinates":[-36.181281,-5.925313]}},{"type":"Feature","id":8,"properties":{"nome":"Marcador de local 105","grupo":"Document/Camada 4","data_registro":"2025-07-22 13:15:08.0"},"geometry":{"type":"Point","coordinates":[-36.18131,-5.925309]}},{"type":"Feature","id":9,"properties":{"nome":"Marcador de local 106","grupo":"Document/Camada 4","data_registro":"2025-07-22 13:15:13.0"},"geometry":{"type":"Point","coordinates":[-36.188836,-6.206375]}},{"type":"Feature","id":10,"properties":{"nome":"Marcador de local 107","grupo":"Document/Camada 4","data_registro":"2025-07-22 13:15:18.0"},"geometry":{"type":"Point","coordinates":[-36.193254,-6.203352]}},{"type":"Feature","id":11,"properties":{"nome":"Marcador de local 11","grupo":"Document/Camada 4","data_registro":"2025-07-22 12:58:19.0"},"geometry":{"type":"Point","coordinates":[-36.054629,-5.98207]}},{"type":"Feature","id":12,"properties":{"nome":"Marcador de local 12","grupo":"Document/Camada 4","data_registro":"2025-07-22 12:58:22.0"},"geometry":{"type":"Point","coordinates":[-36.054908,-5.982087]}},{"type":"Feature","id":13,"properties":{"nome":"Marcador de local 13","grupo":"Document/Camada 4","data_registro":"2025-07-22 12:58:25.0"},"geometry":{"type":"Point","coordinates":[-36.055343,-5.982106]}},{"type":"Feature","id":14,"properties":{"nome":"Marcador de local 14","grupo":"Document/Camada 4","data_registro":"2025-07-22 12:58:28.0"},"geometry":{"type":"Point","coordinates":[-36.056144,-5.982147]}},{"type":"Feature","id":15,"properties":{"nome":"Marcador de local 15","grupo":"Document/Camada 4","data_registro":"2025-07-22 12:58:34.0"},"geometry":{"type":"Point","coordinates":[-36.057142,-5.981913]}},{"type":"Feature","id":16,"properties":{"nome":"Marcador de local 16","grupo":"Document/Camada 4","data_registro":"2025-07-22 12:58:53.0"},"geometry":{"type":"Point","coordinates":[-36.057142,-5.981913]}},{"type":"Feature","id":17,"properties":{"nome":"Marcador de local 17","grupo":"Document/Camada 4","data_registro":"2025-07-22 12:58:57.0"},"geometry":{"type":"Point","coordinates":[-36.057669,-5.981715]}},{"type":"Feature","id":18,"properties":{"nome":"Marcador de local 18","grupo":"Document/Camada 4","data_registro":"2025-07-22 12:59:20.0"},"geometry":{"type":"Point","coordinates":[-36.067989,-5.975575]}},{"type":"Feature","id":19,"properties":{"nome":"Marcador de local 19","grupo":"Document/Camada 4","data_registro":"2025-07-22 12:59:25.0"},"geometry":{"type":"Point","coordinates":[-36.083212,-5.965779]}},{"type":"Feature","id":20,"properties":{"nome":"Marcador de local 2","grupo":"Document/Camada 4","data_registro":"2025-07-22 12:57:30.0"},"geometry":{"type":"Point","coordinates":[-36.023759,-5.977323]}},{"type":"Feature","id":21,"properties":{"nome":"Marcador de local 20","grupo":"Document/Camada 4","data_registro":"2025-07-22 12:59:29.0"},"geometry":{"type":"Point","coordinates":[-36.083344,-5.965757]}},{"type":"Feature","id":22,"properties":{"nome":"Marcador de local 21","grupo":"Document/Camada 4","data_registro":"2025-07-22 12:59:33.0"},"geometry":{"type":"Point","coordinates":[-36.083843,-5.965679]}},{"type":"Feature","id":23,"properties":{"nome":"Marcador de local 22","grupo":"Document/Camada 4","data_registro":"2025-07-22 12:59:37.0"},"geometry":{"type":"Point","coordinates":[-36.084045,-5.965599]}},{"type":"Feature","id":24,"properties":{"nome":"Marcador de local 23","grupo":"Document/Camada 4","data_registro":"2025-07-22 12:59:42.0"},"geometry":{"type":"Point","coordinates":[-36.086107,-5.964128]}},{"type":"Feature","id":25,"properties":{"nome":"Marcador de local 24","grupo":"Document/Camada 4","data_registro":"2025-07-22 12:59:47.0"},"geometry":{"type":"Point","coordinates":[-36.087708,-5.961061]}},{"type":"Feature","id":26,"properties":{"nome":"Marcador de local 25","grupo":"Document/Camada 4","data_registro":"2025-07-22 12:59:53.0"},"geometry":{"type":"Point","coordinates":[-36.094344,-5.954201]}},{"type":"Feature","id":27,"properties":{"nome":"Marcador de local 26","grupo":"Document/Camada 4","data_registro":"2025-07-22 13:00:00.0"},"geometry":{"type":"Point","coordinates":[-36.094412,-5.954111]}},{"type":"Feature","id":28,"properties":{"nome":"Marcador de local 27","grupo":"Document/Camada 4","data_registro":"2025-07-22 13:00:05.0"},"geometry":{"type":"Point","coordinates":[-36.094402,-5.954164]}},{"type":"Feature","id":29,"properties":{"nome":"Marcador de local 28","grupo":"Document/Camada 4","data_registro":"2025-07-22 13:00:12.0"},"geometry":{"type":"Point","coordinates":[-36.094414,-5.954085]}},{"type":"Feature","id":30,"properties":{"nome":"Marcador de local 29","grupo":"Document/Camada 4","data_registro":"2025-07-22 13:00:21.0"},"geometry":{"type":"Point","coordinates":[-36.094389,-5.954098]}},{"type":"Feature","id":31,"properties":{"nome":"Marcador de local 3","grupo":"Document/Camada 4","data_registro":"2025-07-22 12:57:34.0"},"geometry":{"type":"Point","coordinates":[-36.030479,-5.979206]}},{"type":"Feature","id":32,"properties":{"nome":"Marcador de local 30","grupo":"Document/Camada 4","data_registro":"2025-07-22 13:00:30.0"},"geometry":{"type":"Point","coordinates":[-35.619943,-6.008665]}},{"type":"Feature","id":33,"properties":{"nome":"Marcador de local 31","grupo":"Document/Camada 4","data_registro":"2025-07-22 13:00:38.0"},"geometry":{"type":"Point","coordinates":[-35.622732,-6.010754]}},{"type":"Feature","id":34,"properties":{"nome":"Marcador de local 32","grupo":"Document/Camada 4","data_registro":"2025-07-22 13:00:44.0"},"geometry":{"type":"Point","coordinates":[-35.623109,-6.010992]}},{"type":"Feature","id":35,"properties":{"nome":"Marcador de local 33","grupo":"Document/Camada 4","data_registro":"2025-07-22 13:00:50.0"},"geometry":{"type":"Point","coordinates":[-36.062197,-6.194739]}},{"type":"Feature","id":36,"properties":{"nome":"Marcador de local 34","grupo":"Document/Camada 4","data_registro":"2025-07-22 13:00:58.0"},"geometry":{"type":"Point","coordinates":[-36.063861,-6.195294]}},{"type":"Feature","id":37,"properties":{"nome":"Marcador de local 35","grupo":"Document/Camada 4","data_registro":"2025-07-22 13:01:05.0"},"geometry":{"type":"Point","coordinates":[-36.254434,-6.190063]}},{"type":"Feature","id":38,"properties":{"nome":"Marcador de local 36","grupo":"Document/Camada 4","data_registro":"2025-07-22 13:01:20.0"},"geometry":{"type":"Point","coordinates":[-36.398134,-6.194769]}},{"type":"Feature","id":39,"properties":{"nome":"Marcador de local 37","grupo":"Document/Camada 4","data_registro":"2025-07-22 13:01:20.0"},"geometry":{"type":"Point","coordinates":[-36.398366,-6.193256]}},{"type":"Feature","id":40,"properties":{"nome":"Marcador de local 38","grupo":"Document/Camada 4","data_registro":"2025-07-22 13:01:20.0"},"geometry":{"type":"Point","coordinates":[-36.395331,-6.189562]}},{"type":"Feature","id":41,"properties":{"nome":"Marcador de local 39","grupo":"Document/Camada 4","data_registro":"2025-07-22 13:01:20.0"},"geometry":{"type":"Point","coordinates":[-36.395065,-6.189148]}},{"type":"Feature","id":42,"properties":{"nome":"Marcador de local 4","grupo":"Document/Camada 4","data_registro":"2025-07-22 12:57:36.0"},"geometry":{"type":"Point","coordinates":[-36.030754,-5.979336]}},{"type":"Feature","id":43,"properties":{"nome":"Marcador de local 40","grupo":"Document/Camada 4","data_registro":"2025-07-22 13:01:32.0"},"geometry":{"type":"Point","coordinates":[-36.394895,-6.188872]}},{"type":"Feature","id":44,"properties":{"nome":"Marcador de local 41","grupo":"Document/Camada 4","data_registro":"2025-07-22 13:01:33.0"},"geometry":{"type":"Point","coordinates":[-36.390304,-6.177172]}},{"type":"Feature","id":45,"properties":{"nome":"Marcador de local 42","grupo":"Document/Camada 4","data_registro":"2025-07-22 13:01:33.0"},"geometry":{"type":"Point","coordinates":[-36.392536,-6.186251]}},{"type":"Feature","id":46,"properties":{"nome":"Marcador de local 43","grupo":"Document/Camada 4","data_registro":"2025-07-22 13:01:33.0"},"geometry":{"type":"Point","coordinates":[-36.353173,-6.112488]}},{"type":"Feature","id":47,"properties":{"nome":"Marcador de local 44","grupo":"Document/Camada 4","data_registro":"2025-07-22 13:01:33.0"},"geometry":{"type":"Point","coordinates":[-36.352446,-6.111726]}},{"type":"Feature","id":48,"properties":{"nome":"Marcador de local 45","grupo":"Document/Camada 4","data_registro":"2025-07-22 13:01:33.0"},"geometry":{"type":"Point","coordinates":[-36.351297,-6.110118]}},{"type":"Feature","id":49,"properties":{"nome":"Marcador de local 46","grupo":"Document/Camada 4","data_registro":"2025-07-22 13:01:44.0"},"geometry":{"type":"Point","coordinates":[-36.34733,-6.09925]}},{"type":"Feature","id":50,"properties":{"nome":"Marcador de local 47","grupo":"Document/Camada 4","data_registro":"2025-07-22 13:01:47.0"},"geometry":{"type":"Point","coordinates":[-35.625259,-6.011885]}},{"type":"Feature","id":51,"properties":{"nome":"Marcador de local 48","grupo":"Document/Camada 4","data_registro":"2025-07-22 13:01:57.0"},"geometry":{"type":"Point","coordinates":[-36.345211,-6.096496]}},{"type":"Feature","id":52,"properties":{"nome":"Marcador de local 49","grupo":"Document/Camada 4","data_registro":"2025-07-22 13:02:05.0"},"geometry":{"type":"Point","coordinates":[-36.347656,-6.040167]}},{"type":"Feature","id":53,"properties":{"nome":"Marcador de local 5","grupo":"Document/Camada 4","data_registro":"2025-07-22 12:57:39.0"},"geometry":{"type":"Point","coordinates":[-36.031648,-5.979755]}},{"type":"Feature","id":54,"properties":{"nome":"Marcador de local 50","grupo":"Document/Camada 4","data_registro":"2025-07-22 13:02:11.0"},"geometry":{"type":"Point","coordinates":[-36.348464,-6.041289]}},{"type":"Feature","id":55,"properties":{"nome":"Marcador de local 51","grupo":"Document/Camada 4","data_registro":"2025-07-22 13:02:21.0"},"geometry":{"type":"Point","coordinates":[-36.350539,-6.043084]}},{"type":"Feature","id":56,"properties":{"nome":"Marcador de local 52","grupo":"Document/Camada 4","data_registro":"2025-07-22 13:02:28.0"},"geometry":{"type":"Point","coordinates":[-36.351116,-6.043136]}},{"type":"Feature","id":57,"properties":{"nome":"Marcador de local 53","grupo":"Document/Camada 4","data_registro":"2025-07-22 13:02:43.0"},"geometry":{"type":"Point","coordinates":[-36.231752,-6.188834]}},{"type":"Feature","id":58,"properties":{"nome":"Marcador de local 54","grupo":"Document/Camada 4","data_registro":"2025-07-22 13:02:49.0"},"geometry":{"type":"Point","coordinates":[-36.23081,-6.189031]}},{"type":"Feature","id":59,"properties":{"nome":"Marcador de local 55","grupo":"Document/Camada 4","data_registro":"2025-07-22 13:02:56.0"},"geometry":{"type":"Point","coordinates":[-36.223015,-6.190715]}},{"type":"Feature","id":60,"properties":{"nome":"Marcador de local 56","grupo":"Document/Camada 4","data_registro":"2025-07-22 13:03:03.0"},"geometry":{"type":"Point","coordinates":[-36.214581,-6.192536]}},{"type":"Feature","id":61,"properties":{"nome":"Marcador de local 57","grupo":"Document/Camada 4","data_registro":"2025-07-22 13:03:11.0"},"geometry":{"type":"Point","coordinates":[-36.199074,-6.199438]}},{"type":"Feature","id":62,"properties":{"nome":"Marcador de local 58","grupo":"Document/Camada 4","data_registro":"2025-07-22 13:03:22.0"},"geometry":{"type":"Point","coordinates":[-36.210067,-6.193524]}},{"type":"Feature","id":63,"properties":{"nome":"Marcador de local 59","grupo":"Document/Camada 4","data_registro":"2025-07-22 13:03:40.0"},"geometry":{"type":"Point","coordinates":[-36.193254,-6.203352]}},{"type":"Feature","id":64,"properties":{"nome":"Marcador de local 6","grupo":"Document/Camada 4","data_registro":"2025-07-22 12:57:43.0"},"geometry":{"type":"Point","coordinates":[-36.041215,-5.98126]}},{"type":"Feature","id":65,"properties":{"nome":"Marcador de local 60","grupo":"Document/Camada 4","data_registro":"2025-07-22 13:03:56.0"},"geometry":{"type":"Point","coordinates":[-36.191711,-6.204411]}},{"type":"Feature","id":66,"properties":{"nome":"Marcador de local 61","grupo":"Document/Camada 4","data_registro":"2025-07-22 13:03:57.0"},"geometry":{"type":"Point","coordinates":[-36.191711,-6.204411]}},{"type":"Feature","id":67,"properties":{"nome":"Marcador de local 62","grupo":"Document/Camada 4","data_registro":"2025-07-22 13:03:57.0"},"geometry":{"type":"Point","coordinates":[-36.198811,-6.199627]}},{"type":"Feature","id":68,"properties":{"nome":"Marcador de local 63","grupo":"Document/Camada 4","data_registro":"2025-07-22 13:03:57.0"},"geometry":{"type":"Point","coordinates":[-36.199074,-6.199438]}},{"type":"Feature","id":69,"properties":{"nome":"Marcador de local 64","grupo":"Document/Camada 4","data_registro":"2025-07-22 13:03:57.0"},"geometry":{"type":"Point","coordinates":[-36.189172,-6.206151]}},{"type":"Feature","id":70,"properties":{"nome":"Marcador de local 65","grupo":"Document/Camada 4","data_registro":"2025-07-22 13:03:57.0"},"geometry":{"type":"Point","coordinates":[-36.188836,-6.206375]}},{"type":"Feature","id":71,"properties":{"nome":"Marcador de local 66","grupo":"Document/Camada 4","data_registro":"2025-07-22 13:04:05.0"},"geometry":{"type":"Point","coordinates":[-35.572623,-5.970938]}},{"type":"Feature","id":72,"properties":{"nome":"Marcador de local 67","grupo":"Document/Camada 4","data_registro":"2025-07-22 13:04:33.0"},"geometry":{"type":"Point","coordinates":[-36.054629,-5.98207]}},{"type":"Feature","id":73,"properties":{"nome":"Marcador de local 68","grupo":"Document/Camada 4","data_registro":"2025-07-22 13:04:36.0"},"geometry":{"type":"Point","coordinates":[-36.030754,-5.979336]}},{"type":"Feature","id":74,"properties":{"nome":"Marcador de local 69","grupo":"Document/Camada 4","data_registro":"2025-07-22 13:04:39.0"},"geometry":{"type":"Point","coordinates":[-36.030479,-5.979206]}},{"type":"Feature","id":75,"properties":{"nome":"Marcador de local 7","grupo":"Document/Camada 4","data_registro":"2025-07-22 12:57:46.0"},"geometry":{"type":"Point","coordinates":[-36.041893,-5.981316]}},{"type":"Feature","id":76,"properties":{"nome":"Marcador de local 70","grupo":"Document/Camada 4","data_registro":"2025-07-22 13:04:44.0"},"geometry":{"type":"Point","coordinates":[-36.055343,-5.982106]}},{"type":"Feature","id":77,"properties":{"nome":"Marcador de local 71","grupo":"Document/Camada 4","data_registro":"2025-07-22 13:04:47.0"},"geometry":{"type":"Point","coordinates":[-36.030479,-5.979206]}},{"type":"Feature","id":78,"properties":{"nome":"Marcador de local 72","grupo":"Document/Camada 4","data_registro":"2025-07-22 13:04:50.0"},"geometry":{"type":"Point","coordinates":[-36.054629,-5.98207]}},{"type":"Feature","id":79,"properties":{"nome":"Marcador de local 73","grupo":"Document/Camada 4","data_registro":"2025-07-22 13:04:54.0"},"geometry":{"type":"Point","coordinates":[-36.057669,-5.981715]}},{"type":"Feature","id":80,"properties":{"nome":"Marcador de local 74","grupo":"Document/Camada 4","data_registro":"2025-07-22 13:12:43.0"},"geometry":{"type":"Point","coordinates":[-36.067989,-5.975575]}},{"type":"Feature","id":81,"properties":{"nome":"Marcador de local 75","grupo":"Document/Camada 4","data_registro":"2025-07-22 13:12:48.0"},"geometry":{"type":"Point","coordinates":[-36.081517,-5.970595]}},{"type":"Feature","id":82,"properties":{"nome":"Marcador de local 76","grupo":"Document/Camada 4","data_registro":"2025-07-22 13:12:55.0"},"geometry":{"type":"Point","coordinates":[-36.081478,-5.970356]}},{"type":"Feature","id":83,"properties":{"nome":"Marcador de local 77","grupo":"Document/Camada 4","data_registro":"2025-07-22 13:12:55.0"},"geometry":{"type":"Point","coordinates":[-36.081411,-5.969574]}},{"type":"Feature","id":84,"properties":{"nome":"Marcador de local 78","grupo":"Document/Camada 4","data_registro":"2025-07-22 13:12:55.0"},"geometry":{"type":"Point","coordinates":[-36.081421,-5.97002]}},{"type":"Feature","id":85,"properties":{"nome":"Marcador de local 79","grupo":"Document/Camada 4","data_registro":"2025-07-22 13:13:03.0"},"geometry":{"type":"Point","coordinates":[-36.087708,-5.961061]}},{"type":"Feature","id":86,"properties":{"nome":"Marcador de local 8","grupo":"Document/Camada 4","data_registro":"2025-07-22 12:57:49.0"},"geometry":{"type":"Point","coordinates":[-36.053283,-5.98199]}},{"type":"Feature","id":87,"properties":{"nome":"Marcador de local 80","grupo":"Document/Camada 4","data_registro":"2025-07-22 13:13:11.0"},"geometry":{"type":"Point","coordinates":[-36.092428,-5.957542]}},{"type":"Feature","id":88,"properties":{"nome":"Marcador de local 81","grupo":"Document/Camada 4","data_registro":"2025-07-22 13:13:11.0"},"geometry":{"type":"Point","coordinates":[-36.09239,-5.957678]}},{"type":"Feature","id":89,"properties":{"nome":"Marcador de local 82","grupo":"Document/Camada 4","data_registro":"2025-07-22 13:13:12.0"},"geometry":{"type":"Point","coordinates":[-36.085773,-5.973446]}},{"type":"Feature","id":90,"properties":{"nome":"Marcador de local 83","grupo":"Document/Camada 4","data_registro":"2025-07-22 13:13:12.0"},"geometry":{"type":"Point","coordinates":[-36.094358,-5.954259]}},{"type":"Feature","id":91,"properties":{"nome":"Marcador de local 84","grupo":"Document/Camada 4","data_registro":"2025-07-22 13:13:12.0"},"geometry":{"type":"Point","coordinates":[-36.094103,-5.955302]}},{"type":"Feature","id":92,"properties":{"nome":"Marcador de local 85","grupo":"Document/Camada 4","data_registro":"2025-07-22 13:13:21.0"},"geometry":{"type":"Point","coordinates":[-36.094412,-5.954111]}},{"type":"Feature","id":93,"properties":{"nome":"Marcador de local 86","grupo":"Document/Camada 4","data_registro":"2025-07-22 13:13:26.0"},"geometry":{"type":"Point","coordinates":[-36.066959,-5.976542]}},{"type":"Feature","id":94,"properties":{"nome":"Marcador de local 87","grupo":"Document/Camada 4","data_registro":"2025-07-22 13:13:32.0"},"geometry":{"type":"Point","coordinates":[-36.066915,-5.976623]}},{"type":"Feature","id":95,"properties":{"nome":"Marcador de local 88","grupo":"Document/Camada 4","data_registro":"2025-07-22 13:13:38.0"},"geometry":{"type":"Point","coordinates":[-36.108142,-6.182325]}},{"type":"Feature","id":96,"properties":{"nome":"Marcador de local 89","grupo":"Document/Camada 4","data_registro":"2025-07-22 13:13:44.0"},"geometry":{"type":"Point","coordinates":[-36.104924,-6.183981]}},{"type":"Feature","id":97,"properties":{"nome":"Marcador de local 9","grupo":"Document/Camada 4","data_registro":"2025-07-22 12:57:52.0"},"geometry":{"type":"Point","coordinates":[-36.053481,-5.981998]}},{"type":"Feature","id":98,"properties":{"nome":"Marcador de local 90","grupo":"Document/Camada 4","data_registro":"2025-07-22 13:13:52.0"},"geometry":{"type":"Point","coordinates":[-36.112595,-6.180022]}},{"type":"Feature","id":99,"properties":{"nome":"Marcador de local 91","grupo":"Document/Camada 4","data_registro":"2025-07-22 13:14:01.0"},"geometry":{"type":"Point","coordinates":[-36.347911,-6.040612]}},{"type":"Feature","id":100,"properties":{"nome":"Marcador de local 92","grupo":"Document/Camada 4","data_registro":"2025-07-22 13:14:06.0"},"geometry":{"type":"Point","coordinates":[-36.390304,-6.177172]}},{"type":"Feature","id":101,"properties":{"nome":"Marcador de local 93","grupo":"Document/Camada 4","data_registro":"2025-07-22 13:14:18.0"},"geometry":{"type":"Point","coordinates":[-36.397871,-6.195193]}},{"type":"Feature","id":102,"properties":{"nome":"Marcador de local 94","grupo":"Document/Camada 4","data_registro":"2025-07-22 13:14:19.0"},"geometry":{"type":"Point","coordinates":[-36.398134,-6.194769]}},{"type":"Feature","id":103,"properties":{"nome":"Marcador de local 95","grupo":"Document/Camada 4","data_registro":"2025-07-22 13:14:19.0"},"geometry":{"type":"Point","coordinates":[-36.395331,-6.189562]}},{"type":"Feature","id":104,"properties":{"nome":"Marcador de local 96","grupo":"Document/Camada 4","data_registro":"2025-07-22 13:14:19.0"},"geometry":{"type":"Point","coordinates":[-36.395065,-6.189148]}},{"type":"Feature","id":105,"properties":{"nome":"Marcador de local 97","grupo":"Document/Camada 4","data_registro":"2025-07-22 13:14:19.0"},"geometry":{"type":"Point","coordinates":[-36.394895,-6.188872]}},{"type":"Feature","id":106,"properties":{"nome":"Marcador de local 98","grupo":"Document/Camada 4","data_registro":"2025-07-22 13:14:19.0"},"geometry":{"type":"Point","coordinates":[-36.390304,-6.177172]}},{"type":"Feature","id":107,"properties":{"nome":"Marcador de local 99","grupo":"Document/Camada 4","data_registro":"2025-07-22 13:14:26.0"},"geometry":{"type":"Point","coordinates":[-36.23081,-6.189031]}}]}