{"type":"FeatureCollection","features":[{"type":"Feature","id":1,"properties":{"municipio":"Barcelona","iqr_inferior":2.39,"iqr_medio":4.0,"iqr_superior":5.34,"enquadramento":"INADEQUADO","tipo_1":"LIXÃO DESATIVADO","tipo_2":"ATERRO CONTROLADO","enquadramento_1":"INADEQUADO","enquadramento_2":"INADEQUADO","fonte":"Camada QualidadeResiduos do acervo geoespacial do Projeto Potengi"},"geometry":{"type":"Polygon","coordinates":[[[-35.913096,-5.902735],[-35.907099,-5.90113],[-35.90604,-5.899514],[-35.906731,-5.897487],[-35.902535,-5.896138],[-35.901659,-5.896863],[-35.901883,-5.899136],[-35.899174,-5.900603],[-35.898055,-5.900374],[-35.896991,-5.898642],[-35.895775,-5.898899],[-35.895716,-5.900203],[-35.896843,-5.901887],[-35.894746,-5.903083],[-35.893528,-5.902888],[-35.892238,-5.901827],[-35.891103,-5.901899],[-35.890491,-5.903224],[-35.892613,-5.905207],[-35.893003,-5.906856],[-35.886993,-5.909273],[-35.885361,-5.909003],[-35.883272,-5.906796],[-35.879291,-5.906508],[-35.876866,-5.904962],[-35.874566,-5.904902],[-35.873714,-5.903946],[-35.873577,-5.901871],[-35.872329,-5.901184],[-35.868594,-5.906365],[-35.861521,-5.911615],[-35.857061,-5.911591],[-35.851097,-5.913334],[-35.834772,-5.947096],[-35.924804,-6.010633],[-35.96793,-6.034805],[-36.031832,-6.069389],[-36.01119,-6.049192],[-36.007662,-6.047309],[-36.005647,-6.041474],[-36.000592,-6.03792],[-35.997946,-6.03766],[-35.994461,-6.034772],[-35.990666,-6.033028],[-35.988439,-6.02815],[-35.988487,-6.025111],[-35.984033,-6.022314],[-35.98298,-6.020205],[-35.980965,-6.017969],[-35.978084,-6.016873],[-35.976831,-6.014399],[-35.976891,-6.010311],[-35.977223,-6.009425],[-35.978754,-6.008537],[-35.978882,-6.006254],[-35.979523,-6.005576],[-35.979287,-6.00224],[-35.980734,-6.001333],[-35.98191,-5.999366],[-35.98418,-5.997985],[-35.982363,-5.995509],[-35.982093,-5.993206],[-35.98106,-5.991059],[-35.979715,-5.989746],[-35.977966,-5.989159],[-35.97848,-5.985859],[-35.977194,-5.983794],[-35.97764,-5.981888],[-35.977203,-5.979663],[-35.972442,-5.975535],[-35.970831,-5.971612],[-35.968496,-5.971417],[-35.968215,-5.970639],[-35.968778,-5.96987],[-35.96837,-5.969051],[-35.96424,-5.967948],[-35.963104,-5.966467],[-35.962703,-5.963833],[-35.966676,-5.901299],[-35.919244,-5.908572],[-35.920459,-5.90249],[-35.922295,-5.898866],[-35.916616,-5.896465],[-35.91704,-5.893893],[-35.916231,-5.893258],[-35.911128,-5.894816],[-35.911154,-5.896833],[-35.913326,-5.902032],[-35.913096,-5.902735]]]}},{"type":"Feature","id":2,"properties":{"municipio":"Bento Fernandes","iqr_inferior":2.39,"iqr_medio":6.0,"iqr_superior":10.0,"enquadramento":"CONTROLADO","tipo_1":"LIXÃO DESATIVADO","tipo_2":"ATERRO SANITÁRIO","enquadramento_1":"ADEQUADO","enquadramento_2":"INADEQUADO","fonte":"Camada QualidadeResiduos do acervo geoespacial do Projeto Potengi"},"geometry":{"type":"MultiPolygon","coordinates":[[[[-35.86202,-5.725074],[-35.861256,-5.724101],[-35.857247,-5.723661],[-35.852771,-5.724128],[-35.86202,-5.725074]]],[[[-35.689191,-5.717548],[-35.765689,-5.716538],[-35.764999,-5.716168],[-35.765962,-5.713344],[-35.765068,-5.713198],[-35.764022,-5.710739],[-35.760966,-5.7117],[-35.759942,-5.711306],[-35.759727,-5.712791],[-35.758863,-5.713653],[-35.757505,-5.712956],[-35.757305,-5.714183],[-35.756171,-5.714017],[-35.755309,-5.71277],[-35.755874,-5.711526],[-35.754512,-5.710501],[-35.752522,-5.711219],[-35.750638,-5.7112],[-35.749237,-5.713597],[-35.745446,-5.712328],[-35.745332,-5.710029],[-35.742544,-5.708395],[-35.740845,-5.708354],[-35.740462,-5.707453],[-35.741485,-5.704506],[-35.741019,-5.703476],[-35.741368,-5.702434],[-35.73899,-5.701557],[-35.73712,-5.702564],[-35.736335,-5.702296],[-35.734685,-5.704393],[-35.732534,-5.704962],[-35.73085,-5.703725],[-35.729691,-5.7036],[-35.729803,-5.701373],[-35.729223,-5.700427],[-35.727649,-5.700314],[-35.727495,-5.699428],[-35.728188,-5.698676],[-35.727318,-5.697461],[-35.728181,-5.69536],[-35.726807,-5.695529],[-35.724339,-5.694648],[-35.724145,-5.695441],[-35.722949,-5.695548],[-35.72196,-5.694489],[-35.721211,-5.694791],[-35.720629,-5.694193],[-35.720624,-5.693056],[-35.719943,-5.69307],[-35.719159,-5.690566],[-35.717961,-5.689661],[-35.717117,-5.690679],[-35.717224,-5.693285],[-35.716753,-5.692948],[-35.715365,-5.693647],[-35.715984,-5.695225],[-35.714164,-5.698732],[-35.71293,-5.698706],[-35.712126,-5.699863],[-35.709692,-5.699858],[-35.709078,-5.698614],[-35.707377,-5.698238],[-35.707141,-5.700279],[-35.70587,-5.700435],[-35.705155,-5.701558],[-35.703583,-5.700267],[-35.69954,-5.701343],[-35.699423,-5.703644],[-35.695161,-5.707498],[-35.694792,-5.709389],[-35.693313,-5.711873],[-35.691725,-5.713002],[-35.690612,-5.715917],[-35.689191,-5.717548]]],[[[-35.632136,-5.714432],[-35.656278,-5.717983],[-35.672698,-5.717766],[-35.668485,-5.706523],[-35.666209,-5.704794],[-35.655897,-5.705125],[-35.653969,-5.704054],[-35.65347,-5.702555],[-35.65204,-5.701279],[-35.65015,-5.700913],[-35.632136,-5.714432]]]]}},{"type":"Feature","id":3,"properties":{"municipio":"Bodó","iqr_inferior":2.39,"iqr_medio":2.0,"iqr_superior":2.39,"enquadramento":"INADEQUADO","tipo_1":"LIXÃO EM OPERAÇÃO","enquadramento_1":"INADEQUADO","enquadramento_2":"INADEQUADO","fonte":"Camada QualidadeResiduos do acervo geoespacial do Projeto Potengi"},"geometry":{"type":"MultiPolygon","coordinates":[[[[-36.363086,-5.968924],[-36.370449,-5.969672],[-36.372519,-5.977544],[-36.373984,-5.979409],[-36.376686,-5.968697],[-36.378636,-5.951165],[-36.378529,-5.941467],[-36.379965,-5.941562],[-36.380406,-5.93909],[-36.3796,-5.937352],[-36.379375,-5.933202],[-36.380855,-5.930472],[-36.382283,-5.930097],[-36.382445,-5.928206],[-36.381587,-5.927356],[-36.379169,-5.927551],[-36.378606,-5.926966],[-36.378477,-5.925255],[-36.377218,-5.924797],[-36.374958,-5.922533],[-36.371782,-5.921861],[-36.363086,-5.968924]]],[[[-36.338075,-5.904996],[-36.338517,-5.907362],[-36.345724,-5.904832],[-36.340762,-5.905615],[-36.336486,-5.903171],[-36.338075,-5.904996]]],[[[-36.33368,-5.900213],[-36.333868,-5.900439],[-36.333596,-5.90002],[-36.33368,-5.900213]]],[[[-36.333442,-5.887747],[-36.33352,-5.888014],[-36.333629,-5.887915],[-36.333442,-5.887747]]],[[[-36.329987,-5.877165],[-36.330466,-5.880054],[-36.331111,-5.879021],[-36.330502,-5.879033],[-36.329987,-5.877165]]]]}},{"type":"Feature","id":4,"properties":{"municipio":"Bom Jesus","iqr_inferior":10.0,"iqr_medio":7.0,"iqr_superior":4.77,"enquadramento":"CONTROLADO","tipo_1":"TRANSBORDO","tipo_2":"ATERRO SANITÁRIO","enquadramento_1":"INADEQUADO","enquadramento_2":"ADEQUADO","fonte":"Camada QualidadeResiduos do acervo geoespacial do Projeto Potengi"},"geometry":{"type":"Polygon","coordinates":[[[-35.605482,-6.050812],[-35.647483,-6.016038],[-35.650193,-5.976435],[-35.572227,-5.932308],[-35.555617,-5.948496],[-35.537401,-5.995684],[-35.554802,-6.039418],[-35.555951,-6.040049],[-35.557668,-6.039601],[-35.558695,-6.040119],[-35.56038,-6.039281],[-35.560391,-6.037562],[-35.56174,-6.037942],[-35.561884,-6.038824],[-35.563379,-6.040443],[-35.565068,-6.038339],[-35.56798,-6.038468],[-35.56821,-6.039946],[-35.571498,-6.038582],[-35.571942,-6.039263],[-35.573407,-6.038812],[-35.573876,-6.039492],[-35.575443,-6.039681],[-35.575851,-6.040506],[-35.578528,-6.039981],[-35.579432,-6.041889],[-35.580296,-6.041376],[-35.580888,-6.039266],[-35.582063,-6.039473],[-35.583327,-6.038728],[-35.583982,-6.040053],[-35.585199,-6.03971],[-35.585716,-6.040737],[-35.586456,-6.040282],[-35.588477,-6.040863],[-35.588642,-6.04183],[-35.58793,-6.042246],[-35.589546,-6.044066],[-35.58942,-6.045954],[-35.590654,-6.045952],[-35.5913,-6.045279],[-35.592215,-6.046153],[-35.593337,-6.045769],[-35.596031,-6.047548],[-35.596695,-6.049259],[-35.599545,-6.048977],[-35.600117,-6.048119],[-35.601247,-6.047739],[-35.601973,-6.049004],[-35.605482,-6.050812]]]}},{"type":"Feature","id":5,"properties":{"municipio":"Cerro Corá","iqr_inferior":6.25,"iqr_medio":6.0,"iqr_superior":6.25,"enquadramento":"CONTROLADO","tipo_2":"ATERRO CONTROLADO","enquadramento_1":"CONTROLADO","enquadramento_2":"CONTROLADO","fonte":"Camada QualidadeResiduos do acervo geoespacial do Projeto Potengi"},"geometry":{"type":"MultiPolygon","coordinates":[[[[-36.253251,-5.834799],[-36.2581,-5.847261],[-36.259897,-5.855404],[-36.259942,-5.859611],[-36.259099,-5.863068],[-36.257956,-5.86484],[-36.224179,-5.899953],[-36.252894,-5.982007],[-36.281357,-6.044042],[-36.302098,-6.114966],[-36.303036,-6.11354],[-36.30526,-6.113303],[-36.307647,-6.115194],[-36.309463,-6.115014],[-36.311454,-6.116495],[-36.312992,-6.115534],[-36.313355,-6.116303],[-36.320984,-6.112461],[-36.328171,-6.107042],[-36.328858,-6.103509],[-36.332921,-6.103409],[-36.335319,-6.101386],[-36.338061,-6.100569],[-36.3396,-6.098908],[-36.348507,-6.095874],[-36.35318,-6.091227],[-36.353549,-6.089997],[-36.356546,-6.088528],[-36.35717,-6.087841],[-36.357264,-6.086561],[-36.358882,-6.086391],[-36.35802,-6.084465],[-36.359591,-6.082103],[-36.362352,-6.083685],[-36.363652,-6.082791],[-36.365876,-6.082705],[-36.367835,-6.081492],[-36.369317,-6.081751],[-36.36994,-6.079905],[-36.371756,-6.079688],[-36.372027,-6.076918],[-36.372867,-6.076639],[-36.372699,-6.075107],[-36.374404,-6.074402],[-36.374298,-6.072856],[-36.376461,-6.072569],[-36.377596,-6.071783],[-36.378461,-6.069862],[-36.37959,-6.069582],[-36.380587,-6.070313],[-36.381325,-6.069858],[-36.381306,-6.068112],[-36.380391,-6.067118],[-36.380179,-6.065541],[-36.381765,-6.064424],[-36.382104,-6.062929],[-36.383558,-6.062782],[-36.384707,-6.058641],[-36.386013,-6.058944],[-36.388299,-6.056847],[-36.388904,-6.05706],[-36.38978,-6.05585],[-36.39071,-6.056157],[-36.392531,-6.054679],[-36.392629,-6.053953],[-36.395432,-6.053849],[-36.395871,-6.052788],[-36.396545,-6.052627],[-36.395024,-6.050496],[-36.396709,-6.049734],[-36.397286,-6.051052],[-36.398648,-6.052197],[-36.399688,-6.05127],[-36.400633,-6.048582],[-36.401707,-6.04924],[-36.404028,-6.049272],[-36.404716,-6.050014],[-36.405605,-6.048674],[-36.40538,-6.048031],[-36.406367,-6.047756],[-36.406797,-6.046406],[-36.408283,-6.045386],[-36.408995,-6.043832],[-36.411178,-6.04346],[-36.411445,-6.044025],[-36.412769,-6.044391],[-36.413563,-6.044001],[-36.413379,-6.043105],[-36.412707,-6.042433],[-36.411255,-6.042392],[-36.411115,-6.041519],[-36.41201,-6.039957],[-36.410022,-6.039621],[-36.41055,-6.037904],[-36.409403,-6.035743],[-36.407529,-6.035871],[-36.406424,-6.035032],[-36.4058,-6.036761],[-36.403276,-6.03894],[-36.402098,-6.038767],[-36.401558,-6.037609],[-36.398421,-6.036772],[-36.397057,-6.034938],[-36.395692,-6.035073],[-36.395273,-6.034636],[-36.395833,-6.031449],[-36.397517,-6.031391],[-36.398321,-6.030299],[-36.39889,-6.02724],[-36.398423,-6.024468],[-36.399783,-6.021246],[-36.399556,-6.019318],[-36.397938,-6.018273],[-36.398083,-6.017279],[-36.39718,-6.016372],[-36.395438,-6.016217],[-36.394203,-6.015101],[-36.393901,-6.012194],[-36.393083,-6.010785],[-36.393321,-6.008881],[-36.39287,-6.007622],[-36.39358,-6.00694],[-36.39344,-6.005497],[-36.391841,-6.002446],[-36.392074,-6.001746],[-36.390888,-6.000534],[-36.390028,-6.000395],[-36.38777,-6.002095],[-36.385385,-6.002706],[-36.382298,-6.005786],[-36.38055,-6.0065],[-36.377944,-6.005644],[-36.377266,-6.002824],[-36.378489,-5.997673],[-36.377955,-5.995166],[-36.378362,-5.994379],[-36.376358,-5.993326],[-36.375985,-5.992121],[-36.375248,-5.991722],[-36.373955,-5.992007],[-36.372783,-5.984169],[-36.373984,-5.979409],[-36.372519,-5.977544],[-36.370449,-5.969672],[-36.363086,-5.968924],[-36.371782,-5.921861],[-36.36861,-5.920276],[-36.366631,-5.920372],[-36.365429,-5.919484],[-36.362878,-5.920427],[-36.361788,-5.917849],[-36.361802,-5.914896],[-36.360151,-5.911422],[-36.356454,-5.906398],[-36.353639,-5.904973],[-36.34793,-5.904484],[-36.345724,-5.904832],[-36.338517,-5.907362],[-36.338075,-5.904996],[-36.33514,-5.902402],[-36.333058,-5.89919],[-36.332225,-5.895799],[-36.333058,-5.894134],[-36.332899,-5.892693],[-36.332341,-5.894099],[-36.320866,-5.86605],[-36.313347,-5.864293],[-36.309497,-5.864719],[-36.305493,-5.862919],[-36.284752,-5.859291],[-36.276091,-5.845546],[-36.272384,-5.844703],[-36.269056,-5.842577],[-36.266587,-5.84363],[-36.264413,-5.837392],[-36.263173,-5.836737],[-36.261531,-5.834344],[-36.262148,-5.832457],[-36.261788,-5.832271],[-36.259545,-5.832421],[-36.259117,-5.831462],[-36.253251,-5.834799]]],[[[-36.2957,-6.122166],[-36.302813,-6.121019],[-36.303274,-6.120124],[-36.301893,-6.115709],[-36.2957,-6.122166]]]]}},{"type":"Feature","id":6,"properties":{"municipio":"Currais Novos","iqr_inferior":5.68,"iqr_medio":6.0,"iqr_superior":5.68,"enquadramento":"INADEQUADO","tipo_2":"ATERRO CONTROLADO","enquadramento_1":"INADEQUADO","enquadramento_2":"INADEQUADO","fonte":"Camada QualidadeResiduos do acervo geoespacial do Projeto Potengi"},"geometry":{"type":"MultiPolygon","coordinates":[[[[-36.320984,-6.112461],[-36.313419,-6.116438],[-36.314687,-6.11706],[-36.317344,-6.11576],[-36.317677,-6.116763],[-36.321804,-6.116026],[-36.321253,-6.11422],[-36.323983,-6.113374],[-36.324108,-6.11195],[-36.325524,-6.111594],[-36.32893,-6.109361],[-36.328171,-6.107042],[-36.320984,-6.112461]]],[[[-36.2957,-6.122166],[-36.256849,-6.158015],[-36.257162,-6.173597],[-36.261366,-6.17144],[-36.263066,-6.173133],[-36.264489,-6.173453],[-36.265151,-6.175482],[-36.266813,-6.17648],[-36.266676,-6.177956],[-36.271922,-6.178133],[-36.274407,-6.180832],[-36.277195,-6.179767],[-36.284291,-6.18025],[-36.285549,-6.179217],[-36.286946,-6.178983],[-36.288531,-6.180004],[-36.290793,-6.180211],[-36.292154,-6.178843],[-36.291559,-6.17727],[-36.291865,-6.175619],[-36.29294,-6.175255],[-36.294716,-6.175608],[-36.295426,-6.175136],[-36.294155,-6.170251],[-36.29289,-6.168943],[-36.293542,-6.166118],[-36.289367,-6.149012],[-36.289521,-6.146672],[-36.290323,-6.14537],[-36.290288,-6.144492],[-36.289685,-6.144049],[-36.289362,-6.139671],[-36.294636,-6.13796],[-36.295404,-6.13581],[-36.298136,-6.133768],[-36.299021,-6.131411],[-36.301419,-6.128906],[-36.300946,-6.127866],[-36.299584,-6.127073],[-36.29939,-6.124781],[-36.300978,-6.12367],[-36.302813,-6.121019],[-36.2957,-6.122166]]]]}},{"type":"Feature","id":7,"properties":{"municipio":"Ielmo Marinho","iqr_inferior":10.0,"iqr_medio":10.0,"iqr_superior":10.0,"enquadramento":"ADEQUADO","tipo_2":"ATERRO SANITÁRIO","enquadramento_1":"ADEQUADO","enquadramento_2":"ADEQUADO","fonte":"Camada QualidadeResiduos do acervo geoespacial do Projeto Potengi"},"geometry":{"type":"Polygon","coordinates":[[[-35.557694,-5.72113],[-35.556327,-5.716935],[-35.555213,-5.717745],[-35.554172,-5.717592],[-35.553946,-5.718327],[-35.552233,-5.718321],[-35.551733,-5.71918],[-35.550283,-5.719898],[-35.547889,-5.719241],[-35.547149,-5.721506],[-35.543527,-5.722088],[-35.543434,-5.722881],[-35.542731,-5.723035],[-35.539444,-5.722557],[-35.53742,-5.720306],[-35.53721,-5.719403],[-35.535803,-5.718668],[-35.532912,-5.718523],[-35.529946,-5.721268],[-35.528502,-5.721391],[-35.528771,-5.722139],[-35.52768,-5.725655],[-35.525742,-5.725299],[-35.520445,-5.720553],[-35.519952,-5.72127],[-35.516964,-5.72172],[-35.51764,-5.720337],[-35.517303,-5.718812],[-35.516187,-5.719213],[-35.515249,-5.717896],[-35.514152,-5.717768],[-35.513892,-5.717201],[-35.511945,-5.717594],[-35.512026,-5.719899],[-35.510499,-5.720362],[-35.509739,-5.723657],[-35.508349,-5.724285],[-35.506567,-5.727109],[-35.504291,-5.72853],[-35.503069,-5.730106],[-35.501776,-5.729417],[-35.500944,-5.72962],[-35.499855,-5.73052],[-35.49997,-5.731811],[-35.499043,-5.73163],[-35.498671,-5.730865],[-35.497609,-5.731362],[-35.497382,-5.733858],[-35.499664,-5.735142],[-35.499003,-5.73649],[-35.495518,-5.737775],[-35.495129,-5.737371],[-35.494438,-5.738844],[-35.493135,-5.739233],[-35.49387,-5.742021],[-35.495907,-5.742161],[-35.495576,-5.743488],[-35.494436,-5.74326],[-35.494106,-5.743941],[-35.492472,-5.742923],[-35.490653,-5.743724],[-35.490256,-5.745287],[-35.489213,-5.745566],[-35.487752,-5.74801],[-35.48886,-5.748685],[-35.489014,-5.749588],[-35.487295,-5.756069],[-35.488641,-5.756952],[-35.487978,-5.757114],[-35.489081,-5.758508],[-35.488635,-5.7588],[-35.488663,-5.76013],[-35.487791,-5.760271],[-35.486958,-5.761865],[-35.488649,-5.763849],[-35.491004,-5.768417],[-35.490219,-5.769488],[-35.487435,-5.769916],[-35.479493,-5.768172],[-35.477708,-5.766566],[-35.475923,-5.762818],[-35.468128,-5.759095],[-35.462512,-5.757858],[-35.459657,-5.757953],[-35.457182,-5.760808],[-35.453574,-5.760883],[-35.471585,-5.834825],[-35.485031,-5.829933],[-35.487501,-5.829688],[-35.52901,-5.881809],[-35.591453,-5.868878],[-35.594526,-5.867485],[-35.635441,-5.803541],[-35.656498,-5.718114],[-35.631816,-5.714386],[-35.626098,-5.714906],[-35.624735,-5.717167],[-35.625251,-5.718691],[-35.625011,-5.724327],[-35.622251,-5.726897],[-35.612162,-5.728515],[-35.610639,-5.731085],[-35.607927,-5.732465],[-35.6055,-5.735178],[-35.601359,-5.738033],[-35.598857,-5.742484],[-35.596802,-5.742001],[-35.595065,-5.743272],[-35.591124,-5.74382],[-35.588249,-5.745606],[-35.587638,-5.744628],[-35.584938,-5.744059],[-35.582991,-5.745168],[-35.581408,-5.745275],[-35.581074,-5.744428],[-35.575926,-5.742879],[-35.575784,-5.74212],[-35.572536,-5.741788],[-35.570964,-5.740487],[-35.571162,-5.739182],[-35.570452,-5.738067],[-35.570525,-5.736848],[-35.569577,-5.736373],[-35.569446,-5.735269],[-35.570234,-5.734593],[-35.570141,-5.733174],[-35.569574,-5.732667],[-35.570744,-5.730607],[-35.567797,-5.72938],[-35.566695,-5.729918],[-35.563681,-5.72948],[-35.563519,-5.728446],[-35.562816,-5.728193],[-35.561956,-5.728609],[-35.560717,-5.727457],[-35.560179,-5.724917],[-35.55893,-5.724026],[-35.558863,-5.722899],[-35.560026,-5.722582],[-35.560031,-5.721564],[-35.559139,-5.720999],[-35.557694,-5.72113]]]}},{"type":"Feature","id":8,"properties":{"municipio":"Lagoa de Velhos","iqr_inferior":6.25,"iqr_medio":6.0,"iqr_superior":6.25,"enquadramento":"CONTROLADO","tipo_2":"ATERRO CONTROLADO","enquadramento_1":"CONTROLADO","enquadramento_2":"CONTROLADO","fonte":"Camada QualidadeResiduos do acervo geoespacial do Projeto Potengi"},"geometry":{"type":"Polygon","coordinates":[[[-35.805353,-6.043324],[-35.822527,-6.073176],[-35.924804,-6.010633],[-35.834772,-5.947096],[-35.778338,-6.015875],[-35.798691,-6.042577],[-35.805353,-6.043324]]]}},{"type":"Feature","id":9,"properties":{"municipio":"Lajes","iqr_inferior":4.77,"iqr_medio":7.0,"iqr_superior":10.0,"enquadramento":"CONTROLADO","tipo_1":"TRANSBORDO","tipo_2":"ATERRO SANITÁRIO","enquadramento_1":"ADEQUADO","enquadramento_2":"INADEQUADO","fonte":"Camada QualidadeResiduos do acervo geoespacial do Projeto Potengi"},"geometry":{"type":"MultiPolygon","coordinates":[[[[-36.269056,-5.842577],[-36.272384,-5.844703],[-36.276091,-5.845546],[-36.284752,-5.859291],[-36.282953,-5.835206],[-36.278931,-5.834526],[-36.27549,-5.836512],[-36.269056,-5.842577]]],[[[-36.262148,-5.832457],[-36.262236,-5.832187],[-36.261788,-5.832271],[-36.262148,-5.832457]]],[[[-36.16798,-5.855936],[-36.172963,-5.855443],[-36.178085,-5.853394],[-36.180022,-5.853469],[-36.183953,-5.856273],[-36.185756,-5.858165],[-36.191332,-5.8689],[-36.196819,-5.883117],[-36.212879,-5.873726],[-36.224179,-5.899953],[-36.257956,-5.86484],[-36.259099,-5.863068],[-36.259942,-5.859611],[-36.259897,-5.855404],[-36.2581,-5.847261],[-36.253251,-5.834799],[-36.251061,-5.836223],[-36.248478,-5.83363],[-36.246222,-5.833341],[-36.246023,-5.835429],[-36.247571,-5.836377],[-36.247579,-5.837256],[-36.248719,-5.838316],[-36.248937,-5.839661],[-36.250054,-5.84087],[-36.250422,-5.843874],[-36.251157,-5.845084],[-36.249614,-5.846506],[-36.24532,-5.846613],[-36.244631,-5.847312],[-36.245203,-5.8493],[-36.24357,-5.849109],[-36.241595,-5.851045],[-36.239656,-5.849785],[-36.238972,-5.849902],[-36.238979,-5.851725],[-36.238506,-5.852179],[-36.235891,-5.851724],[-36.234896,-5.853189],[-36.23251,-5.852168],[-36.231359,-5.853755],[-36.229225,-5.853744],[-36.227657,-5.852213],[-36.227523,-5.850848],[-36.225724,-5.85036],[-36.223371,-5.851642],[-36.223075,-5.852829],[-36.221524,-5.853528],[-36.218531,-5.853044],[-36.217897,-5.855005],[-36.216516,-5.855565],[-36.215092,-5.855227],[-36.213918,-5.855815],[-36.213079,-5.854325],[-36.21071,-5.853701],[-36.207579,-5.855688],[-36.206087,-5.855092],[-36.205194,-5.856141],[-36.200899,-5.856513],[-36.195212,-5.853527],[-36.189719,-5.853527],[-36.185382,-5.852757],[-36.17633,-5.853001],[-36.173047,-5.850057],[-36.170057,-5.848905],[-36.166431,-5.84986],[-36.162664,-5.852539],[-36.16798,-5.855936]],[[-36.251295,-5.845123],[-36.251196,-5.845222],[-36.251157,-5.845084],[-36.251295,-5.845123]]],[[[-36.151601,-5.857571],[-36.152471,-5.853137],[-36.153386,-5.851325],[-36.155738,-5.849759],[-36.154534,-5.848813],[-36.151619,-5.848776],[-36.150749,-5.851061],[-36.151601,-5.857571]]],[[[-36.112496,-5.842201],[-36.113778,-5.843668],[-36.115987,-5.854634],[-36.117839,-5.859051],[-36.127216,-5.859423],[-36.132251,-5.861329],[-36.136117,-5.863939],[-36.137413,-5.863948],[-36.138578,-5.863241],[-36.140548,-5.857676],[-36.141843,-5.857099],[-36.143525,-5.857172],[-36.148019,-5.858914],[-36.14295,-5.855233],[-36.142189,-5.853996],[-36.141046,-5.854757],[-36.140571,-5.85628],[-36.139238,-5.857613],[-36.134123,-5.859561],[-36.129018,-5.857506],[-36.121904,-5.853882],[-36.12079,-5.851377],[-36.117026,-5.848027],[-36.11704,-5.845452],[-36.115345,-5.841437],[-36.112672,-5.840334],[-36.112496,-5.842201]]]]}},{"type":"Feature","id":10,"properties":{"municipio":"Macaíba","iqr_inferior":3.64,"iqr_medio":7.0,"iqr_superior":10.0,"enquadramento":"CONTROLADO","tipo_1":"TRANSBORDO","tipo_2":"ATERRO SANITÁRIO","enquadramento_1":"ADEQUADO","enquadramento_2":"INADEQUADO","fonte":"Camada QualidadeResiduos do acervo geoespacial do Projeto Potengi"},"geometry":{"type":"Polygon","coordinates":[[[-35.537483,-5.995891],[-35.555617,-5.948496],[-35.572227,-5.932308],[-35.529093,-5.881914],[-35.487501,-5.829688],[-35.485031,-5.829933],[-35.478893,-5.832528],[-35.454109,-5.839736],[-35.431938,-5.84422],[-35.43195,-5.845236],[-35.378856,-5.84325],[-35.308626,-5.836315],[-35.304507,-5.839531],[-35.30108,-5.839704],[-35.298546,-5.838813],[-35.292613,-5.834647],[-35.290712,-5.832436],[-35.288769,-5.831209],[-35.28197,-5.829473],[-35.281633,-5.833682],[-35.280707,-5.836548],[-35.282457,-5.836785],[-35.283051,-5.837995],[-35.282459,-5.84206],[-35.282624,-5.851459],[-35.286152,-5.850543],[-35.305901,-5.862441],[-35.310185,-5.873148],[-35.318837,-5.887968],[-35.322943,-5.903995],[-35.328722,-5.906935],[-35.33596,-5.908434],[-35.348997,-5.90997],[-35.355417,-5.914481],[-35.354878,-5.915345],[-35.355479,-5.916388],[-35.357425,-5.917251],[-35.356518,-5.920844],[-35.357156,-5.920992],[-35.357636,-5.922124],[-35.359669,-5.922492],[-35.360791,-5.923294],[-35.361278,-5.923922],[-35.359195,-5.92464],[-35.359238,-5.925717],[-35.360078,-5.925848],[-35.360769,-5.927543],[-35.361455,-5.927397],[-35.362966,-5.92904],[-35.363062,-5.930651],[-35.361868,-5.930979],[-35.361966,-5.932174],[-35.361171,-5.933086],[-35.364223,-5.934075],[-35.364338,-5.935236],[-35.365444,-5.935885],[-35.366312,-5.937542],[-35.370432,-5.936823],[-35.37104,-5.936932],[-35.371993,-5.938367],[-35.373774,-5.938183],[-35.373504,-5.939978],[-35.374598,-5.942743],[-35.376651,-5.943431],[-35.376707,-5.944321],[-35.378063,-5.944637],[-35.378163,-5.946002],[-35.381437,-5.948942],[-35.382171,-5.947522],[-35.383592,-5.948306],[-35.384689,-5.948],[-35.385411,-5.949088],[-35.384905,-5.950975],[-35.385762,-5.951548],[-35.387002,-5.955295],[-35.389563,-5.960066],[-35.388734,-5.962804],[-35.38905,-5.963565],[-35.386609,-5.964527],[-35.386634,-5.965661],[-35.387627,-5.966552],[-35.388238,-5.965946],[-35.390342,-5.966413],[-35.390586,-5.967186],[-35.391541,-5.967302],[-35.392443,-5.968426],[-35.391905,-5.969193],[-35.392256,-5.969358],[-35.391569,-5.97241],[-35.392896,-5.972728],[-35.393688,-5.973853],[-35.395016,-5.978634],[-35.396407,-5.97859],[-35.396745,-5.98057],[-35.397429,-5.981438],[-35.396855,-5.982267],[-35.398676,-5.982922],[-35.397663,-5.985985],[-35.398159,-5.986521],[-35.401283,-5.985904],[-35.401716,-5.984781],[-35.402643,-5.984744],[-35.402926,-5.985471],[-35.404027,-5.986137],[-35.404863,-5.985962],[-35.405616,-5.986845],[-35.406598,-5.986554],[-35.407638,-5.987473],[-35.408825,-5.986344],[-35.410214,-5.987247],[-35.410978,-5.986711],[-35.411616,-5.984783],[-35.412846,-5.984418],[-35.412999,-5.983292],[-35.414743,-5.983368],[-35.416953,-5.987012],[-35.418512,-5.986798],[-35.418708,-5.985972],[-35.420256,-5.985753],[-35.422478,-5.985887],[-35.422645,-5.98676],[-35.423838,-5.986118],[-35.423982,-5.985214],[-35.425377,-5.98668],[-35.426861,-5.985837],[-35.429091,-5.986572],[-35.428645,-5.987475],[-35.429194,-5.989015],[-35.42984,-5.989338],[-35.429586,-5.990533],[-35.431414,-5.989971],[-35.432552,-5.990661],[-35.433268,-5.99041],[-35.434341,-5.99132],[-35.435824,-5.990949],[-35.438992,-5.991507],[-35.438797,-5.992892],[-35.441748,-5.992848],[-35.443079,-5.994123],[-35.444664,-5.993788],[-35.447836,-5.995769],[-35.451335,-6.004509],[-35.464608,-6.009605],[-35.463948,-6.01048],[-35.463962,-6.01224],[-35.463103,-6.012444],[-35.462591,-6.013547],[-35.461597,-6.013376],[-35.460437,-6.014104],[-35.458683,-6.018809],[-35.460183,-6.018266],[-35.461891,-6.018975],[-35.4634,-6.018232],[-35.465988,-6.018722],[-35.465756,-6.0201],[-35.466516,-6.020615],[-35.469628,-6.019856],[-35.470408,-6.020569],[-35.470742,-6.019332],[-35.471647,-6.019087],[-35.472351,-6.021358],[-35.474209,-6.020786],[-35.47513,-6.02141],[-35.476863,-6.020341],[-35.478351,-6.020453],[-35.479516,-6.02182],[-35.480511,-6.021502],[-35.482915,-6.025132],[-35.486276,-6.027188],[-35.486155,-6.027876],[-35.484919,-6.028486],[-35.485167,-6.03029],[-35.488036,-6.029974],[-35.489309,-6.029027],[-35.495455,-6.032334],[-35.495397,-6.033435],[-35.496361,-6.034104],[-35.496228,-6.034704],[-35.499812,-6.03607],[-35.500382,-6.035186],[-35.504748,-6.037339],[-35.506528,-6.037607],[-35.50849,-6.036657],[-35.509535,-6.037677],[-35.511186,-6.03794],[-35.512337,-6.04006],[-35.513248,-6.039873],[-35.51411,-6.040397],[-35.514808,-6.039998],[-35.515056,-6.04051],[-35.516527,-6.039719],[-35.517105,-6.041761],[-35.51662,-6.042476],[-35.532335,-6.048466],[-35.533839,-6.047291],[-35.534535,-6.047649],[-35.534847,-6.046934],[-35.534442,-6.046063],[-35.532744,-6.045112],[-35.534218,-6.044245],[-35.536456,-6.044317],[-35.536252,-6.041756],[-35.538965,-6.039945],[-35.541222,-6.040847],[-35.542613,-6.040775],[-35.542828,-6.041657],[-35.544429,-6.041901],[-35.545286,-6.04262],[-35.546823,-6.041826],[-35.547219,-6.041008],[-35.548637,-6.040835],[-35.548491,-6.039263],[-35.54975,-6.03696],[-35.550578,-6.036676],[-35.552749,-6.037019],[-35.552691,-6.038631],[-35.554802,-6.039418],[-35.537483,-5.995891]]]}},{"type":"Feature","id":11,"properties":{"municipio":"Natal","iqr_inferior":3.64,"iqr_medio":7.0,"iqr_superior":10.0,"enquadramento":"CONTROLADO","tipo_1":"TRANSBORDO","tipo_2":"ATERRO SANITÁRIO","enquadramento_1":"ADEQUADO","enquadramento_2":"INADEQUADO","fonte":"Camada QualidadeResiduos do acervo geoespacial do Projeto Potengi"},"geometry":{"type":"MultiPolygon","coordinates":[[[[-35.280982,-5.765533],[-35.286816,-5.763152],[-35.288342,-5.757827],[-35.289095,-5.751689],[-35.281826,-5.757605],[-35.280875,-5.761233],[-35.280982,-5.765533]]],[[[-35.280239,-5.852059],[-35.282533,-5.849579],[-35.282459,-5.84206],[-35.283051,-5.837995],[-35.282457,-5.836785],[-35.280707,-5.836548],[-35.281633,-5.833682],[-35.281965,-5.830065],[-35.281515,-5.822045],[-35.279664,-5.818916],[-35.274452,-5.816993],[-35.270756,-5.813481],[-35.26689,-5.811567],[-35.261238,-5.810029],[-35.258464,-5.808375],[-35.255544,-5.805029],[-35.252282,-5.798197],[-35.251104,-5.787961],[-35.248106,-5.78393],[-35.247561,-5.782245],[-35.249026,-5.778227],[-35.249893,-5.777292],[-35.276943,-5.767077],[-35.27123,-5.760007],[-35.271508,-5.757289],[-35.269989,-5.756831],[-35.267669,-5.75444],[-35.263618,-5.753596],[-35.261665,-5.753911],[-35.258981,-5.756212],[-35.255266,-5.753117],[-35.251438,-5.753092],[-35.250475,-5.754045],[-35.246106,-5.754788],[-35.244678,-5.756358],[-35.242465,-5.7575],[-35.237682,-5.757286],[-35.231115,-5.755288],[-35.230687,-5.754788],[-35.231476,-5.752066],[-35.233268,-5.751057],[-35.236255,-5.746793],[-35.236112,-5.744437],[-35.234185,-5.743438],[-35.232186,-5.743866],[-35.23033,-5.743081],[-35.229901,-5.741511],[-35.231044,-5.740654],[-35.231186,-5.739797],[-35.230473,-5.737941],[-35.228117,-5.735372],[-35.220051,-5.736014],[-35.207564,-5.739961],[-35.207848,-5.740233],[-35.206325,-5.741043],[-35.20547,-5.742536],[-35.203632,-5.743243],[-35.203436,-5.748326],[-35.202033,-5.751176],[-35.201148,-5.752091],[-35.195213,-5.754715],[-35.194836,-5.755614],[-35.199565,-5.759839],[-35.200271,-5.764065],[-35.199176,-5.771891],[-35.196922,-5.778273],[-35.196922,-5.780486],[-35.20369,-5.784557],[-35.204126,-5.788654],[-35.201881,-5.793218],[-35.202072,-5.7995],[-35.203404,-5.80483],[-35.202452,-5.809494],[-35.202738,-5.814634],[-35.205022,-5.815585],[-35.206069,-5.817108],[-35.212732,-5.818631],[-35.22263,-5.815205],[-35.227008,-5.814253],[-35.236519,-5.822185],[-35.240103,-5.828011],[-35.243639,-5.84109],[-35.247977,-5.842569],[-35.253054,-5.841878],[-35.257937,-5.848422],[-35.263157,-5.853466],[-35.275522,-5.853303],[-35.280239,-5.852059]]]]}},{"type":"Feature","id":12,"properties":{"municipio":"Santa Maria","iqr_inferior":2.5,"iqr_medio":2.0,"iqr_superior":2.5,"enquadramento":"INADEQUADO","tipo_1":"LIXÃO EM OPERAÇÃO","enquadramento_1":"INADEQUADO","enquadramento_2":"INADEQUADO","fonte":"Camada QualidadeResiduos do acervo geoespacial do Projeto Potengi"},"geometry":{"type":"Polygon","coordinates":[[[-35.656278,-5.717983],[-35.63877,-5.79005],[-35.640063,-5.789041],[-35.641611,-5.790849],[-35.645104,-5.793055],[-35.645918,-5.792869],[-35.646726,-5.791414],[-35.649219,-5.792355],[-35.65205,-5.792177],[-35.655966,-5.793458],[-35.662363,-5.79683],[-35.663086,-5.796825],[-35.663803,-5.795008],[-35.667917,-5.79431],[-35.683096,-5.866125],[-35.682786,-5.867351],[-35.683247,-5.86898],[-35.688452,-5.869546],[-35.691626,-5.870892],[-35.694011,-5.868204],[-35.697358,-5.867916],[-35.698496,-5.865181],[-35.700569,-5.865522],[-35.701498,-5.863804],[-35.702661,-5.864424],[-35.703828,-5.864172],[-35.703866,-5.861468],[-35.708234,-5.861963],[-35.709689,-5.860892],[-35.713547,-5.862704],[-35.716221,-5.860647],[-35.717767,-5.860669],[-35.719712,-5.862011],[-35.72141,-5.868698],[-35.722318,-5.869052],[-35.725601,-5.867938],[-35.728342,-5.868602],[-35.729878,-5.868404],[-35.732505,-5.869347],[-35.736227,-5.869068],[-35.738769,-5.871592],[-35.742123,-5.872273],[-35.745068,-5.87116],[-35.750648,-5.870689],[-35.752191,-5.866963],[-35.763208,-5.861881],[-35.765853,-5.864129],[-35.77379,-5.862971],[-35.776142,-5.861016],[-35.779404,-5.860176],[-35.781217,-5.860419],[-35.783068,-5.859482],[-35.786246,-5.85898],[-35.79066,-5.856677],[-35.794752,-5.853214],[-35.796818,-5.853289],[-35.779579,-5.815181],[-35.777295,-5.72418],[-35.774976,-5.722945],[-35.775728,-5.720389],[-35.774119,-5.719475],[-35.773718,-5.718238],[-35.771124,-5.719255],[-35.767294,-5.716815],[-35.765689,-5.716538],[-35.689191,-5.717548],[-35.686408,-5.720072],[-35.67774,-5.723233],[-35.674266,-5.720996],[-35.672698,-5.717766],[-35.656278,-5.717983]]]}},{"type":"Feature","id":13,"properties":{"municipio":"Serra Caiada","iqr_inferior":6.25,"iqr_medio":6.0,"iqr_superior":6.25,"enquadramento":"CONTROLADO","tipo_2":"ATERRO CONTROLADO","enquadramento_1":"CONTROLADO","enquadramento_2":"CONTROLADO","fonte":"Camada QualidadeResiduos do acervo geoespacial do Projeto Potengi"},"geometry":{"type":"Polygon","coordinates":[[[-35.727106,-6.156995],[-35.73225,-6.142491],[-35.808246,-6.139658],[-35.820757,-6.129362],[-35.8258,-6.078865],[-35.805353,-6.043324],[-35.781667,-6.040669],[-35.74592,-6.062183],[-35.721666,-6.07441],[-35.700822,-6.071726],[-35.686382,-6.073102],[-35.672008,-6.076416],[-35.674073,-6.081304],[-35.681371,-6.079895],[-35.681728,-6.081037],[-35.680943,-6.084107],[-35.681942,-6.08789],[-35.680882,-6.090794],[-35.680845,-6.0926],[-35.6821,-6.094441],[-35.681121,-6.096825],[-35.681987,-6.099942],[-35.681649,-6.101254],[-35.681082,-6.101438],[-35.681536,-6.101591],[-35.681647,-6.102954],[-35.682214,-6.104089],[-35.684014,-6.104663],[-35.684709,-6.104311],[-35.685669,-6.106249],[-35.685389,-6.106793],[-35.686633,-6.10733],[-35.686119,-6.108222],[-35.688102,-6.111564],[-35.688673,-6.112247],[-35.689321,-6.111808],[-35.699694,-6.126579],[-35.702157,-6.132851],[-35.703828,-6.13382],[-35.703517,-6.13423],[-35.704538,-6.135006],[-35.705797,-6.134961],[-35.707136,-6.1358],[-35.707031,-6.136724],[-35.708486,-6.139203],[-35.709929,-6.139209],[-35.70993,-6.141102],[-35.710539,-6.142306],[-35.712153,-6.143473],[-35.712691,-6.144798],[-35.713037,-6.146343],[-35.712131,-6.147943],[-35.713708,-6.148345],[-35.713885,-6.149074],[-35.714926,-6.148692],[-35.715531,-6.149643],[-35.716751,-6.149278],[-35.717344,-6.149847],[-35.716439,-6.150507],[-35.717506,-6.153434],[-35.71807,-6.153005],[-35.719612,-6.153154],[-35.720101,-6.15378],[-35.721034,-6.153147],[-35.723494,-6.152839],[-35.724207,-6.153581],[-35.724775,-6.153288],[-35.727106,-6.156995]]]}},{"type":"Feature","id":14,"properties":{"municipio":"Riachuelo","iqr_inferior":3.41,"iqr_medio":7.0,"iqr_superior":10.0,"enquadramento":"CONTROLADO","tipo_1":"TRANSBORDO","tipo_2":"ATERRO SANITÁRIO","enquadramento_1":"ADEQUADO","enquadramento_2":"INADEQUADO","fonte":"Camada QualidadeResiduos do acervo geoespacial do Projeto Potengi"},"geometry":{"type":"Polygon","coordinates":[[[-35.852771,-5.724128],[-35.849489,-5.727026],[-35.846392,-5.727555],[-35.841809,-5.729532],[-35.835866,-5.729435],[-35.832361,-5.728305],[-35.83135,-5.730029],[-35.831576,-5.731505],[-35.826652,-5.731451],[-35.817018,-5.7335],[-35.816158,-5.732611],[-35.814802,-5.734086],[-35.811314,-5.734657],[-35.808623,-5.735928],[-35.8052,-5.734764],[-35.79837,-5.729577],[-35.777295,-5.72418],[-35.779579,-5.815181],[-35.796818,-5.853289],[-35.832729,-5.908803],[-35.842203,-5.914102],[-35.849818,-5.915366],[-35.926207,-5.79935],[-35.925378,-5.797564],[-35.923389,-5.796852],[-35.920347,-5.792906],[-35.916933,-5.790026],[-35.913512,-5.78829],[-35.910668,-5.785699],[-35.90554,-5.782524],[-35.900723,-5.77688],[-35.897725,-5.771655],[-35.896948,-5.771403],[-35.896962,-5.770452],[-35.893006,-5.767105],[-35.892587,-5.765737],[-35.889382,-5.763194],[-35.889025,-5.761726],[-35.887503,-5.760651],[-35.885102,-5.756828],[-35.88563,-5.755315],[-35.883299,-5.752381],[-35.881906,-5.752187],[-35.880984,-5.750403],[-35.880861,-5.74877],[-35.876566,-5.745408],[-35.877244,-5.743699],[-35.87464,-5.738955],[-35.871714,-5.736605],[-35.867336,-5.731846],[-35.86202,-5.725074],[-35.852771,-5.724128]]]}},{"type":"Feature","id":15,"properties":{"municipio":"Ruy Barbosa","iqr_inferior":5.68,"iqr_medio":6.0,"iqr_superior":5.68,"enquadramento":"INADEQUADO","tipo_2":"ATERRO CONTROLADO","enquadramento_1":"INADEQUADO","enquadramento_2":"INADEQUADO","fonte":"Camada QualidadeResiduos do acervo geoespacial do Projeto Potengi"},"geometry":{"type":"Polygon","coordinates":[[[-35.947505,-5.807629],[-35.943585,-5.815056],[-35.940611,-5.815294],[-35.938707,-5.813271],[-35.932759,-5.810416],[-35.930024,-5.807782],[-35.925666,-5.807502],[-35.925522,-5.800254],[-35.851097,-5.913334],[-35.857061,-5.911591],[-35.861521,-5.911615],[-35.868594,-5.906365],[-35.872623,-5.901053],[-35.873577,-5.901871],[-35.873714,-5.903946],[-35.874566,-5.904902],[-35.876866,-5.904962],[-35.879291,-5.906508],[-35.883272,-5.906796],[-35.885361,-5.909003],[-35.886993,-5.909273],[-35.893003,-5.906856],[-35.892613,-5.905207],[-35.890491,-5.903224],[-35.891103,-5.901899],[-35.892238,-5.901827],[-35.893528,-5.902888],[-35.894746,-5.903083],[-35.896843,-5.901887],[-35.895716,-5.900203],[-35.895775,-5.898899],[-35.896991,-5.898642],[-35.898055,-5.900374],[-35.899174,-5.900603],[-35.901883,-5.899136],[-35.901659,-5.896863],[-35.902535,-5.896138],[-35.906731,-5.897487],[-35.90604,-5.899514],[-35.907099,-5.90113],[-35.913096,-5.902735],[-35.913326,-5.902032],[-35.911154,-5.896833],[-35.911128,-5.894816],[-35.916231,-5.893258],[-35.91704,-5.893893],[-35.916616,-5.896465],[-35.922295,-5.898866],[-35.920459,-5.90249],[-35.919244,-5.908572],[-35.966676,-5.901299],[-36.013925,-5.835226],[-36.01169,-5.833655],[-36.007593,-5.825883],[-36.001644,-5.81944],[-36.001378,-5.817654],[-35.999821,-5.81582],[-35.994754,-5.814089],[-35.99351,-5.810795],[-35.991677,-5.808246],[-35.985488,-5.806725],[-35.983027,-5.805423],[-35.981051,-5.803694],[-35.975624,-5.794659],[-35.973518,-5.796232],[-35.973449,-5.797086],[-35.972271,-5.797163],[-35.967793,-5.799981],[-35.965378,-5.801646],[-35.963138,-5.804518],[-35.960934,-5.805604],[-35.957384,-5.804751],[-35.956279,-5.805689],[-35.953719,-5.806248],[-35.95182,-5.807374],[-35.948712,-5.80708],[-35.947505,-5.807629]]]}},{"type":"Feature","id":16,"properties":{"municipio":"Santa Cruz","iqr_inferior":2.95,"iqr_medio":5.0,"iqr_superior":6.25,"enquadramento":"INADEQUADO","tipo_1":"LIXÃO DESATIVADO","tipo_2":"ATERRO CONTROLADO","enquadramento_1":"CONTROLADO","enquadramento_2":"INADEQUADO","fonte":"Camada QualidadeResiduos do acervo geoespacial do Projeto Potengi"},"geometry":{"type":"MultiPolygon","coordinates":[[[[-36.023551,-6.074492],[-36.019328,-6.076632],[-36.013783,-6.082284],[-36.00851,-6.086591],[-36.01208,-6.087122],[-36.018743,-6.092364],[-36.021955,-6.091935],[-36.023669,-6.088723],[-36.021741,-6.085225],[-36.023092,-6.080203],[-36.022414,-6.078977],[-36.022978,-6.077704],[-36.021992,-6.075601],[-36.023561,-6.075382],[-36.023551,-6.074492]]],[[[-36.071872,-6.100432],[-36.067741,-6.096969],[-36.065829,-6.093791],[-36.06257,-6.090239],[-36.060978,-6.089065],[-36.049719,-6.085357],[-36.045157,-6.080027],[-36.031832,-6.069389],[-36.028412,-6.069386],[-36.026255,-6.071878],[-36.029048,-6.07269],[-36.030231,-6.070993],[-36.031778,-6.07149],[-36.034104,-6.074349],[-36.035688,-6.073583],[-36.035444,-6.075982],[-36.036369,-6.0766],[-36.039659,-6.081775],[-36.045465,-6.086248],[-36.048858,-6.090115],[-36.052491,-6.091433],[-36.062077,-6.091619],[-36.063338,-6.09254],[-36.06765,-6.099033],[-36.069684,-6.100142],[-36.069665,-6.101027],[-36.071712,-6.101022],[-36.074431,-6.102163],[-36.077677,-6.101514],[-36.071872,-6.100432]]],[[[-36.080352,-6.102013],[-36.078067,-6.101587],[-36.080297,-6.103903],[-36.080352,-6.102013]]],[[[-35.946638,-6.168771],[-35.940548,-6.165916],[-35.937351,-6.165767],[-35.931512,-6.168274],[-35.930606,-6.168134],[-35.929523,-6.165452],[-35.928373,-6.164412],[-35.923198,-6.163645],[-35.921952,-6.167003],[-35.922795,-6.170164],[-35.925472,-6.1718],[-35.929041,-6.171949],[-35.936477,-6.170313],[-35.940685,-6.16624],[-35.946638,-6.168771]]],[[[-35.955847,-6.170407],[-35.95104,-6.170329],[-35.953153,-6.171951],[-35.955247,-6.172331],[-35.955847,-6.170407]]],[[[-35.98233,-6.148746],[-35.97984,-6.146556],[-35.978703,-6.147709],[-35.976182,-6.148872],[-35.97144,-6.149624],[-35.969077,-6.147305],[-35.965334,-6.149008],[-35.963327,-6.147564],[-35.961701,-6.148571],[-35.962416,-6.152389],[-35.960186,-6.153125],[-35.959407,-6.153866],[-35.959576,-6.155014],[-35.960884,-6.155618],[-35.964025,-6.1556],[-35.967292,-6.156653],[-35.968187,-6.159613],[-35.967702,-6.171429],[-35.964603,-6.1716],[-35.960533,-6.170636],[-35.96154,-6.171741],[-35.964806,-6.173007],[-35.965191,-6.175542],[-35.966544,-6.175599],[-35.967717,-6.174862],[-35.971481,-6.17559],[-35.971973,-6.171247],[-35.970479,-6.169678],[-35.968737,-6.169307],[-35.9695,-6.168752],[-35.971925,-6.169251],[-35.972391,-6.164366],[-35.968299,-6.156371],[-35.965729,-6.154277],[-35.965919,-6.152088],[-35.968679,-6.150185],[-35.975938,-6.149196],[-35.980673,-6.147308],[-35.981126,-6.149368],[-35.982721,-6.149256],[-35.982857,-6.148422],[-35.98233,-6.148746]]],[[[-35.984696,-6.147293],[-35.98351,-6.148021],[-35.984915,-6.148201],[-35.984696,-6.147293]]],[[[-35.985773,-6.146094],[-35.986715,-6.145487],[-35.986544,-6.145234],[-35.985773,-6.146094]]],[[[-35.988012,-6.097264],[-35.986462,-6.09828],[-35.986441,-6.101182],[-35.987592,-6.103252],[-35.987614,-6.107155],[-35.986209,-6.111145],[-35.982965,-6.114608],[-35.980939,-6.124268],[-35.982831,-6.13444],[-35.986422,-6.141405],[-35.986798,-6.140811],[-35.985806,-6.138304],[-35.986148,-6.137037],[-35.985526,-6.135809],[-35.984758,-6.135791],[-35.983443,-6.125688],[-35.983471,-6.120711],[-35.985458,-6.120757],[-35.988426,-6.118467],[-35.989208,-6.116034],[-35.988786,-6.115412],[-35.989321,-6.113706],[-35.988881,-6.113283],[-35.989892,-6.113036],[-35.989094,-6.112171],[-35.988733,-6.110436],[-35.990228,-6.109662],[-35.988753,-6.107599],[-35.989863,-6.106653],[-35.990001,-6.105691],[-35.987974,-6.104199],[-35.988012,-6.097264]]],[[[-35.991538,-6.09427],[-35.991282,-6.094674],[-35.992189,-6.093589],[-35.991538,-6.09427]]],[[[-35.99389,-6.091809],[-35.99409,-6.091718],[-35.994087,-6.091476],[-35.99389,-6.091809]]],[[[-36.002645,-6.087557],[-35.999521,-6.086313],[-35.997539,-6.08696],[-35.999983,-6.087088],[-36.001273,-6.088069],[-36.002645,-6.087557]]]]}},{"type":"Feature","id":17,"properties":{"municipio":"Santana do Matos","iqr_inferior":6.25,"iqr_medio":6.0,"iqr_superior":6.25,"enquadramento":"CONTROLADO","tipo_2":"ATERRO CONTROLADO","enquadramento_1":"CONTROLADO","enquadramento_2":"CONTROLADO","fonte":"Camada QualidadeResiduos do acervo geoespacial do Projeto Potengi"},"geometry":{"type":"MultiPolygon","coordinates":[[[[-36.330306,-5.881611],[-36.329749,-5.876303],[-36.328729,-5.874928],[-36.329804,-5.873755],[-36.329735,-5.873108],[-36.328122,-5.872007],[-36.326899,-5.869037],[-36.325903,-5.869076],[-36.324882,-5.868152],[-36.324646,-5.865654],[-36.320866,-5.86605],[-36.332341,-5.894099],[-36.332899,-5.892693],[-36.331518,-5.890403],[-36.33352,-5.888014],[-36.332428,-5.885757],[-36.330774,-5.884766],[-36.330978,-5.882585],[-36.330306,-5.881611]]],[[[-36.316074,-5.86477],[-36.314446,-5.864171],[-36.313347,-5.864293],[-36.316074,-5.86477]]],[[[-36.284752,-5.859291],[-36.305493,-5.862919],[-36.29596,-5.857687],[-36.284752,-5.859291]]]]}},{"type":"Feature","id":18,"properties":{"municipio":"São Gonçalo do Amarante","iqr_inferior":10.0,"iqr_medio":10.0,"iqr_superior":10.0,"enquadramento":"ADEQUADO","tipo_2":"ATERRO SANITÁRIO","enquadramento_1":"ADEQUADO","enquadramento_2":"ADEQUADO","fonte":"Camada QualidadeResiduos do acervo geoespacial do Projeto Potengi"},"geometry":{"type":"Polygon","coordinates":[[[-35.286574,-5.7635],[-35.249352,-5.77777],[-35.247561,-5.782245],[-35.248106,-5.78393],[-35.251104,-5.787961],[-35.252282,-5.798197],[-35.255544,-5.805029],[-35.258464,-5.808375],[-35.261238,-5.810029],[-35.26689,-5.811567],[-35.270756,-5.813481],[-35.274452,-5.816993],[-35.279664,-5.818916],[-35.281515,-5.822045],[-35.28197,-5.829473],[-35.288769,-5.831209],[-35.290712,-5.832436],[-35.292613,-5.834647],[-35.298546,-5.838813],[-35.30108,-5.839704],[-35.304507,-5.839531],[-35.308626,-5.836315],[-35.378856,-5.84325],[-35.43195,-5.845236],[-35.431938,-5.84422],[-35.454109,-5.839736],[-35.471585,-5.834825],[-35.453574,-5.760883],[-35.452614,-5.760903],[-35.44573,-5.757015],[-35.439733,-5.754802],[-35.436378,-5.752589],[-35.433499,-5.752958],[-35.432678,-5.756015],[-35.429109,-5.761815],[-35.420632,-5.765087],[-35.410073,-5.765979],[-35.401378,-5.764348],[-35.395951,-5.762539],[-35.38992,-5.757564],[-35.386905,-5.754096],[-35.379668,-5.749724],[-35.376261,-5.751408],[-35.375072,-5.755584],[-35.375145,-5.759373],[-35.370321,-5.764499],[-35.361727,-5.76676],[-35.345144,-5.765856],[-35.3266,-5.760881],[-35.321191,-5.757031],[-35.317485,-5.755254],[-35.316854,-5.753466],[-35.315873,-5.753079],[-35.312367,-5.754022],[-35.308429,-5.75268],[-35.30701,-5.748558],[-35.30576,-5.747428],[-35.302962,-5.746259],[-35.300552,-5.74624],[-35.300669,-5.745294],[-35.299664,-5.744568],[-35.298896,-5.744905],[-35.298731,-5.74579],[-35.296932,-5.745903],[-35.295877,-5.747634],[-35.29301,-5.748503],[-35.289095,-5.751689],[-35.288342,-5.757827],[-35.286574,-5.7635]]]}},{"type":"Feature","id":19,"properties":{"municipio":"São Paulo do Potengi","iqr_inferior":2.95,"iqr_medio":6.0,"iqr_superior":10.0,"enquadramento":"INADEQUADO","tipo_1":"LIXÃO DESATIVADO","tipo_2":"LIXÃO EM OPERAÇÃO","enquadramento_1":"ADEQUADO","enquadramento_2":"INADEQUADO","fonte":"Camada QualidadeResiduos do acervo geoespacial do Projeto Potengi"},"geometry":{"type":"Polygon","coordinates":[[[-35.786246,-5.85898],[-35.781217,-5.860419],[-35.779404,-5.860176],[-35.776142,-5.861016],[-35.77379,-5.862971],[-35.767076,-5.864039],[-35.765177,-5.863794],[-35.763208,-5.861881],[-35.752191,-5.866963],[-35.750648,-5.870689],[-35.745068,-5.87116],[-35.742123,-5.872273],[-35.738769,-5.871592],[-35.736227,-5.869068],[-35.732505,-5.869347],[-35.729878,-5.868404],[-35.728342,-5.868602],[-35.725601,-5.867938],[-35.722318,-5.869052],[-35.72141,-5.868698],[-35.719712,-5.862011],[-35.717767,-5.860669],[-35.716221,-5.860647],[-35.713547,-5.862704],[-35.709689,-5.860892],[-35.708234,-5.861963],[-35.703866,-5.861468],[-35.703828,-5.864172],[-35.702661,-5.864424],[-35.701498,-5.863804],[-35.700569,-5.865522],[-35.698496,-5.865181],[-35.697358,-5.867916],[-35.694011,-5.868204],[-35.691626,-5.870892],[-35.688452,-5.869546],[-35.683247,-5.86898],[-35.685372,-5.879766],[-35.687452,-5.919096],[-35.674121,-5.974379],[-35.668406,-5.983889],[-35.70924,-6.000551],[-35.778338,-6.015875],[-35.834772,-5.947096],[-35.849818,-5.915366],[-35.842203,-5.914102],[-35.832729,-5.908803],[-35.796818,-5.853289],[-35.794752,-5.853214],[-35.79066,-5.856677],[-35.786246,-5.85898]]]}},{"type":"Feature","id":20,"properties":{"municipio":"São Pedro","iqr_inferior":4.77,"iqr_medio":7.0,"iqr_superior":10.0,"enquadramento":"CONTROLADO","tipo_1":"TRANSBORDO","tipo_2":"ATERRO SANITÁRIO","enquadramento_1":"ADEQUADO","enquadramento_2":"INADEQUADO","fonte":"Camada QualidadeResiduos do acervo geoespacial do Projeto Potengi"},"geometry":{"type":"Polygon","coordinates":[[[-35.63877,-5.79005],[-35.635441,-5.803541],[-35.594526,-5.867485],[-35.591453,-5.868878],[-35.52901,-5.881809],[-35.572227,-5.932308],[-35.650193,-5.976435],[-35.668406,-5.983889],[-35.674121,-5.974379],[-35.687452,-5.919096],[-35.685372,-5.879766],[-35.682786,-5.867351],[-35.683096,-5.866125],[-35.667917,-5.79431],[-35.663803,-5.795008],[-35.663086,-5.796825],[-35.662363,-5.79683],[-35.655966,-5.793458],[-35.65205,-5.792177],[-35.649219,-5.792355],[-35.646726,-5.791414],[-35.645918,-5.792869],[-35.645104,-5.793055],[-35.641611,-5.790849],[-35.640063,-5.789041],[-35.63877,-5.79005]]]}},{"type":"Feature","id":21,"properties":{"municipio":"São Tomé","iqr_inferior":6.25,"iqr_medio":6.0,"iqr_superior":6.25,"enquadramento":"CONTROLADO","tipo_2":"ATERRO CONTROLADO","enquadramento_1":"CONTROLADO","enquadramento_2":"CONTROLADO","fonte":"Camada QualidadeResiduos do acervo geoespacial do Projeto Potengi"},"geometry":{"type":"Polygon","coordinates":[[[-36.092123,-5.83574],[-36.09072,-5.838328],[-36.089809,-5.838999],[-36.087568,-5.838883],[-36.086702,-5.840748],[-36.083975,-5.841512],[-36.082057,-5.840257],[-36.08058,-5.840946],[-36.079339,-5.840203],[-36.077504,-5.842672],[-36.07493,-5.844634],[-36.06545,-5.849515],[-36.065267,-5.850891],[-36.06782,-5.856017],[-36.067119,-5.857311],[-36.065188,-5.858755],[-36.063799,-5.858747],[-36.049577,-5.85104],[-36.044629,-5.847123],[-36.039139,-5.844962],[-36.029088,-5.836553],[-36.026955,-5.835503],[-36.013925,-5.835226],[-35.966676,-5.901299],[-35.962703,-5.963833],[-35.963104,-5.966467],[-35.96424,-5.967948],[-35.96837,-5.969051],[-35.968778,-5.96987],[-35.968215,-5.970639],[-35.968496,-5.971417],[-35.970831,-5.971612],[-35.972442,-5.975535],[-35.977203,-5.979663],[-35.97764,-5.981888],[-35.977194,-5.983794],[-35.97848,-5.985859],[-35.977966,-5.989159],[-35.979715,-5.989746],[-35.98106,-5.991059],[-35.982093,-5.993206],[-35.982363,-5.995509],[-35.98418,-5.997985],[-35.98191,-5.999366],[-35.980734,-6.001333],[-35.979287,-6.00224],[-35.979583,-6.005135],[-35.978882,-6.006254],[-35.97891,-6.008023],[-35.976891,-6.010311],[-35.976831,-6.014399],[-35.978084,-6.016873],[-35.980965,-6.017969],[-35.98298,-6.020205],[-35.984033,-6.022314],[-35.988487,-6.025111],[-35.988439,-6.02815],[-35.990666,-6.033028],[-35.994461,-6.034772],[-35.997946,-6.03766],[-36.000592,-6.03792],[-36.005647,-6.041474],[-36.007662,-6.047309],[-36.01119,-6.049192],[-36.031832,-6.069389],[-36.045157,-6.080027],[-36.048813,-6.084717],[-36.060978,-6.089065],[-36.065829,-6.093791],[-36.069276,-6.098608],[-36.071872,-6.100432],[-36.080352,-6.102013],[-36.083364,-6.100188],[-36.084054,-6.097321],[-36.085103,-6.097788],[-36.085471,-6.096751],[-36.086071,-6.096686],[-36.087539,-6.096945],[-36.090264,-6.099302],[-36.097391,-6.099441],[-36.107064,-6.098612],[-36.108997,-6.099373],[-36.11408,-6.104085],[-36.115627,-6.104484],[-36.117692,-6.102889],[-36.117105,-6.098595],[-36.116304,-6.097789],[-36.116857,-6.096781],[-36.116376,-6.093256],[-36.117152,-6.091721],[-36.121002,-6.088559],[-36.122625,-6.088233],[-36.123359,-6.08894],[-36.131329,-6.091167],[-36.133365,-6.092646],[-36.135582,-6.091715],[-36.136769,-6.091908],[-36.138497,-6.093042],[-36.139362,-6.095248],[-36.140664,-6.0954],[-36.140834,-6.096315],[-36.142524,-6.096282],[-36.144237,-6.097398],[-36.154174,-6.106175],[-36.155698,-6.106379],[-36.159273,-6.105485],[-36.162906,-6.106472],[-36.165291,-6.109282],[-36.166506,-6.113063],[-36.172687,-6.117828],[-36.173767,-6.121741],[-36.181688,-6.12541],[-36.18887,-6.126882],[-36.192177,-6.129182],[-36.200162,-6.129607],[-36.209031,-6.133339],[-36.21202,-6.133435],[-36.214043,-6.132526],[-36.215858,-6.133775],[-36.2162,-6.134915],[-36.216817,-6.135065],[-36.218289,-6.139248],[-36.223381,-6.140467],[-36.224504,-6.141489],[-36.225174,-6.143352],[-36.225348,-6.151418],[-36.228165,-6.156264],[-36.227673,-6.162664],[-36.226199,-6.164124],[-36.233951,-6.164803],[-36.256849,-6.158015],[-36.2957,-6.122166],[-36.302098,-6.114966],[-36.281357,-6.044042],[-36.252894,-5.982007],[-36.224179,-5.899953],[-36.212879,-5.873726],[-36.196819,-5.883117],[-36.191332,-5.8689],[-36.185756,-5.858165],[-36.182087,-5.854646],[-36.180022,-5.853469],[-36.178085,-5.853394],[-36.172963,-5.855443],[-36.16798,-5.855936],[-36.162664,-5.852539],[-36.162148,-5.852906],[-36.157199,-5.850907],[-36.155738,-5.849759],[-36.153386,-5.851325],[-36.152471,-5.853137],[-36.151706,-5.858374],[-36.150388,-5.859949],[-36.143525,-5.857172],[-36.141843,-5.857099],[-36.140548,-5.857676],[-36.139895,-5.858645],[-36.138578,-5.863241],[-36.137413,-5.863948],[-36.136117,-5.863939],[-36.132251,-5.861329],[-36.127216,-5.859423],[-36.118613,-5.859313],[-36.117839,-5.859051],[-36.115987,-5.854634],[-36.113778,-5.843668],[-36.112496,-5.842201],[-36.111317,-5.839531],[-36.108027,-5.837553],[-36.104535,-5.832377],[-36.101768,-5.83008],[-36.099579,-5.829911],[-36.093923,-5.832784],[-36.092131,-5.834372],[-36.092123,-5.83574]]]}},{"type":"Feature","id":22,"properties":{"municipio":"Senador Elói de Souza","iqr_inferior":1.59,"iqr_medio":4.0,"iqr_superior":5.91,"enquadramento":"INADEQUADO","tipo_1":"LIXÃO DESATIVADO","tipo_2":"ATERRO CONTROLADO","enquadramento_1":"INADEQUADO","enquadramento_2":"INADEQUADO","fonte":"Camada QualidadeResiduos do acervo geoespacial do Projeto Potengi"},"geometry":{"type":"Polygon","coordinates":[[[-35.686326,-6.073115],[-35.700822,-6.071726],[-35.721666,-6.07441],[-35.74592,-6.062183],[-35.781667,-6.040669],[-35.798691,-6.042577],[-35.778338,-6.015875],[-35.70924,-6.000551],[-35.650193,-5.976435],[-35.647483,-6.016038],[-35.605482,-6.050812],[-35.605486,-6.052174],[-35.608312,-6.052289],[-35.609016,-6.052965],[-35.608432,-6.055137],[-35.609027,-6.05626],[-35.610821,-6.055922],[-35.611139,-6.057689],[-35.611726,-6.058073],[-35.611544,-6.058636],[-35.61071,-6.058639],[-35.609887,-6.060719],[-35.613803,-6.062084],[-35.614892,-6.063628],[-35.618074,-6.064761],[-35.618293,-6.065666],[-35.61988,-6.065478],[-35.620521,-6.066455],[-35.622305,-6.06706],[-35.623771,-6.065785],[-35.624884,-6.065899],[-35.626313,-6.064537],[-35.62701,-6.064523],[-35.628684,-6.066121],[-35.631137,-6.065026],[-35.631899,-6.065785],[-35.632686,-6.065321],[-35.634466,-6.068234],[-35.638779,-6.072053],[-35.63901,-6.074147],[-35.639717,-6.074561],[-35.639381,-6.07609],[-35.638359,-6.076696],[-35.640737,-6.078802],[-35.640172,-6.079547],[-35.640392,-6.080967],[-35.643562,-6.07995],[-35.644886,-6.080383],[-35.64573,-6.079716],[-35.646168,-6.080619],[-35.648071,-6.080334],[-35.648321,-6.078966],[-35.650032,-6.078476],[-35.65037,-6.077566],[-35.651395,-6.077796],[-35.652385,-6.076676],[-35.662334,-6.076738],[-35.671021,-6.075374],[-35.672008,-6.076416],[-35.686326,-6.073115]]]}},{"type":"Feature","id":23,"properties":{"municipio":"Sítio Novo","iqr_inferior":6.25,"iqr_medio":6.0,"iqr_superior":6.25,"enquadramento":"CONTROLADO","tipo_2":"ATERRO CONTROLADO","enquadramento_1":"CONTROLADO","enquadramento_2":"CONTROLADO","fonte":"Camada QualidadeResiduos do acervo geoespacial do Projeto Potengi"},"geometry":{"type":"Polygon","coordinates":[[[-36.026255,-6.071878],[-36.028412,-6.069386],[-36.031832,-6.069389],[-35.96793,-6.034805],[-35.924804,-6.010633],[-35.822527,-6.073176],[-35.82321,-6.074363],[-35.907645,-6.152955],[-35.908519,-6.152853],[-35.910976,-6.150274],[-35.915659,-6.151558],[-35.916414,-6.153351],[-35.917821,-6.154399],[-35.916098,-6.155775],[-35.915909,-6.15764],[-35.920825,-6.162361],[-35.922336,-6.161821],[-35.923251,-6.162331],[-35.923198,-6.163645],[-35.928373,-6.164412],[-35.929523,-6.165452],[-35.930606,-6.168134],[-35.931512,-6.168274],[-35.937351,-6.165767],[-35.939079,-6.165693],[-35.942794,-6.166744],[-35.95104,-6.170329],[-35.955847,-6.170407],[-35.956493,-6.168335],[-35.957462,-6.168188],[-35.960533,-6.170636],[-35.966889,-6.171817],[-35.968024,-6.170585],[-35.967553,-6.166837],[-35.968187,-6.159613],[-35.967707,-6.157418],[-35.966233,-6.156181],[-35.960884,-6.155618],[-35.959576,-6.155014],[-35.959407,-6.153866],[-35.960186,-6.153125],[-35.962416,-6.152389],[-35.961701,-6.148571],[-35.963327,-6.147564],[-35.965334,-6.149008],[-35.969077,-6.147305],[-35.97144,-6.149624],[-35.976182,-6.148872],[-35.978703,-6.147709],[-35.97984,-6.146556],[-35.98233,-6.148746],[-35.984696,-6.147293],[-35.986544,-6.145234],[-35.985136,-6.143794],[-35.985036,-6.143213],[-35.986422,-6.141405],[-35.982831,-6.13444],[-35.980939,-6.124268],[-35.982965,-6.114608],[-35.986209,-6.111145],[-35.987614,-6.107155],[-35.987592,-6.103252],[-35.986441,-6.101182],[-35.986462,-6.09828],[-35.988012,-6.097264],[-35.988029,-6.094248],[-35.991282,-6.094674],[-35.992268,-6.092866],[-35.994087,-6.091476],[-35.994629,-6.08743],[-35.999521,-6.086313],[-36.002645,-6.087557],[-36.005226,-6.086103],[-36.00851,-6.086591],[-36.013783,-6.082284],[-36.019328,-6.076632],[-36.023551,-6.074492],[-36.025089,-6.070971],[-36.026255,-6.071878]]]}},{"type":"Feature","id":24,"properties":{"municipio":"Tangará","iqr_inferior":5.91,"iqr_medio":6.0,"iqr_superior":5.91,"enquadramento":"INADEQUADO","tipo_2":"ATERRO CONTROLADO","enquadramento_1":"INADEQUADO","enquadramento_2":"INADEQUADO","fonte":"Camada QualidadeResiduos do acervo geoespacial do Projeto Potengi"},"geometry":{"type":"Polygon","coordinates":[[[-35.907645,-6.152955],[-35.82321,-6.074363],[-35.8258,-6.078865],[-35.820757,-6.129362],[-35.808246,-6.139658],[-35.73225,-6.142491],[-35.727106,-6.156995],[-35.727819,-6.15761],[-35.729348,-6.157333],[-35.729606,-6.158261],[-35.73265,-6.159936],[-35.73264,-6.163033],[-35.734667,-6.165171],[-35.737177,-6.166756],[-35.737398,-6.166302],[-35.738198,-6.166413],[-35.738717,-6.167312],[-35.739998,-6.1675],[-35.741426,-6.167062],[-35.741874,-6.166304],[-35.744148,-6.166133],[-35.744941,-6.165444],[-35.746259,-6.165638],[-35.749469,-6.167447],[-35.752739,-6.170097],[-35.752161,-6.171519],[-35.754563,-6.171575],[-35.759361,-6.175511],[-35.758828,-6.176003],[-35.758634,-6.178495],[-35.762125,-6.17965],[-35.76284,-6.178592],[-35.767012,-6.183238],[-35.775347,-6.182308],[-35.777342,-6.176439],[-35.782594,-6.173562],[-35.78374,-6.173779],[-35.78416,-6.172704],[-35.786191,-6.171591],[-35.801439,-6.166389],[-35.812432,-6.165104],[-35.826853,-6.172817],[-35.834738,-6.168568],[-35.839841,-6.168763],[-35.844262,-6.167099],[-35.845522,-6.166182],[-35.846087,-6.163703],[-35.847791,-6.161842],[-35.85522,-6.160605],[-35.85975,-6.161739],[-35.877909,-6.156944],[-35.889396,-6.159149],[-35.892156,-6.156675],[-35.895053,-6.158024],[-35.898397,-6.154246],[-35.89957,-6.153829],[-35.900587,-6.154759],[-35.902346,-6.153964],[-35.904859,-6.15446],[-35.907645,-6.152955]]]}},{"type":"Feature","id":25,"properties":{"municipio":"Vera Cruz","iqr_inferior":2.95,"iqr_medio":6.0,"iqr_superior":10.0,"enquadramento":"CONTROLADO","tipo_1":"LIXÃO DESATIVADO","tipo_2":"ATERRO SANITÁRIO","enquadramento_1":"ADEQUADO","enquadramento_2":"INADEQUADO","fonte":"Camada QualidadeResiduos do acervo geoespacial do Projeto Potengi"},"geometry":{"type":"MultiPolygon","coordinates":[[[[-35.496228,-6.034704],[-35.495808,-6.037886],[-35.497715,-6.036092],[-35.499812,-6.03607],[-35.496228,-6.034704]]],[[[-35.51662,-6.042476],[-35.517002,-6.043003],[-35.51733,-6.042747],[-35.51662,-6.042476]]],[[[-35.517781,-6.042919],[-35.518308,-6.043304],[-35.517957,-6.044006],[-35.519069,-6.044759],[-35.520036,-6.045156],[-35.521498,-6.044338],[-35.52322,-6.045663],[-35.522882,-6.047289],[-35.524126,-6.048558],[-35.525598,-6.048689],[-35.525262,-6.049682],[-35.528146,-6.053088],[-35.53199,-6.053083],[-35.531844,-6.051738],[-35.530928,-6.050494],[-35.531174,-6.048787],[-35.532335,-6.048466],[-35.517781,-6.042919]]]]}}]}