{"type":"FeatureCollection","features":[{"type":"Feature","id":1,"properties":{"rodovia":"101","tipo":"Eixo Principal","inicio":"ENTR RN-160(D) (P/EXTREMOZ)*TRECHO URBANO*","fim":"ENTR BR-406(A) (P/CEARÁ MIRIM)*TRECHO URBANO*","superficie":"PAV","localidade":"Macaíba","fonte":"DNIT (2019)","jurisdicao":"Federal"},"geometry":{"type":"LineString","coordinates":[[-35.288932,-5.751822],[-35.288247,-5.757697],[-35.287045,-5.762881]]}},{"type":"Feature","id":2,"properties":{"rodovia":"101","tipo":"Eixo Principal","inicio":"ENTR BR-406(A) (P/CEARÁ MIRIM)*TRECHO URBANO*","fim":"ENTR RN-160(E) (P/SÃO GONÇALO DO AMARANTE)*TRECHO URBANO*","superficie":"PAV","localidade":"Macaíba","fonte":"DNIT (2019)","jurisdicao":"Federal"},"geometry":{"type":"MultiLineString","coordinates":[[[-35.287045,-5.762881],[-35.286145,-5.763457],[-35.280862,-5.765476]],[[-35.27685,-5.767018],[-35.267815,-5.770402]]]}},{"type":"Feature","id":3,"properties":{"rodovia":"101","tipo":"Eixo Principal","inicio":"ENTR RN-160(E) (P/SÃO GONÇALO DO AMARANTE)*TRECHO URBANO*","fim":"ENTR RN - 302 (P/ REDINHA - PONTE NEWTON NAVARRO)*TRECHO URBANO*","superficie":"PAV","localidade":"Macaíba","fonte":"DNIT (2019)","jurisdicao":"Federal"},"geometry":{"type":"LineString","coordinates":[[-35.267815,-5.770402],[-35.255147,-5.775158],[-35.253721,-5.775567]]}},{"type":"Feature","id":4,"properties":{"rodovia":"101","tipo":"Eixo Principal","inicio":"ENTR RN - 302 (P/ REDINHA - PONTE NEWTON NAVARRO)*TRECHO URBANO*","fim":"ENTR BR-406(B) (PONTE PRESIDENTE COSTA E SILVA)*TRECHO URBANO*","superficie":"PAV","localidade":"Macaíba","fonte":"DNIT (2019)","jurisdicao":"Federal"},"geometry":{"type":"LineString","coordinates":[[-35.253721,-5.775567],[-35.249886,-5.777215],[-35.249084,-5.778041],[-35.248492,-5.779328]]}},{"type":"Feature","id":5,"properties":{"rodovia":"101","tipo":"Eixo Principal","inicio":"ENTR BR-406(B) (PONTE PRESIDENTE COSTA E SILVA)*TRECHO URBANO*","fim":"ENTR BR-226 (VIADUTO DA URBANA)*TRECHO URBANO*","superficie":"PAV","localidade":"Macaíba","fonte":"DNIT (2019)","jurisdicao":"Federal"},"geometry":{"type":"LineString","coordinates":[[-35.248492,-5.779328],[-35.246115,-5.785398],[-35.243156,-5.792312],[-35.242285,-5.793571],[-35.237416,-5.798509],[-35.238005,-5.798897],[-35.238183,-5.800014]]}},{"type":"Feature","id":6,"properties":{"rodovia":"101","tipo":"Eixo Principal","inicio":"ENTR BR-226 (VIADUTO DA URBANA)*TRECHO URBANO*","fim":"ENTR BR-304(A) (COMPLEXO VIÁRIO DO 4º CENTENÁRIO/NATAL) *TRECHO URBANO*","superficie":"PAV","localidade":"Macaíba","fonte":"DNIT (2019)","jurisdicao":"Federal"},"geometry":{"type":"LineString","coordinates":[[-35.238183,-5.800014],[-35.236992,-5.801033],[-35.23626,-5.801409],[-35.235186,-5.801689],[-35.20503,-5.812735],[-35.206667,-5.817245]]}},{"type":"Feature","id":7,"properties":{"rodovia":"104","tipo":"Eixo Principal","inicio":"ENTR BR-304(B) (LAJES)","fim":"ENTR RN-042","superficie":"PLA","localidade":"Currais Novos","fonte":"DNIT (2019)","jurisdicao":"Federal"},"geometry":{"type":"LineString","coordinates":[[-36.279207,-5.834561],[-36.281534,-5.836766],[-36.28287,-5.839502],[-36.282318,-5.845498],[-36.281688,-5.846926],[-36.281517,-5.848108],[-36.282327,-5.849035],[-36.283146,-5.851305],[-36.283774,-5.852291],[-36.283836,-5.853218],[-36.284375,-5.854448],[-36.286022,-5.853638],[-36.286537,-5.853697],[-36.287541,-5.852932],[-36.289541,-5.852471],[-36.289617,-5.852894],[-36.289339,-5.853859],[-36.290107,-5.854749],[-36.290876,-5.857535],[-36.291775,-5.858485],[-36.292952,-5.85942],[-36.294002,-5.859859],[-36.298134,-5.859705],[-36.299166,-5.859895],[-36.299698,-5.862053],[-36.300015,-5.86213],[-36.300695,-5.861922],[-36.301469,-5.86206],[-36.30241,-5.862713],[-36.302436,-5.863396],[-36.30267,-5.86357],[-36.303022,-5.866091],[-36.303845,-5.866525],[-36.30466,-5.866678],[-36.305296,-5.866247],[-36.306958,-5.867385],[-36.308185,-5.868755],[-36.309076,-5.870116],[-36.311316,-5.871679],[-36.311906,-5.872708],[-36.311914,-5.873062],[-36.311358,-5.874461],[-36.310202,-5.879489],[-36.310461,-5.880302],[-36.310343,-5.88091],[-36.310556,-5.881845],[-36.310204,-5.882877],[-36.309629,-5.886575],[-36.308682,-5.887978],[-36.308259,-5.889201],[-36.303364,-5.890481],[-36.301435,-5.892498],[-36.302016,-5.893512],[-36.303829,-5.895447],[-36.30387,-5.89601],[-36.303601,-5.896848],[-36.302963,-5.897386],[-36.302522,-5.89892],[-36.30213,-5.899666],[-36.30216,-5.901265],[-36.302595,-5.901884],[-36.303556,-5.902296],[-36.304153,-5.902955],[-36.305118,-5.903629],[-36.3058,-5.903802],[-36.307199,-5.903588],[-36.307579,-5.903703],[-36.308042,-5.904375],[-36.309116,-5.905027],[-36.309529,-5.905787],[-36.310363,-5.906235],[-36.310461,-5.906764],[-36.310263,-5.907215],[-36.310606,-5.907546],[-36.311288,-5.907743],[-36.312657,-5.907516],[-36.315679,-5.909015],[-36.317187,-5.911868],[-36.317694,-5.912404],[-36.318266,-5.91202],[-36.319473,-5.911878],[-36.321274,-5.912661],[-36.322122,-5.91329]]}},{"type":"Feature","id":8,"properties":{"rodovia":"104","tipo":"Eixo Principal","inicio":"ENTR RN-042","fim":"ENTR RN-203(A)","superficie":"PLA","localidade":"Currais Novos","fonte":"DNIT (2019)","jurisdicao":"Federal"},"geometry":{"type":"LineString","coordinates":[[-36.322122,-5.91329],[-36.322931,-5.91669],[-36.322739,-5.91889],[-36.324331,-5.929567],[-36.324842,-5.930608],[-36.324728,-5.933374],[-36.326569,-5.935262],[-36.327912,-5.935792],[-36.329073,-5.93699],[-36.329356,-5.938775],[-36.330495,-5.939257],[-36.330641,-5.939592],[-36.330566,-5.940178],[-36.331435,-5.941017],[-36.33161,-5.941531],[-36.331545,-5.941889],[-36.331111,-5.942652],[-36.331123,-5.943689],[-36.330751,-5.94389],[-36.330487,-5.944329],[-36.330621,-5.944681],[-36.331544,-5.944923],[-36.332086,-5.944613],[-36.332855,-5.943233],[-36.333206,-5.943175],[-36.333875,-5.943611],[-36.334052,-5.944246],[-36.334597,-5.944789],[-36.334819,-5.947431],[-36.336645,-5.949322],[-36.337862,-5.952463],[-36.337197,-5.954529],[-36.337382,-5.955685],[-36.337073,-5.956906],[-36.337834,-5.959685],[-36.339361,-5.963463],[-36.339333,-5.968437],[-36.340624,-5.970794],[-36.340606,-5.971955],[-36.340749,-5.972247],[-36.341252,-5.972365],[-36.341522,-5.9721],[-36.341611,-5.971435],[-36.341865,-5.971229],[-36.342488,-5.971235],[-36.344155,-5.972713],[-36.345198,-5.972636],[-36.347362,-5.974044],[-36.348643,-5.976047],[-36.348598,-5.976596],[-36.34796,-5.978556],[-36.347224,-5.983575],[-36.347445,-5.984548],[-36.347257,-5.987789],[-36.346797,-5.989213],[-36.347203,-5.990994],[-36.346524,-5.99267],[-36.345624,-5.993064],[-36.345263,-5.993629],[-36.345369,-5.993951],[-36.346616,-5.995051],[-36.346746,-5.995381],[-36.346327,-5.999524],[-36.346962,-6.002155],[-36.348758,-6.003944],[-36.349438,-6.005288],[-36.352127,-6.006298],[-36.35302,-6.007717],[-36.352887,-6.00888],[-36.353214,-6.009702],[-36.35554,-6.011728],[-36.357434,-6.012351],[-36.358924,-6.012479],[-36.362236,-6.013967],[-36.362914,-6.014622],[-36.363935,-6.016271],[-36.3639,-6.017445],[-36.364723,-6.018359],[-36.365197,-6.018543],[-36.365667,-6.019031],[-36.367918,-6.019706],[-36.368143,-6.020031],[-36.368151,-6.020366],[-36.367861,-6.021066],[-36.36848,-6.021833],[-36.368981,-6.023347]]}},{"type":"Feature","id":9,"properties":{"rodovia":"104","tipo":"Eixo Principal","inicio":"ENTR RN-203(A)","fim":"ENTR RN-203(B) (CERRO CORÁ)","superficie":"PLA","localidade":"Currais Novos","fonte":"DNIT (2019)","jurisdicao":"Federal"},"geometry":{"type":"LineString","coordinates":[[-36.368981,-6.023347],[-36.364962,-6.024661],[-36.362355,-6.02797],[-36.361471,-6.028811],[-36.360515,-6.029028],[-36.359368,-6.028862],[-36.358514,-6.028422],[-36.356465,-6.026874],[-36.353171,-6.027198],[-36.348207,-6.030728],[-36.347584,-6.033094],[-36.346526,-6.034646],[-36.346573,-6.035225]]}},{"type":"Feature","id":10,"properties":{"rodovia":"104","tipo":"Eixo Principal","inicio":"ENTR RN-203(B) (CERRO CORÁ)","fim":"ENTR RN-087","superficie":"PLA","localidade":"Currais Novos","fonte":"DNIT (2019)","jurisdicao":"Federal"},"geometry":{"type":"LineString","coordinates":[[-36.346573,-6.035225],[-36.347198,-6.036454],[-36.346289,-6.042444],[-36.346438,-6.045616],[-36.347101,-6.046951],[-36.348304,-6.047686],[-36.349602,-6.047466],[-36.352815,-6.050285],[-36.354524,-6.05251],[-36.357889,-6.055533],[-36.360569,-6.056754]]}},{"type":"Feature","id":11,"properties":{"rodovia":"104","tipo":"Eixo Principal","inicio":"ENTR RN-087","fim":"ENTR BR-226(A) (P/CURRAIS NOVOS)","superficie":"PLA","localidade":"Currais Novos","fonte":"DNIT (2019)","jurisdicao":"Federal"},"geometry":{"type":"MultiLineString","coordinates":[[[-36.360569,-6.056754],[-36.361477,-6.057623],[-36.361968,-6.059864],[-36.363265,-6.062754],[-36.366659,-6.066069],[-36.36708,-6.066822],[-36.367429,-6.068565],[-36.368583,-6.071285],[-36.368788,-6.072617],[-36.370257,-6.073845],[-36.370656,-6.075018],[-36.370346,-6.07597],[-36.369625,-6.077191],[-36.368791,-6.077957],[-36.367953,-6.07809],[-36.366849,-6.07909],[-36.366386,-6.079995],[-36.365068,-6.080873],[-36.364998,-6.081499],[-36.362206,-6.083647]],[[-36.35883,-6.086275],[-36.35827,-6.086711]],[[-36.35711,-6.087613],[-36.355552,-6.088826]],[[-36.353554,-6.090382],[-36.349769,-6.093327],[-36.349099,-6.094692],[-36.347825,-6.095865],[-36.346014,-6.096077],[-36.345007,-6.09658],[-36.34479,-6.096779],[-36.344775,-6.097157]]]}},{"type":"Feature","id":12,"properties":{"rodovia":"104","tipo":"Eixo Principal","inicio":"ENTR BR-226(A) (P/CURRAIS NOVOS)","fim":"ENTR BR-226(B) (CAMPO REDONDO)","superficie":"PAV","localidade":"Currais Novos","fonte":"DNIT (2019)","jurisdicao":"Federal"},"geometry":{"type":"LineString","coordinates":[[-36.244709,-6.188483],[-36.237466,-6.187819],[-36.234659,-6.188243]]}},{"type":"Feature","id":13,"properties":{"rodovia":"226","tipo":"Eixo Principal","inicio":"ENTR BR-101 (VIADUTO DA URBANA - NATAL)*TRECHO URBANO*","fim":"INÍCIO DA PISTA DUPLA *TRECHO URBANO*","superficie":"PAV","localidade":"Macaíba","fonte":"DNIT (2019)","jurisdicao":"Federal"},"geometry":{"type":"LineString","coordinates":[[-35.238183,-5.800014],[-35.238088,-5.800292],[-35.238347,-5.800516],[-35.23837,-5.800763],[-35.237656,-5.802655],[-35.237676,-5.803169],[-35.238392,-5.804191],[-35.240167,-5.80546]]}},{"type":"Feature","id":14,"properties":{"rodovia":"226","tipo":"Eixo Principal","inicio":"INÍCIO DA PISTA DUPLA","fim":"FIM PISTA DUPLA (ENTR AV C MOR GOLVEIA) *TRECHO URBANO*","superficie":"PAV","localidade":"Macaíba","fonte":"DNIT (2019)","jurisdicao":"Federal"},"geometry":{"type":"LineString","coordinates":[[-35.240167,-5.80546],[-35.242964,-5.807374],[-35.246114,-5.813164],[-35.248008,-5.814762],[-35.248572,-5.815491]]}},{"type":"Feature","id":15,"properties":{"rodovia":"226","tipo":"Eixo Principal","inicio":"FIM PISTA DUPLA (ENTR AV C MOR GOLVEIA)","fim":"ENTR BR-304(A) (MACAÍBA)","superficie":"PAV","localidade":"Macaíba","fonte":"DNIT (2019)","jurisdicao":"Federal"},"geometry":{"type":"LineString","coordinates":[[-35.248572,-5.815491],[-35.251688,-5.820389],[-35.252152,-5.821607],[-35.252595,-5.82198],[-35.254306,-5.821614],[-35.257028,-5.820068],[-35.262463,-5.819118],[-35.266345,-5.819759],[-35.267988,-5.82078],[-35.270258,-5.821706],[-35.270889,-5.821628],[-35.27327,-5.820826],[-35.275613,-5.820601],[-35.279331,-5.821715],[-35.279903,-5.822122],[-35.280235,-5.822699],[-35.280327,-5.826154],[-35.279561,-5.829658],[-35.278733,-5.831211],[-35.278481,-5.832345],[-35.278626,-5.832989],[-35.280095,-5.835825],[-35.282972,-5.836265],[-35.285389,-5.835701],[-35.288629,-5.835479],[-35.289369,-5.835598],[-35.291154,-5.837081],[-35.292013,-5.838179],[-35.292954,-5.838935],[-35.295588,-5.842265],[-35.29667,-5.84317],[-35.301031,-5.845138],[-35.303983,-5.84588],[-35.305419,-5.846583],[-35.309225,-5.847365],[-35.311869,-5.847456],[-35.312647,-5.847641],[-35.313208,-5.848032],[-35.316611,-5.851872],[-35.317897,-5.852645],[-35.319729,-5.853203],[-35.320537,-5.853292],[-35.321341,-5.853137],[-35.322764,-5.852467],[-35.323335,-5.852421],[-35.327875,-5.85379],[-35.329667,-5.854595],[-35.332297,-5.855198],[-35.335801,-5.856806],[-35.336547,-5.857331],[-35.343736,-5.863394],[-35.343983,-5.864004]]}},{"type":"Feature","id":16,"properties":{"rodovia":"226","tipo":"Eixo Principal","inicio":"ENTR BR-304(A) (MACAÍBA)","fim":"ENTR BR-304(B)","superficie":"PAV","localidade":"Macaíba","fonte":"DNIT (2019)","jurisdicao":"Federal"},"geometry":{"type":"LineString","coordinates":[[-35.343983,-5.864004],[-35.345882,-5.864406],[-35.369644,-5.867596],[-35.370435,-5.867807],[-35.378049,-5.868719],[-35.387193,-5.867855],[-35.391566,-5.867982],[-35.401412,-5.866505],[-35.418573,-5.867981],[-35.420547,-5.868447],[-35.461381,-5.88108],[-35.490399,-5.889846]]}},{"type":"Feature","id":17,"properties":{"rodovia":"226","tipo":"Eixo Principal","inicio":"ENTR BR-304(B)","fim":"ENTR RN-203 (P/ SÃO PEDRO)","superficie":"PAV","localidade":"Macaíba","fonte":"DNIT (2019)","jurisdicao":"Federal"},"geometry":{"type":"LineString","coordinates":[[-35.490399,-5.889846],[-35.493627,-5.890847],[-35.497851,-5.89523],[-35.502183,-5.897536],[-35.505178,-5.901081],[-35.508022,-5.903975],[-35.510291,-5.905649],[-35.514448,-5.909645],[-35.515307,-5.910097],[-35.521063,-5.912255],[-35.524628,-5.914479],[-35.529632,-5.917181],[-35.533272,-5.919655],[-35.536386,-5.922823],[-35.538356,-5.926272],[-35.547679,-5.935412]]}},{"type":"Feature","id":18,"properties":{"rodovia":"226","tipo":"Eixo Principal","inicio":"ENTR RN-203 (P/SÃO PEDRO)","fim":"ENTR RN-315 (BOM JESUS)","superficie":"PAV","localidade":"Macaíba","fonte":"DNIT (2019)","jurisdicao":"Federal"},"geometry":{"type":"LineString","coordinates":[[-35.547679,-5.935412],[-35.549907,-5.938038],[-35.550798,-5.940173],[-35.553364,-5.944553],[-35.555971,-5.949872],[-35.558897,-5.953759],[-35.562339,-5.956876],[-35.563859,-5.958901],[-35.565156,-5.960304],[-35.573234,-5.971986],[-35.573958,-5.973663],[-35.574953,-5.977039],[-35.575426,-5.977854],[-35.580678,-5.982067],[-35.583821,-5.985061],[-35.587487,-5.987013]]}},{"type":"Feature","id":19,"properties":{"rodovia":"226","tipo":"Eixo Principal","inicio":"ENTR RN-315 (BOM JESUS)","fim":"ENTR RN-120(A) (P/SENADOR ELÓI DE SOUZA)","superficie":"PAV","localidade":"Macaíba","fonte":"DNIT (2019)","jurisdicao":"Federal"},"geometry":{"type":"LineString","coordinates":[[-35.587487,-5.987013],[-35.588351,-5.987489],[-35.592102,-5.98878],[-35.595336,-5.990153],[-35.621895,-6.010238],[-35.623401,-6.011191],[-35.624777,-6.011767],[-35.62624,-6.012064],[-35.632702,-6.012342],[-35.638916,-6.012812],[-35.643111,-6.013944],[-35.647814,-6.017001],[-35.665254,-6.029],[-35.666639,-6.030405],[-35.667701,-6.032164],[-35.673649,-6.047663]]}},{"type":"Feature","id":20,"properties":{"rodovia":"226","tipo":"Eixo Principal","inicio":"ENTR RN-120(A) (P/SENADOR ELÓI DE SOUZA)","fim":"ENTR RN-120(B) (SERRA CAIADA)","superficie":"PAV","localidade":"Macaíba","fonte":"DNIT (2019)","jurisdicao":"Federal"},"geometry":{"type":"LineString","coordinates":[[-35.673649,-6.047663],[-35.679557,-6.062615],[-35.686898,-6.073987],[-35.689924,-6.07904],[-35.697786,-6.088032],[-35.698514,-6.08986],[-35.699854,-6.097257],[-35.700339,-6.098821],[-35.701421,-6.100434],[-35.7046,-6.103177]]}},{"type":"Feature","id":21,"properties":{"rodovia":"226","tipo":"Eixo Principal","inicio":"ENTR RN-120(B) (SERRA CAIADA)","fim":"ENTR RN-093(A) (TANGARÁ)","superficie":"PAV","localidade":"Macaíba","fonte":"DNIT (2019)","jurisdicao":"Federal"},"geometry":{"type":"LineString","coordinates":[[-35.7046,-6.103177],[-35.707872,-6.1059],[-35.711467,-6.110582],[-35.712395,-6.111308],[-35.715563,-6.11315],[-35.716893,-6.114488],[-35.717747,-6.116173],[-35.718808,-6.121311],[-35.719412,-6.122881],[-35.721545,-6.125969],[-35.724764,-6.132347],[-35.732845,-6.143154],[-35.734311,-6.144222],[-35.738575,-6.146464],[-35.7397,-6.147355],[-35.746165,-6.154978],[-35.751737,-6.159613],[-35.771721,-6.180891],[-35.773629,-6.1825]]}},{"type":"Feature","id":22,"properties":{"rodovia":"226","tipo":"Eixo Principal","inicio":"ENTR BR-104(A) (P/CAMPO REDONDO)","fim":"ENTR BR-104(B)/RN-042 (P/CERRO CORÁ)","superficie":"PAV","localidade":"Currais Novos","fonte":"DNIT (2019)","jurisdicao":"Federal"},"geometry":{"type":"LineString","coordinates":[[-36.234659,-6.188243],[-36.237466,-6.187819],[-36.244709,-6.188483]]}},{"type":"Feature","id":23,"properties":{"rodovia":"304","tipo":"Eixo Principal","inicio":"ENTR R. MANOEL FELIPE (CACHOEIRA DO SAPO)","fim":"ENTR RN-120(A)","superficie":"PAV","localidade":"Macaíba","fonte":"DNIT (2019)","jurisdicao":"Federal"},"geometry":{"type":"LineString","coordinates":[[-35.881727,-5.751622],[-35.87361,-5.752983],[-35.872574,-5.753256],[-35.87173,-5.753731],[-35.861389,-5.763955],[-35.860574,-5.765093],[-35.859318,-5.767578]]}},{"type":"Feature","id":24,"properties":{"rodovia":"304","tipo":"Eixo Principal","inicio":"ENTR RN-120(A)","fim":"RIACHUELO","superficie":"PAV","localidade":"Macaíba","fonte":"DNIT (2019)","jurisdicao":"Federal"},"geometry":{"type":"LineString","coordinates":[[-35.859318,-5.767578],[-35.856418,-5.77341],[-35.849651,-5.783576],[-35.839539,-5.797574],[-35.838682,-5.798383],[-35.822322,-5.810918]]}},{"type":"Feature","id":25,"properties":{"rodovia":"304","tipo":"Eixo Principal","inicio":"RIACHUELO","fim":"ENTR RN-120(B)","superficie":"PAV","localidade":"Macaíba","fonte":"DNIT (2019)","jurisdicao":"Federal"},"geometry":{"type":"LineString","coordinates":[[-35.822322,-5.810918],[-35.809181,-5.821054],[-35.808196,-5.821698],[-35.807106,-5.822156],[-35.805401,-5.822428],[-35.799449,-5.822269],[-35.766113,-5.828196]]}},{"type":"Feature","id":26,"properties":{"rodovia":"304","tipo":"Eixo Principal","inicio":"ENTR RN-120(B)","fim":"ENTR RN-064 (SANTA MARIA)","superficie":"PAV","localidade":"Macaíba","fonte":"DNIT (2019)","jurisdicao":"Federal"},"geometry":{"type":"LineString","coordinates":[[-35.766113,-5.828196],[-35.697206,-5.840563],[-35.690775,-5.841996]]}},{"type":"Feature","id":27,"properties":{"rodovia":"304","tipo":"Eixo Principal","inicio":"ENTR RN-064 (SANTA MARIA)","fim":"ENTR BR-226(A)","superficie":"PAV","localidade":"Macaíba","fonte":"DNIT (2019)","jurisdicao":"Federal"},"geometry":{"type":"LineString","coordinates":[[-35.690775,-5.841996],[-35.598092,-5.86436],[-35.59614,-5.865203],[-35.594998,-5.866039],[-35.592772,-5.868096],[-35.591874,-5.868627],[-35.590701,-5.869052],[-35.491065,-5.889251],[-35.490615,-5.889421],[-35.490399,-5.889846]]}},{"type":"Feature","id":28,"properties":{"rodovia":"304","tipo":"Eixo Principal","inicio":"ENTR BR-226(A)","fim":"ENTR BR-226(B) (MACAÍBA)","superficie":"PAV","localidade":"Macaíba","fonte":"DNIT (2019)","jurisdicao":"Federal"},"geometry":{"type":"LineString","coordinates":[[-35.490399,-5.889846],[-35.461381,-5.88108],[-35.420547,-5.868447],[-35.418573,-5.867981],[-35.401412,-5.866505],[-35.391566,-5.867982],[-35.387193,-5.867855],[-35.378049,-5.868719],[-35.370435,-5.867807],[-35.369644,-5.867596],[-35.345882,-5.864406],[-35.343983,-5.864004]]}},{"type":"Feature","id":29,"properties":{"rodovia":"304","tipo":"Eixo Principal","inicio":"ENTR BR-226(B) (MACAÍBA)","fim":"ENTR BR-101(A) (COMPLEXO VIÁRIO TRAMPOLIM DA VITÓRIA)*TRECHO URBANO*","superficie":"PAV","localidade":"Macaíba","fonte":"DNIT (2019)","jurisdicao":"Federal"},"geometry":{"type":"LineString","coordinates":[[-35.343983,-5.864004],[-35.343333,-5.864539],[-35.336724,-5.866769],[-35.311338,-5.874977]]}},{"type":"Feature","id":30,"properties":{"rodovia":"406","tipo":"Eixo Principal","inicio":"ACESSO NORTE AEROPORTO","fim":"ENTR BR-101(A)/RN-160(A) (P/EXTREMOZ)","superficie":"PAV","localidade":"Macaíba","fonte":"DNIT (2019)","jurisdicao":"Federal"},"geometry":{"type":"LineString","coordinates":[[-35.312061,-5.753918],[-35.288769,-5.762619],[-35.287733,-5.762886],[-35.287045,-5.762881]]}},{"type":"Feature","id":31,"properties":{"rodovia":"406","tipo":"Eixo Principal","inicio":"ENTR BR-101(A)/RN-160(A) (P/EXTREMOZ)*TRECHO URBANO*","fim":"ENTR RN-160(B) (P/SÃO GONÇALO DO AMARANTE)*TRECHO URBANO*","superficie":"PAV","localidade":"Macaíba","fonte":"DNIT (2019)","jurisdicao":"Federal"},"geometry":{"type":"MultiLineString","coordinates":[[[-35.287045,-5.762881],[-35.286145,-5.763457],[-35.280862,-5.765476]],[[-35.27685,-5.767018],[-35.267815,-5.770402]]]}},{"type":"Feature","id":32,"properties":{"rodovia":"406","tipo":"Eixo Principal","inicio":"ENTR RN-160(B) (P/SÃO GONÇALO DO AMARANTE)*TRECHO URBANO*","fim":"ENTR RN-302 ACESSO REDINHA (P/PONTE NEWTON NAVARRO)*TRECHO URBANO*","superficie":"PAV","localidade":"Macaíba","fonte":"DNIT (2019)","jurisdicao":"Federal"},"geometry":{"type":"LineString","coordinates":[[-35.267815,-5.770402],[-35.255147,-5.775158],[-35.253721,-5.775567]]}},{"type":"Feature","id":33,"properties":{"rodovia":"406","tipo":"Eixo Principal","inicio":"ENTR RN-302 ACESSO REDINHA (P/PONTE NEWTON NAVARRO)*TRECHO URBANO*","fim":"ENTR BR-101(B) (PONTE PRESIDENTE COSTA E SILVA)*TRECHO URBANO*","superficie":"PAV","localidade":"Macaíba","fonte":"DNIT (2019)","jurisdicao":"Federal"},"geometry":{"type":"LineString","coordinates":[[-35.253721,-5.775567],[-35.249886,-5.777215],[-35.249084,-5.778041],[-35.248492,-5.779328]]}}]}