{"type":"FeatureCollection","features":[{"type":"Feature","id":1,"properties":{"rodovia":"RN-042","administracao":"Estadual","superficie":"Implantada","fonte":"DNIT (2019) e Folhas Geológicas (CPRM)","jurisdicao":"Estadual"},"geometry":{"type":"MultiLineString","coordinates":[[[-36.322094,-5.913206],[-36.325069,-5.911133],[-36.328767,-5.910919],[-36.331727,-5.911117],[-36.333226,-5.910867],[-36.336606,-5.908913],[-36.338632,-5.908423],[-36.338141,-5.90618],[-36.332515,-5.89914],[-36.332536,-5.898662],[-36.332834,-5.89828]],[[-36.332975,-5.888511],[-36.331394,-5.884883]],[[-36.330614,-5.883292],[-36.329822,-5.879682],[-36.329235,-5.875967]]]}},{"type":"Feature","id":2,"properties":{"rodovia":"RN-120","administracao":"Estadual","superficie":"Pavimentada","fonte":"DNIT (2019) e Folhas Geológicas (CPRM)","jurisdicao":"Estadual"},"geometry":{"type":"LineString","coordinates":[[-35.835342,-5.729223],[-35.834315,-5.735916],[-35.834203,-5.745556],[-35.835814,-5.750663],[-35.841632,-5.756481],[-35.850359,-5.763026],[-35.859318,-5.767578]]}},{"type":"Feature","id":3,"properties":{"rodovia":"RN-160","administracao":"Estadual","superficie":"Pavimentada","fonte":"DNIT (2019) e Folhas Geológicas (CPRM)","jurisdicao":"Estadual"},"geometry":{"type":"LineString","coordinates":[[-35.349357,-5.858608],[-35.350691,-5.85798],[-35.351786,-5.857091],[-35.352286,-5.856381],[-35.353034,-5.852889],[-35.351364,-5.850361],[-35.348195,-5.846248],[-35.339545,-5.83664],[-35.338295,-5.834631],[-35.33617,-5.831698],[-35.333793,-5.828731],[-35.332308,-5.824719],[-35.329959,-5.819563],[-35.327462,-5.813475],[-35.328225,-5.807337],[-35.32947,-5.799425],[-35.328628,-5.794454],[-35.328754,-5.792713]]}},{"type":"Feature","id":4,"properties":{"rodovia":"RN-064","administracao":"Estadual","superficie":"Pavimentada","fonte":"DNIT (2019) e Folhas Geológicas (CPRM)","jurisdicao":"Estadual"},"geometry":{"type":"LineString","coordinates":[[-35.566912,-5.806916],[-35.562921,-5.803275],[-35.556091,-5.797491],[-35.547963,-5.79],[-35.546168,-5.789219],[-35.543043,-5.787045],[-35.542027,-5.784037],[-35.534101,-5.781454],[-35.53316,-5.779306],[-35.531963,-5.775868],[-35.529291,-5.771002],[-35.524313,-5.762917],[-35.52144,-5.761029],[-35.520404,-5.760009],[-35.516917,-5.75329],[-35.514811,-5.752018],[-35.509821,-5.744674],[-35.498005,-5.731177]]}},{"type":"Feature","id":5,"properties":{"rodovia":"RN-203","administracao":"Estadual","superficie":"Implantada","fonte":"DNIT (2019) e Folhas Geológicas (CPRM)","jurisdicao":"Estadual"},"geometry":{"type":"LineString","coordinates":[[-36.346348,-6.044663],[-36.346462,-6.043707],[-36.34634,-6.042452],[-36.347284,-6.036742],[-36.346829,-6.03555],[-36.335791,-6.025941],[-36.333358,-6.023297],[-36.331915,-6.021544],[-36.331123,-6.01886],[-36.329714,-6.017764],[-36.326073,-6.012678],[-36.322526,-6.010853],[-36.319453,-6.010752],[-36.317784,-6.011061],[-36.31482,-6.014335],[-36.314191,-6.015799],[-36.313847,-6.016223],[-36.31056,-6.015376],[-36.309873,-6.01538],[-36.308889,-6.015476],[-36.307672,-6.016409],[-36.307166,-6.016592],[-36.306568,-6.016446],[-36.305037,-6.014812],[-36.30297,-6.01357],[-36.301766,-6.011316],[-36.300686,-6.010747],[-36.296549,-6.012534],[-36.291579,-6.009726],[-36.290626,-6.009881],[-36.289066,-6.01071],[-36.288212,-6.010404],[-36.286533,-6.009129],[-36.284447,-6.009441],[-36.283011,-6.008882],[-36.28221,-6.009633],[-36.28105,-6.010267],[-36.28063,-6.009882],[-36.278812,-6.010102],[-36.278249,-6.011878],[-36.274241,-6.014192],[-36.271322,-6.015075],[-36.266461,-6.015463],[-36.263175,-6.014825],[-36.260489,-6.014602],[-36.259716,-6.015205],[-36.257124,-6.015817],[-36.252885,-6.015425],[-36.250722,-6.013048],[-36.245029,-6.009019],[-36.244213,-6.008873],[-36.239458,-6.009469],[-36.238855,-6.009354],[-36.235292,-6.007255],[-36.233061,-6.003355],[-36.231529,-5.996553],[-36.22802,-5.993467],[-36.223433,-5.98976],[-36.215868,-5.987146],[-36.211635,-5.987798],[-36.208195,-5.986265],[-36.204465,-5.986197],[-36.201043,-5.98786],[-36.19465,-5.986553],[-36.186374,-5.98457],[-36.174338,-5.979758],[-36.172067,-5.977723],[-36.157449,-5.966962],[-36.156882,-5.966935],[-36.148971,-5.976839],[-36.147512,-5.977325],[-36.145094,-5.9771],[-36.140393,-5.974349],[-36.136927,-5.973413],[-36.131742,-5.969439],[-36.118163,-5.96378],[-36.115861,-5.963046],[-36.110308,-5.967738],[-36.10614,-5.969375],[-36.103528,-5.969754],[-36.081876,-5.97192],[-36.074324,-5.972536],[-36.070461,-5.973382]]}},{"type":"Feature","id":6,"properties":{"rodovia":"RN-120","administracao":"Estadual","superficie":"Pavimentada","fonte":"DNIT (2019) e Folhas Geológicas (CPRM)","jurisdicao":"Estadual"},"geometry":{"type":"LineString","coordinates":[[-35.673649,-6.047663],[-35.684732,-6.041141],[-35.689655,-6.03692],[-35.692934,-6.033354],[-35.6977,-6.019092],[-35.715562,-5.987516],[-35.7159,-5.961693],[-35.721551,-5.952628],[-35.725641,-5.946618],[-35.737744,-5.93146],[-35.747673,-5.918537],[-35.753031,-5.913597]]}},{"type":"Feature","id":7,"properties":{"rodovia":"RN-042","administracao":"Estadual","superficie":"Implantada","fonte":"DNIT (2019) e Folhas Geológicas (CPRM)","jurisdicao":"Estadual"},"geometry":{"type":"LineString","coordinates":[[-36.369093,-6.023316],[-36.368577,-6.022004],[-36.367885,-6.021112],[-36.368177,-6.020095],[-36.367517,-6.019472],[-36.364975,-6.018502],[-36.363864,-6.017254],[-36.363553,-6.015285],[-36.361992,-6.013622],[-36.359091,-6.012594],[-36.355446,-6.011601],[-36.352894,-6.009138],[-36.353006,-6.007823],[-36.351921,-6.006007],[-36.34947,-6.005395],[-36.348686,-6.003907],[-36.347093,-6.002035],[-36.346092,-5.999293],[-36.346814,-5.995435],[-36.345251,-5.993474],[-36.345703,-5.99291],[-36.346558,-5.992629],[-36.347056,-5.991103],[-36.346833,-5.988804],[-36.347259,-5.987673],[-36.347341,-5.984052],[-36.347997,-5.97903],[-36.348544,-5.976278],[-36.34767,-5.974373],[-36.345123,-5.972566],[-36.343901,-5.972604],[-36.342131,-5.971031],[-36.341686,-5.971422],[-36.341243,-5.972202],[-36.340586,-5.972146],[-36.340667,-5.970652],[-36.33925,-5.968271],[-36.339434,-5.964208],[-36.339188,-5.962985],[-36.337491,-5.958604],[-36.337232,-5.95529],[-36.337812,-5.952479],[-36.33669,-5.949439],[-36.334827,-5.94724],[-36.334633,-5.944792],[-36.333943,-5.944079],[-36.3337,-5.943364],[-36.333102,-5.943069],[-36.331977,-5.944569],[-36.330994,-5.944874],[-36.330545,-5.944578],[-36.331165,-5.943499],[-36.330966,-5.942367],[-36.331661,-5.941554],[-36.331357,-5.94072],[-36.330579,-5.940306],[-36.330693,-5.93941],[-36.329347,-5.938731],[-36.328677,-5.936495],[-36.327687,-5.935515],[-36.325982,-5.934748],[-36.324779,-5.933262],[-36.324808,-5.930425],[-36.324094,-5.928487],[-36.322094,-5.913206]]}},{"type":"Feature","id":8,"properties":{"rodovia":"RN-160","administracao":"Estadual","superficie":"Pavimentada","fonte":"DNIT (2019) e Folhas Geológicas (CPRM)","jurisdicao":"Estadual"},"geometry":{"type":"LineString","coordinates":[[-35.328754,-5.792713],[-35.328774,-5.792827],[-35.328652,-5.791049],[-35.328876,-5.78802],[-35.327548,-5.787308],[-35.318817,-5.789496],[-35.31429,-5.790244],[-35.312981,-5.789986],[-35.311079,-5.789241],[-35.308788,-5.789573],[-35.306244,-5.78944],[-35.298432,-5.788539],[-35.290903,-5.786668],[-35.287672,-5.784995],[-35.283869,-5.783468],[-35.279964,-5.783196],[-35.278383,-5.782055],[-35.277543,-5.779883],[-35.276144,-5.777543],[-35.275311,-5.775107],[-35.271827,-5.772933],[-35.268775,-5.771368],[-35.267815,-5.770402]]}},{"type":"Feature","id":9,"properties":{"rodovia":"RN-160","administracao":"Estadual","superficie":"Pavimentada","fonte":"DNIT (2019) e Folhas Geológicas (CPRM)","jurisdicao":"Estadual"},"geometry":{"type":"LineString","coordinates":[[-35.352894,-5.865358],[-35.350177,-5.860685],[-35.349357,-5.858608]]}},{"type":"Feature","id":10,"properties":{"rodovia":"RN-312","administracao":"Estadual","superficie":"Implantada","fonte":"DNIT (2019) e Folhas Geológicas (CPRM)","jurisdicao":"Estadual"},"geometry":{"type":"LineString","coordinates":[[-35.352157,-5.856564],[-35.353603,-5.857955],[-35.356436,-5.854805],[-35.357332,-5.854227],[-35.361666,-5.853692],[-35.366549,-5.851663],[-35.371707,-5.847145],[-35.374511,-5.845966],[-35.376626,-5.844695],[-35.377289,-5.844539],[-35.378321,-5.84352],[-35.380436,-5.842115],[-35.382325,-5.841533],[-35.387969,-5.832847],[-35.389875,-5.831763],[-35.39124,-5.829934],[-35.393134,-5.82598],[-35.393335,-5.824155],[-35.395034,-5.823491],[-35.397122,-5.823213],[-35.398343,-5.82261],[-35.401896,-5.822893],[-35.410683,-5.825516],[-35.413968,-5.825891],[-35.415732,-5.826541],[-35.416686,-5.826208],[-35.420325,-5.825565],[-35.42224,-5.826812],[-35.422995,-5.828692],[-35.42463,-5.82731],[-35.426859,-5.824909],[-35.429449,-5.823433],[-35.431765,-5.820613],[-35.436554,-5.816796],[-35.441176,-5.81564],[-35.443503,-5.81551]]}},{"type":"Feature","id":11,"properties":{"rodovia":"RN-203","administracao":"Estadual","superficie":"Pavimentada","fonte":"DNIT (2019) e Folhas Geológicas (CPRM)","jurisdicao":"Estadual"},"geometry":{"type":"LineString","coordinates":[[-35.938875,-5.970372],[-35.929308,-5.969384],[-35.926013,-5.969294],[-35.913768,-5.97004],[-35.902812,-5.970492],[-35.901091,-5.970215],[-35.885339,-5.964596]]}},{"type":"Feature","id":12,"properties":{"rodovia":"RN-302","administracao":"Estadual","superficie":"Duplicada","fonte":"DNIT (2019) e Folhas Geológicas (CPRM)","jurisdicao":"Estadual"},"geometry":{"type":"MultiLineString","coordinates":[[[-35.253721,-5.775567],[-35.254356,-5.774704],[-35.254887,-5.773207],[-35.254598,-5.769942],[-35.254912,-5.766294],[-35.254575,-5.764023],[-35.251492,-5.761913],[-35.243353,-5.757042]],[[-35.233327,-5.750973],[-35.223287,-5.745136],[-35.219609,-5.745107],[-35.212589,-5.745342]]]}},{"type":"Feature","id":13,"properties":{"rodovia":"RN-303","administracao":"Estadual","superficie":"Pavimentada","fonte":"DNIT (2019) e Folhas Geológicas (CPRM)","jurisdicao":"Estadual"},"geometry":{"type":"LineString","coordinates":[[-35.212589,-5.745342],[-35.208917,-5.746624],[-35.208527,-5.744712],[-35.205414,-5.74238],[-35.205391,-5.741775]]}},{"type":"Feature","id":14,"properties":{"rodovia":"RN-093","administracao":"Estadual","superficie":"Leito Natural","fonte":"DNIT (2019) e Folhas Geológicas (CPRM)","jurisdicao":"Estadual"},"geometry":{"type":"MultiLineString","coordinates":[[[-35.97002,-5.797025],[-35.968142,-5.798538]],[[-35.968141,-5.798539],[-35.967036,-5.800806],[-35.967716,-5.806256],[-35.966177,-5.81322],[-35.964463,-5.81409],[-35.963834,-5.817105],[-35.961413,-5.819556],[-35.960434,-5.82415],[-35.960809,-5.827375],[-35.959429,-5.829461],[-35.958049,-5.833557],[-35.954333,-5.835082],[-35.952042,-5.835023],[-35.951553,-5.837464],[-35.948482,-5.839057],[-35.945341,-5.840938],[-35.948058,-5.853689],[-35.945562,-5.855782],[-35.942637,-5.857877],[-35.942291,-5.86003],[-35.943711,-5.86148],[-35.943121,-5.868272],[-35.941129,-5.870721],[-35.940441,-5.876103],[-35.936944,-5.878345],[-35.935258,-5.881168],[-35.937572,-5.885459],[-35.937974,-5.886998],[-35.937599,-5.890514],[-35.94002,-5.894769]]]}},{"type":"Feature","id":15,"properties":{"rodovia":"RN-315","administracao":"Estadual","superficie":"Leito Natural","fonte":"DNIT (2019) e Folhas Geológicas (CPRM)","jurisdicao":"Estadual"},"geometry":{"type":"LineString","coordinates":[[-35.580553,-5.991513],[-35.580496,-5.988419],[-35.585844,-5.987734],[-35.587164,-5.986876]]}},{"type":"Feature","id":16,"properties":{"rodovia":"RN-203","administracao":"Estadual","superficie":"Pavimentada","fonte":"DNIT (2019) e Folhas Geológicas (CPRM)","jurisdicao":"Estadual"},"geometry":{"type":"LineString","coordinates":[[-36.070461,-5.973382],[-36.063144,-5.97976],[-36.06029,-5.980534]]}},{"type":"Feature","id":17,"properties":{"rodovia":"RN-023","administracao":"Estadual","superficie":"Leito Natural","fonte":"DNIT (2019) e Folhas Geológicas (CPRM)","jurisdicao":"Estadual"},"geometry":{"type":"LineString","coordinates":[[-36.06379,-5.979204],[-36.065148,-5.98256],[-36.067072,-5.9884],[-36.069329,-5.992575],[-36.069574,-5.995384],[-36.070672,-5.997042],[-36.069779,-6.001234],[-36.068239,-6.002448],[-36.066809,-6.013183],[-36.063804,-6.01655],[-36.062975,-6.024275],[-36.063631,-6.028803],[-36.058947,-6.031411],[-36.058336,-6.032796],[-36.061723,-6.036099],[-36.063315,-6.039144],[-36.061424,-6.04396],[-36.054814,-6.050536],[-36.053735,-6.052378],[-36.05455,-6.054668],[-36.057032,-6.057809],[-36.058373,-6.061817],[-36.062299,-6.06713],[-36.065539,-6.072446],[-36.071137,-6.079412],[-36.07516,-6.081512],[-36.079831,-6.086705],[-36.080244,-6.088768],[-36.081573,-6.090596],[-36.082567,-6.094089],[-36.084083,-6.096976],[-36.08671,-6.097081],[-36.087502,-6.098335],[-36.090902,-6.099357],[-36.093112,-6.099703],[-36.095746,-6.099521]]}},{"type":"Feature","id":18,"properties":{"rodovia":"RN-203","administracao":"Estadual","superficie":"Pavimentada","fonte":"DNIT (2019) e Folhas Geológicas (CPRM)","jurisdicao":"Estadual"},"geometry":{"type":"LineString","coordinates":[[-36.378824,-6.006178],[-36.378495,-6.006865],[-36.377178,-6.013862],[-36.376756,-6.015191],[-36.370926,-6.021858],[-36.36861,-6.0237],[-36.365,-6.024583],[-36.362657,-6.027823],[-36.361411,-6.028698],[-36.360302,-6.029128],[-36.357824,-6.027996],[-36.356493,-6.026893],[-36.35363,-6.02709]]}},{"type":"Feature","id":19,"properties":{"rodovia":"RN-064","administracao":"Estadual","superficie":"Pavimentada","fonte":"DNIT (2019) e Folhas Geológicas (CPRM)","jurisdicao":"Estadual"},"geometry":{"type":"LineString","coordinates":[[-35.690775,-5.841996],[-35.690849,-5.840335],[-35.689913,-5.839401],[-35.671185,-5.834622],[-35.660821,-5.831766],[-35.65236,-5.829761],[-35.583874,-5.81168],[-35.56914,-5.808002],[-35.566912,-5.806916]]}},{"type":"Feature","id":20,"properties":{"rodovia":"RN-033","administracao":"Estadual","superficie":"Leito Natural","fonte":"DNIT (2019) e Folhas Geológicas (CPRM)","jurisdicao":"Estadual"},"geometry":{"type":"LineString","coordinates":[[-36.058433,-5.850935],[-36.058853,-5.852655],[-36.060391,-5.861653],[-36.058595,-5.868432],[-36.057916,-5.86987],[-36.057063,-5.871194],[-36.054151,-5.872873],[-36.053703,-5.874769],[-36.051081,-5.877077],[-36.049418,-5.876857],[-36.048393,-5.87801],[-36.046791,-5.878306],[-36.043531,-5.879241],[-36.041817,-5.880054],[-36.034681,-5.884739],[-36.033495,-5.887786],[-36.035669,-5.893977],[-36.038197,-5.897799],[-36.040862,-5.90076],[-36.042053,-5.902475],[-36.045203,-5.90235],[-36.046391,-5.903491],[-36.047541,-5.904166],[-36.048627,-5.906347],[-36.049819,-5.90824],[-36.053809,-5.911158],[-36.054997,-5.912299],[-36.055909,-5.915306],[-36.056063,-5.917277],[-36.057157,-5.920892],[-36.057839,-5.924461],[-36.057324,-5.925229],[-36.056636,-5.93036],[-36.057722,-5.932433],[-36.058812,-5.935295],[-36.060401,-5.937868],[-36.05991,-5.939591],[-36.061788,-5.942629],[-36.061805,-5.945712],[-36.064215,-5.948962],[-36.065273,-5.95107],[-36.064889,-5.954115],[-36.06517,-5.955722],[-36.067041,-5.960023],[-36.067944,-5.961453],[-36.069403,-5.966213],[-36.069559,-5.968578],[-36.069065,-5.969871],[-36.070059,-5.970591],[-36.072224,-5.971145],[-36.072343,-5.97297]]}},{"type":"Feature","id":21,"properties":{"rodovia":"RN-104","administracao":"Estadual","superficie":"Leito Natural","fonte":"DNIT (2019) e Folhas Geológicas (CPRM)","jurisdicao":"Estadual"},"geometry":{"type":"LineString","coordinates":[[-36.278931,-5.834526],[-36.281824,-5.837216],[-36.282764,-5.839779],[-36.282516,-5.843276],[-36.280601,-5.852517],[-36.280937,-5.853919],[-36.277493,-5.856627],[-36.27665,-5.860426],[-36.279918,-5.863244],[-36.287476,-5.875387],[-36.290588,-5.877012],[-36.291722,-5.877065],[-36.296011,-5.876054],[-36.302436,-5.878077],[-36.310072,-5.88296],[-36.309818,-5.885471],[-36.308615,-5.888853],[-36.307395,-5.889279],[-36.303851,-5.895393],[-36.30359,-5.896649],[-36.30232,-5.898748],[-36.302097,-5.901378],[-36.303444,-5.902206],[-36.304914,-5.903601],[-36.307631,-5.903943],[-36.310209,-5.906049],[-36.310097,-5.907393],[-36.312604,-5.907528],[-36.315206,-5.908707],[-36.316076,-5.909479],[-36.316985,-5.911803],[-36.317823,-5.912425],[-36.318632,-5.91182],[-36.320507,-5.91226],[-36.322094,-5.913206]]}},{"type":"Feature","id":22,"properties":{"rodovia":"RN-093","administracao":"Estadual","superficie":"Pavimentada","fonte":"DNIT (2019) e Folhas Geológicas (CPRM)","jurisdicao":"Estadual"},"geometry":{"type":"LineString","coordinates":[[-35.94002,-5.894769],[-35.941675,-5.896158],[-35.944449,-5.906147],[-35.946716,-5.908215],[-35.949102,-5.912577],[-35.949829,-5.914652],[-35.949135,-5.918815],[-35.947597,-5.925851],[-35.94491,-5.932427],[-35.935201,-5.945136],[-35.93118,-5.949819],[-35.926207,-5.950778],[-35.925668,-5.957199],[-35.925219,-5.960428],[-35.925813,-5.964405],[-35.925323,-5.966416],[-35.926013,-5.969294]]}},{"type":"Feature","id":23,"properties":{"rodovia":"RN-042","administracao":"Estadual","superficie":"Pavimentada","fonte":"DNIT (2019) e Folhas Geológicas (CPRM)","jurisdicao":"Estadual"},"geometry":{"type":"MultiLineString","coordinates":[[[-36.344836,-6.097129],[-36.344641,-6.096705],[-36.34586,-6.09613],[-36.347471,-6.096],[-36.348125,-6.095638],[-36.350139,-6.093146],[-36.353554,-6.090456]],[[-36.355765,-6.088763],[-36.357138,-6.087718]],[[-36.358431,-6.086735],[-36.358881,-6.086392]],[[-36.362231,-6.083654],[-36.364897,-6.081674],[-36.365042,-6.080957],[-36.366349,-6.080053],[-36.36777,-6.078222],[-36.369022,-6.077915],[-36.370648,-6.075516],[-36.370249,-6.073846],[-36.36893,-6.072808],[-36.368319,-6.070512]]]}},{"type":"Feature","id":24,"properties":{"rodovia":"RN-087","administracao":"Estadual","superficie":"Implantada","fonte":"DNIT (2019) e Folhas Geológicas (CPRM)","jurisdicao":"Estadual"},"geometry":{"type":"MultiLineString","coordinates":[[[-36.360745,-6.05688],[-36.363304,-6.055641],[-36.366837,-6.055572],[-36.369092,-6.057517],[-36.372967,-6.058735],[-36.37469,-6.059441],[-36.376639,-6.058139],[-36.379123,-6.05841],[-36.38704,-6.057214],[-36.388221,-6.056918]],[[-36.388385,-6.056877],[-36.38918,-6.056678]]]}},{"type":"Feature","id":25,"properties":{"rodovia":"RN-042","administracao":"Estadual","superficie":"Pavimentada","fonte":"DNIT (2019) e Folhas Geológicas (CPRM)","jurisdicao":"Estadual"},"geometry":{"type":"LineString","coordinates":[[-36.346829,-6.03555],[-36.347155,-6.033725],[-36.348781,-6.030346],[-36.352203,-6.027851],[-36.35363,-6.02709]]}},{"type":"Feature","id":26,"properties":{"rodovia":"RN-203","administracao":"Estadual","superficie":"Pavimentada","fonte":"DNIT (2019) e Folhas Geológicas (CPRM)","jurisdicao":"Estadual"},"geometry":{"type":"LineString","coordinates":[[-35.758122,-5.914648],[-35.755251,-5.913443],[-35.744475,-5.914249]]}},{"type":"Feature","id":27,"properties":{"rodovia":"RN-203","administracao":"Estadual","superficie":"Pavimentada","fonte":"DNIT (2019) e Folhas Geológicas (CPRM)","jurisdicao":"Estadual"},"geometry":{"type":"LineString","coordinates":[[-35.744475,-5.914249],[-35.73506,-5.915192],[-35.721741,-5.916226],[-35.710921,-5.915418],[-35.70134,-5.911843],[-35.696139,-5.910182],[-35.690577,-5.907986],[-35.680854,-5.904554],[-35.67766,-5.903135],[-35.650771,-5.897633],[-35.641523,-5.896063],[-35.635039,-5.89595],[-35.630811,-5.89554],[-35.626698,-5.896958],[-35.623947,-5.898334],[-35.616976,-5.901308],[-35.594422,-5.91142],[-35.587781,-5.916078],[-35.58345,-5.919721],[-35.576892,-5.923876],[-35.571752,-5.927809],[-35.560792,-5.935787],[-35.558969,-5.936692],[-35.548309,-5.935295],[-35.547679,-5.935412]]}},{"type":"Feature","id":28,"properties":{"rodovia":"RN-312","administracao":"Estadual","superficie":"Implantada","fonte":"DNIT (2019) e Folhas Geológicas (CPRM)","jurisdicao":"Estadual"},"geometry":{"type":"LineString","coordinates":[[-35.345875,-5.864406],[-35.346533,-5.863958],[-35.348173,-5.861196],[-35.348867,-5.859423],[-35.349357,-5.858608]]}},{"type":"Feature","id":29,"properties":{"rodovia":"RN-093","administracao":"Estadual","superficie":"Leito Natural","fonte":"DNIT (2019) e Folhas Geológicas (CPRM)","jurisdicao":"Estadual"},"geometry":{"type":"LineString","coordinates":[[-35.914466,-6.109802],[-35.913828,-6.107072],[-35.911872,-6.104855],[-35.905658,-6.103993],[-35.905393,-6.102858],[-35.903137,-6.101377],[-35.903839,-6.098684],[-35.904008,-6.09683],[-35.906737,-6.093708],[-35.906081,-6.082715],[-35.905223,-6.078477],[-35.904438,-6.076867],[-35.902828,-6.075255],[-35.901025,-6.074973],[-35.900418,-6.073243],[-35.897651,-6.069314],[-35.896051,-6.067756],[-35.894296,-6.067121],[-35.894106,-6.06509],[-35.893502,-6.063778],[-35.893004,-6.059956],[-35.891267,-6.058949],[-35.890776,-6.056263],[-35.891182,-6.054169],[-35.892247,-6.052251],[-35.894508,-6.050924],[-35.894501,-6.04949],[-35.891509,-6.04831],[-35.889708,-6.046407],[-35.891306,-6.043769],[-35.889688,-6.042523],[-35.890099,-6.041266],[-35.889675,-6.040073],[-35.886859,-6.038235],[-35.885536,-6.036449],[-35.883571,-6.037416],[-35.882792,-6.036822],[-35.880295,-6.038748],[-35.87763,-6.031471],[-35.877064,-6.026095],[-35.872561,-6.021278],[-35.869071,-6.015978],[-35.86959,-6.012449],[-35.86862,-6.009585],[-35.870754,-6.006825]]}},{"type":"Feature","id":30,"properties":{"rodovia":"RN-203","administracao":"Estadual","superficie":"Pavimentada","fonte":"DNIT (2019) e Folhas Geológicas (CPRM)","jurisdicao":"Estadual"},"geometry":{"type":"LineString","coordinates":[[-35.885339,-5.964596],[-35.872996,-5.960178],[-35.868476,-5.958768],[-35.859619,-5.956734],[-35.849255,-5.953955],[-35.830516,-5.945481],[-35.82793,-5.943988],[-35.820176,-5.940621],[-35.785211,-5.92441],[-35.770822,-5.919067],[-35.758122,-5.914648]]}},{"type":"Feature","id":31,"properties":{"rodovia":"RN-093","administracao":"Estadual","superficie":"Pavimentada","fonte":"DNIT (2019) e Folhas Geológicas (CPRM)","jurisdicao":"Estadual"},"geometry":{"type":"LineString","coordinates":[[-35.874025,-6.157891],[-35.874417,-6.156872],[-35.877744,-6.153686],[-35.880963,-6.152713],[-35.882447,-6.151031],[-35.887151,-6.148735],[-35.891435,-6.145783],[-35.893089,-6.142488],[-35.897307,-6.13864],[-35.897951,-6.136186],[-35.899254,-6.134327],[-35.900137,-6.131872],[-35.900006,-6.129721],[-35.900108,-6.126613],[-35.902872,-6.118649],[-35.910728,-6.114065],[-35.914772,-6.111055],[-35.914466,-6.109802]]}},{"type":"Feature","id":32,"properties":{"rodovia":"RN-304","administracao":"Estadual","superficie":"Pavimentada","fonte":"DNIT (2019) e Folhas Geológicas (CPRM)","jurisdicao":"Estadual"},"geometry":{"type":"LineString","coordinates":[[-35.212589,-5.745342],[-35.22166,-5.738455],[-35.226065,-5.73815],[-35.227313,-5.73671],[-35.227274,-5.735416]]}},{"type":"Feature","id":33,"properties":{"rodovia":"RN-315","administracao":"Estadual","superficie":"Leito Natural","fonte":"DNIT (2019) e Folhas Geológicas (CPRM)","jurisdicao":"Estadual"},"geometry":{"type":"LineString","coordinates":[[-35.571804,-6.039051],[-35.572719,-6.03664],[-35.57503,-6.032755],[-35.575851,-6.032141],[-35.576701,-6.030057],[-35.576367,-6.027512],[-35.57628,-6.022814],[-35.577016,-6.017882],[-35.577542,-6.015441],[-35.577598,-6.012141],[-35.57856,-6.003277],[-35.577296,-6.001131],[-35.577744,-5.997506],[-35.579234,-5.994271],[-35.580196,-5.993155],[-35.580553,-5.991513]]}},{"type":"Feature","id":34,"properties":{"rodovia":"RN-093","administracao":"Estadual","superficie":"Pavimentada","fonte":"DNIT (2019) e Folhas Geológicas (CPRM)","jurisdicao":"Estadual"},"geometry":{"type":"LineString","coordinates":[[-35.870754,-6.006825],[-35.87032,-6.00366],[-35.867027,-6.001884],[-35.864012,-5.996103],[-35.856634,-5.977794],[-35.85247,-5.969999],[-35.851741,-5.966464],[-35.849565,-5.961335],[-35.845843,-5.957231],[-35.84725,-5.953038]]}},{"type":"Feature","id":35,"properties":{"rodovia":"RN-203","administracao":"Estadual","superficie":"Pavimentada","fonte":"DNIT (2019) e Folhas Geológicas (CPRM)","jurisdicao":"Estadual"},"geometry":{"type":"LineString","coordinates":[[-36.06029,-5.980534],[-36.056867,-5.982134],[-36.049381,-5.981817],[-36.045056,-5.98122],[-36.034118,-5.981215],[-36.029022,-5.978452],[-36.0121,-5.97496],[-36.010166,-5.974899],[-35.988253,-5.975664],[-35.980968,-5.972727],[-35.970049,-5.966835],[-35.957329,-5.965576],[-35.951458,-5.965931],[-35.941776,-5.970393],[-35.938875,-5.970372]]}},{"type":"Feature","id":36,"properties":{"rodovia":"RN-042","administracao":"Estadual","superficie":"Pavimentada","fonte":"DNIT (2019) e Folhas Geológicas (CPRM)","jurisdicao":"Estadual"},"geometry":{"type":"LineString","coordinates":[[-36.368319,-6.070512],[-36.367563,-6.068815],[-36.36686,-6.066161],[-36.363078,-6.06251],[-36.361988,-6.059978],[-36.361586,-6.057711],[-36.360745,-6.05688],[-36.358831,-6.056085],[-36.357303,-6.05502],[-36.354451,-6.052259],[-36.352528,-6.050151],[-36.349678,-6.04757],[-36.347737,-6.047343],[-36.346806,-6.046363],[-36.346348,-6.044663]]}},{"type":"Feature","id":37,"properties":{"rodovia":"RN-120","administracao":"Estadual","superficie":"Pavimentada","fonte":"DNIT (2019) e Folhas Geológicas (CPRM)","jurisdicao":"Estadual"},"geometry":{"type":"LineString","coordinates":[[-35.688238,-6.11163],[-35.697753,-6.106835],[-35.7046,-6.103177]]}},{"type":"Feature","id":38,"properties":{"rodovia":"RN-120","administracao":"Estadual","superficie":"Pavimentada","fonte":"DNIT (2019) e Folhas Geológicas (CPRM)","jurisdicao":"Estadual"},"geometry":{"type":"LineString","coordinates":[[-35.766113,-5.828196],[-35.766871,-5.831871],[-35.768354,-5.834876],[-35.764988,-5.863977],[-35.762358,-5.875286],[-35.76138,-5.880491],[-35.759531,-5.886793],[-35.756743,-5.89138],[-35.755656,-5.896119],[-35.759259,-5.900512],[-35.760019,-5.902194],[-35.760934,-5.90617],[-35.75933,-5.907541],[-35.755802,-5.911145],[-35.753031,-5.913597]]}},{"type":"Feature","id":39,"properties":{"rodovia":"RN-160","administracao":"Estadual","superficie":"Pavimentada","fonte":"DNIT (2019) e Folhas Geológicas (CPRM)","jurisdicao":"Estadual"},"geometry":{"type":"LineString","coordinates":[[-35.411652,-5.984772],[-35.407044,-5.981986],[-35.405191,-5.982052],[-35.403747,-5.981252],[-35.401503,-5.977649],[-35.400941,-5.97151],[-35.400361,-5.970116],[-35.396333,-5.962021],[-35.391523,-5.954466],[-35.390924,-5.953072],[-35.390584,-5.944981],[-35.388856,-5.943114],[-35.387776,-5.940842],[-35.386202,-5.939088],[-35.385254,-5.931918],[-35.384399,-5.928669],[-35.381983,-5.922251],[-35.381347,-5.920972],[-35.380388,-5.920096],[-35.379163,-5.919547],[-35.378029,-5.918021],[-35.376344,-5.912652],[-35.375864,-5.91208],[-35.373812,-5.910501],[-35.37262,-5.908612],[-35.37122,-5.903051],[-35.36878,-5.899694],[-35.368487,-5.898337],[-35.369295,-5.895023],[-35.369173,-5.893455],[-35.368766,-5.891907],[-35.367768,-5.890936],[-35.367872,-5.888429],[-35.367718,-5.888104],[-35.366836,-5.8874],[-35.367279,-5.885334],[-35.364776,-5.883774],[-35.363586,-5.88242],[-35.361414,-5.879388],[-35.35775,-5.875825],[-35.356302,-5.872311],[-35.354225,-5.869106],[-35.352894,-5.865358]]}},{"type":"Feature","id":40,"properties":{"fonte":"DNIT (2019) e Folhas Geológicas (CPRM)","jurisdicao":"Estadual"},"geometry":{"type":"LineString","coordinates":[[-35.353603,-5.857955],[-35.356537,-5.860563],[-35.357332,-5.863353],[-35.357813,-5.864212],[-35.359059,-5.865106],[-35.359442,-5.866247]]}},{"type":"Feature","id":41,"properties":{"fonte":"DNIT (2019) e Folhas Geológicas (CPRM)","jurisdicao":"Estadual"},"geometry":{"type":"LineString","coordinates":[[-35.443503,-5.81551],[-35.445806,-5.816728],[-35.448362,-5.816908],[-35.449457,-5.816258],[-35.451552,-5.814599],[-35.451957,-5.814573],[-35.454277,-5.815424],[-35.461121,-5.813338],[-35.46398,-5.811795],[-35.466675,-5.811042],[-35.468435,-5.809504],[-35.469769,-5.808732],[-35.470575,-5.80739],[-35.471671,-5.806811],[-35.477186,-5.806835],[-35.481561,-5.808011],[-35.48758,-5.808487],[-35.49319,-5.808271],[-35.497401,-5.810237],[-35.500229,-5.81252],[-35.501566,-5.812562],[-35.516616,-5.808813],[-35.518528,-5.809354],[-35.523134,-5.808736],[-35.525402,-5.808678],[-35.530013,-5.809375],[-35.54248,-5.81006],[-35.545843,-5.809303],[-35.546986,-5.808581],[-35.552523,-5.808102],[-35.555102,-5.808198],[-35.554522,-5.804324],[-35.555313,-5.801152],[-35.55569,-5.7987],[-35.555693,-5.797124]]}},{"type":"Feature","id":42,"properties":{"fonte":"DNIT (2019) e Folhas Geológicas (CPRM)","jurisdicao":"Estadual"},"geometry":{"type":"LineString","coordinates":[[-35.531957,-6.052779],[-35.528181,-6.053107]]}},{"type":"Feature","id":43,"properties":{"fonte":"DNIT (2019) e Folhas Geológicas (CPRM)","jurisdicao":"Estadual"},"geometry":{"type":"LineString","coordinates":[[-35.332902,-5.762572],[-35.332003,-5.770091],[-35.337261,-5.771218],[-35.340513,-5.772448],[-35.357861,-5.786917],[-35.359973,-5.789587],[-35.360027,-5.802596],[-35.361604,-5.81426],[-35.369574,-5.824271],[-35.370161,-5.827426],[-35.370268,-5.830295],[-35.373539,-5.835734],[-35.379426,-5.850153],[-35.379539,-5.854266],[-35.378412,-5.858767],[-35.377858,-5.868705]]}},{"type":"Feature","id":44,"properties":{"fonte":"DNIT (2019) e Folhas Geológicas (CPRM)","jurisdicao":"Estadual"},"geometry":{"type":"LineString","coordinates":[[-35.199073,-5.759399],[-35.207869,-5.750733],[-35.211961,-5.74645],[-35.212589,-5.745342]]}}]}