{"type":"FeatureCollection","features":[{"type":"Feature","id":1,"properties":{"identificador":0,"fonte":"Acervo geoespacial do Projeto Potengi"},"geometry":{"type":"Polygon","coordinates":[[[-36.301931,-5.922782],[-36.296874,-5.923228],[-36.295685,-5.927392],[-36.293751,-5.92873],[-36.287208,-5.928284],[-36.283638,-5.930515],[-36.277571,-5.938159],[-36.269957,-5.941966],[-36.256632,-5.950532],[-36.239071,-5.956909],[-36.230862,-5.96262],[-36.222296,-5.967617],[-36.220868,-5.973684],[-36.225508,-5.985106],[-36.239428,-5.992244],[-36.246923,-5.994743],[-36.252277,-6.002595],[-36.262628,-6.012588],[-36.266554,-6.024367],[-36.268695,-6.031862],[-36.275834,-6.038287],[-36.285114,-6.051136],[-36.290468,-6.060416],[-36.296178,-6.072908],[-36.302246,-6.083258],[-36.303317,-6.09932],[-36.305884,-6.113633],[-36.307648,-6.115194],[-36.308957,-6.115282],[-36.309463,-6.115014],[-36.311454,-6.116495],[-36.311953,-6.115869],[-36.312992,-6.115534],[-36.313419,-6.116438],[-36.314687,-6.11706],[-36.315465,-6.116463],[-36.317344,-6.11576],[-36.317677,-6.116763],[-36.319945,-6.116538],[-36.320582,-6.116201],[-36.321804,-6.116026],[-36.321253,-6.11422],[-36.323983,-6.113374],[-36.324108,-6.11195],[-36.325524,-6.111594],[-36.326232,-6.110996],[-36.327823,-6.110321],[-36.32893,-6.109361],[-36.328408,-6.108877],[-36.328154,-6.106913],[-36.328618,-6.106012],[-36.328263,-6.10555],[-36.328287,-6.104958],[-36.32873,-6.104315],[-36.328858,-6.103509],[-36.332921,-6.103409],[-36.333731,-6.102948],[-36.335319,-6.101386],[-36.33725,-6.100553],[-36.338061,-6.100569],[-36.3396,-6.098908],[-36.341258,-6.098289],[-36.34185,-6.098312],[-36.342664,-6.097624],[-36.344255,-6.097402],[-36.345951,-6.096604],[-36.347315,-6.096495],[-36.348507,-6.095874],[-36.350032,-6.094466],[-36.350144,-6.093998],[-36.35105,-6.093091],[-36.351529,-6.092977],[-36.352492,-6.091671],[-36.35318,-6.091227],[-36.353556,-6.09059],[-36.353549,-6.089997],[-36.354554,-6.089126],[-36.356546,-6.088528],[-36.35717,-6.087841],[-36.356918,-6.086881],[-36.357264,-6.086561],[-36.358548,-6.086752],[-36.358882,-6.086391],[-36.35802,-6.084465],[-36.358214,-6.083727],[-36.358782,-6.083317],[-36.359591,-6.082103],[-36.360573,-6.082325],[-36.361574,-6.083025],[-36.361929,-6.083576],[-36.362352,-6.083685],[-36.363652,-6.082791],[-36.365876,-6.082705],[-36.366482,-6.082077],[-36.367695,-6.081933],[-36.367835,-6.081492],[-36.368898,-6.081898],[-36.369317,-6.081751],[-36.369291,-6.081091],[-36.36994,-6.079905],[-36.370679,-6.080099],[-36.371756,-6.079688],[-36.372044,-6.07852],[-36.372027,-6.076918],[-36.372867,-6.076639],[-36.373035,-6.07574],[-36.372699,-6.075107],[-36.374404,-6.074402],[-36.374298,-6.072856],[-36.375336,-6.072567],[-36.376461,-6.072569],[-36.377021,-6.071965],[-36.377596,-6.071783],[-36.378029,-6.071315],[-36.378007,-6.070762],[-36.378479,-6.070325],[-36.378461,-6.069862],[-36.37959,-6.069582],[-36.380587,-6.070313],[-36.381325,-6.069858],[-36.381306,-6.068112],[-36.380391,-6.067118],[-36.380179,-6.065541],[-36.381765,-6.064424],[-36.382104,-6.062929],[-36.383199,-6.062972],[-36.383558,-6.062782],[-36.384145,-6.061704],[-36.383941,-6.060113],[-36.384707,-6.058641],[-36.385636,-6.058537],[-36.386013,-6.058944],[-36.388299,-6.056847],[-36.388904,-6.05706],[-36.38978,-6.05585],[-36.390285,-6.055699],[-36.39071,-6.056157],[-36.391451,-6.055345],[-36.392531,-6.054679],[-36.392629,-6.053953],[-36.395432,-6.053849],[-36.395871,-6.052788],[-36.396545,-6.052627],[-36.395984,-6.051381],[-36.395024,-6.050496],[-36.39594,-6.050371],[-36.396709,-6.049734],[-36.397137,-6.04996],[-36.397286,-6.051052],[-36.398045,-6.05144],[-36.398648,-6.052197],[-36.399688,-6.05127],[-36.399657,-6.050484],[-36.400115,-6.050339],[-36.400233,-6.049235],[-36.400633,-6.048582],[-36.401707,-6.04924],[-36.402436,-6.049087],[-36.404028,-6.049272],[-36.404716,-6.050014],[-36.405605,-6.048674],[-36.40538,-6.048031],[-36.406367,-6.047756],[-36.406797,-6.046406],[-36.407825,-6.045495],[-36.408283,-6.045386],[-36.408494,-6.044307],[-36.408995,-6.043832],[-36.409514,-6.043587],[-36.411178,-6.04346],[-36.411445,-6.044025],[-36.412769,-6.044391],[-36.413563,-6.044001],[-36.413379,-6.043105],[-36.412707,-6.042433],[-36.411782,-6.042663],[-36.411255,-6.042392],[-36.411115,-6.041519],[-36.411653,-6.040437],[-36.412024,-6.040628],[-36.41201,-6.039957],[-36.410022,-6.039621],[-36.41055,-6.037904],[-36.410204,-6.037677],[-36.410218,-6.036997],[-36.409403,-6.035743],[-36.407529,-6.035871],[-36.406424,-6.035032],[-36.406092,-6.035715],[-36.405782,-6.035866],[-36.4058,-6.036761],[-36.405331,-6.03723],[-36.404429,-6.037577],[-36.404656,-6.038018],[-36.404507,-6.038307],[-36.403276,-6.03894],[-36.402098,-6.038767],[-36.401558,-6.037609],[-36.400238,-6.037455],[-36.399656,-6.036772],[-36.399102,-6.037058],[-36.398421,-6.036772],[-36.39807,-6.035851],[-36.397324,-6.035489],[-36.397057,-6.034938],[-36.395692,-6.035073],[-36.395273,-6.034636],[-36.395136,-6.03393],[-36.395819,-6.032681],[-36.395833,-6.031449],[-36.396439,-6.031761],[-36.397517,-6.031391],[-36.398321,-6.030299],[-36.398298,-6.029191],[-36.39868,-6.028103],[-36.398536,-6.02758],[-36.39889,-6.02724],[-36.398423,-6.024468],[-36.399783,-6.021246],[-36.399532,-6.020491],[-36.399556,-6.019318],[-36.399332,-6.018884],[-36.398534,-6.018754],[-36.397938,-6.018273],[-36.398083,-6.017279],[-36.39747,-6.016969],[-36.39718,-6.016372],[-36.395438,-6.016217],[-36.394203,-6.015101],[-36.393866,-6.013908],[-36.393901,-6.012194],[-36.393083,-6.010785],[-36.393321,-6.008881],[-36.39287,-6.007622],[-36.39358,-6.00694],[-36.393207,-6.00572],[-36.39344,-6.005497],[-36.39267,-6.004661],[-36.392517,-6.003096],[-36.391841,-6.002446],[-36.392074,-6.001746],[-36.390888,-6.000534],[-36.390028,-6.000395],[-36.38777,-6.002095],[-36.385968,-6.002311],[-36.385385,-6.002706],[-36.383798,-6.004573],[-36.382298,-6.005786],[-36.38055,-6.0065],[-36.378943,-6.00625],[-36.377944,-6.005644],[-36.377302,-6.00393],[-36.377266,-6.002824],[-36.377694,-6.001432],[-36.378,-5.998219],[-36.378489,-5.997673],[-36.377955,-5.995166],[-36.378362,-5.994379],[-36.376358,-5.993326],[-36.375985,-5.992121],[-36.375248,-5.991722],[-36.373955,-5.992007],[-36.373844,-5.990537],[-36.373562,-5.990266],[-36.373102,-5.988227],[-36.372783,-5.984169],[-36.376686,-5.968697],[-36.378636,-5.951165],[-36.378529,-5.941467],[-36.379204,-5.941277],[-36.379721,-5.941815],[-36.379965,-5.941562],[-36.379929,-5.939795],[-36.380406,-5.93909],[-36.3796,-5.937352],[-36.379617,-5.936509],[-36.379262,-5.935334],[-36.379375,-5.933202],[-36.38013,-5.932482],[-36.380291,-5.931368],[-36.380855,-5.930472],[-36.382283,-5.930097],[-36.382043,-5.929396],[-36.382372,-5.929079],[-36.382215,-5.928774],[-36.382445,-5.928206],[-36.381587,-5.927356],[-36.379169,-5.927551],[-36.378606,-5.926966],[-36.378477,-5.925255],[-36.3779,-5.925259],[-36.377218,-5.924797],[-36.376195,-5.923431],[-36.374958,-5.922533],[-36.374176,-5.922549],[-36.373478,-5.922202],[-36.372913,-5.922426],[-36.36861,-5.920276],[-36.366631,-5.920372],[-36.365429,-5.919484],[-36.363857,-5.91982],[-36.362878,-5.920427],[-36.361788,-5.917849],[-36.352345,-5.911182],[-36.346099,-5.908505],[-36.33212,-5.910587],[-36.319033,-5.914305],[-36.311895,-5.915197],[-36.308772,-5.920254],[-36.301931,-5.922782]]]}},{"type":"Feature","id":2,"properties":{"identificador":0,"fonte":"Acervo geoespacial do Projeto Potengi"},"geometry":{"type":"Polygon","coordinates":[[[-35.88145,-6.10256],[-35.889302,-6.13611],[-35.885257,-6.148246],[-35.889064,-6.154432],[-35.888339,-6.158934],[-35.889396,-6.159149],[-35.892156,-6.156675],[-35.895053,-6.158024],[-35.898397,-6.154246],[-35.89912,-6.154178],[-35.89957,-6.153829],[-35.900587,-6.154759],[-35.901152,-6.154725],[-35.902346,-6.153964],[-35.902984,-6.154311],[-35.904221,-6.154015],[-35.904859,-6.15446],[-35.906153,-6.154028],[-35.906865,-6.153046],[-35.908519,-6.152853],[-35.910672,-6.150545],[-35.911268,-6.150276],[-35.915659,-6.151558],[-35.915691,-6.152113],[-35.916414,-6.153351],[-35.917821,-6.154399],[-35.917425,-6.155128],[-35.916098,-6.155775],[-35.915847,-6.15659],[-35.915909,-6.15764],[-35.916351,-6.158453],[-35.918919,-6.160704],[-35.919547,-6.161103],[-35.919984,-6.161092],[-35.920825,-6.162361],[-35.921406,-6.162326],[-35.922336,-6.161821],[-35.922798,-6.162337],[-35.923115,-6.162483],[-35.923251,-6.162331],[-35.92318,-6.164104],[-35.921952,-6.167003],[-35.922795,-6.170164],[-35.925472,-6.1718],[-35.929041,-6.171949],[-35.936477,-6.170313],[-35.938401,-6.168048],[-35.940685,-6.16624],[-35.943445,-6.167097],[-35.946635,-6.16877],[-35.951825,-6.170607],[-35.953153,-6.171951],[-35.955247,-6.172331],[-35.956493,-6.168335],[-35.957462,-6.168188],[-35.958299,-6.169126],[-35.959277,-6.169257],[-35.96154,-6.171741],[-35.962665,-6.172225],[-35.963365,-6.172184],[-35.964806,-6.173007],[-35.965156,-6.173769],[-35.965191,-6.175542],[-35.966054,-6.175256],[-35.966544,-6.175599],[-35.967717,-6.174862],[-35.968357,-6.175258],[-35.968811,-6.175095],[-35.969439,-6.17532],[-35.971106,-6.175265],[-35.971481,-6.17559],[-35.971641,-6.17423],[-35.972006,-6.173639],[-35.971973,-6.171247],[-35.970479,-6.169678],[-35.969732,-6.169723],[-35.968737,-6.169307],[-35.9695,-6.168752],[-35.971925,-6.169251],[-35.972391,-6.164366],[-35.968299,-6.156371],[-35.965729,-6.154277],[-35.965919,-6.152088],[-35.968679,-6.150185],[-35.975938,-6.149196],[-35.977538,-6.148623],[-35.978221,-6.14811],[-35.980673,-6.147308],[-35.981126,-6.149368],[-35.982205,-6.149522],[-35.982721,-6.149256],[-35.982884,-6.148255],[-35.983173,-6.147978],[-35.984915,-6.148201],[-35.984736,-6.147678],[-35.984912,-6.146648],[-35.986715,-6.145487],[-35.985912,-6.144303],[-35.985136,-6.143794],[-35.985036,-6.143213],[-35.985584,-6.14273],[-35.986798,-6.140811],[-35.985806,-6.138304],[-35.986148,-6.137037],[-35.985526,-6.135809],[-35.984758,-6.135791],[-35.984393,-6.131086],[-35.983443,-6.125688],[-35.983471,-6.120711],[-35.985458,-6.120757],[-35.986833,-6.119492],[-35.987228,-6.1195],[-35.988426,-6.118467],[-35.988877,-6.117665],[-35.989208,-6.116034],[-35.988786,-6.115412],[-35.98921,-6.114853],[-35.989321,-6.113707],[-35.988881,-6.113283],[-35.98989,-6.112928],[-35.989094,-6.112171],[-35.988733,-6.110436],[-35.98944,-6.110264],[-35.990228,-6.109662],[-35.988753,-6.107599],[-35.989863,-6.106653],[-35.990001,-6.105691],[-35.987974,-6.104199],[-35.988008,-6.098135],[-35.980959,-6.097991],[-35.979055,-6.094184],[-35.979817,-6.087331],[-35.980198,-6.079527],[-35.975248,-6.077242],[-35.968205,-6.072484],[-35.962875,-6.064679],[-35.951644,-6.059349],[-35.936225,-6.058778],[-35.91205,-6.050212],[-35.905197,-6.036125],[-35.893014,-6.027369],[-35.88559,-6.01195],[-35.863128,-6.010237],[-35.860273,-6.023562],[-35.86408,-6.046167],[-35.856228,-6.059492],[-35.859321,-6.072817],[-35.867173,-6.088997],[-35.869315,-6.096849],[-35.88145,-6.10256]]]}},{"type":"Feature","id":3,"properties":{"identificador":0,"fonte":"Acervo geoespacial do Projeto Potengi"},"geometry":{"type":"Polygon","coordinates":[[[-35.768188,-5.831551],[-35.746178,-5.834823],[-35.722383,-5.842556],[-35.670035,-5.854156],[-35.652486,-5.860105],[-35.656147,-5.882868],[-35.669472,-5.88501],[-35.695408,-5.878109],[-35.716585,-5.87573],[-35.736573,-5.879537],[-35.768695,-5.878823],[-35.777499,-5.876682],[-35.794869,-5.87692],[-35.831513,-5.868591],[-35.852928,-5.861691],[-35.865539,-5.860501],[-35.879816,-5.85836],[-35.889317,-5.854979],[-35.897759,-5.851663],[-35.900322,-5.843371],[-35.898061,-5.837039],[-35.898815,-5.833119],[-35.915549,-5.825581],[-35.920675,-5.826033],[-35.900545,-5.81549],[-35.889243,-5.810731],[-35.859202,-5.803593],[-35.841653,-5.790803],[-35.826187,-5.793182],[-35.799418,-5.800321],[-35.786926,-5.812813],[-35.776813,-5.825008],[-35.768188,-5.831551]]]}},{"type":"Feature","id":4,"properties":{"identificador":0,"fonte":"Acervo geoespacial do Projeto Potengi"},"geometry":{"type":"Polygon","coordinates":[[[-36.098547,-5.829751],[-36.09788,-5.831099],[-36.096998,-5.831081],[-36.094727,-5.832139],[-36.093353,-5.83324],[-36.092442,-5.834378],[-36.091668,-5.834362],[-36.091149,-5.83463],[-36.089859,-5.836154],[-36.087924,-5.836144],[-36.086203,-5.83728],[-36.085461,-5.838089],[-36.085031,-5.839573],[-36.083548,-5.840552],[-36.082499,-5.839449],[-36.08058,-5.840946],[-36.079051,-5.840031],[-36.076752,-5.840032],[-36.076015,-5.839472],[-36.074962,-5.840988],[-36.075167,-5.841461],[-36.066663,-5.841098],[-36.064435,-5.843881],[-36.065146,-5.846436],[-36.064429,-5.84698],[-36.06462,-5.848476],[-36.06539,-5.850452],[-36.064586,-5.85332],[-36.063338,-5.852053],[-36.06008,-5.851831],[-36.059539,-5.850464],[-36.05904,-5.850474],[-36.058338,-5.851007],[-36.056349,-5.851709],[-36.056183,-5.851026],[-36.055496,-5.850343],[-36.055232,-5.84953],[-36.0542,-5.849018],[-36.053351,-5.849441],[-36.053074,-5.850012],[-36.052546,-5.850359],[-36.050655,-5.850459],[-36.050485,-5.849763],[-36.049607,-5.849337],[-36.049163,-5.848421],[-36.048133,-5.847432],[-36.047255,-5.846154],[-36.046665,-5.846166],[-36.045956,-5.845808],[-36.044836,-5.845824],[-36.043819,-5.846386],[-36.043147,-5.845808],[-36.042181,-5.845828],[-36.03786,-5.842245],[-36.033673,-5.83977],[-36.029104,-5.835202],[-36.02444,-5.833584],[-36.021497,-5.830272],[-36.016754,-5.829214],[-36.013145,-5.829098],[-36.010467,-5.84206],[-36.003834,-5.845678],[-36.000065,-5.854422],[-36.000366,-5.861056],[-35.99916,-5.872815],[-35.989813,-5.867539],[-35.982124,-5.862865],[-35.973681,-5.865428],[-35.971174,-5.869434],[-35.974618,-5.888123],[-35.978901,-5.909181],[-35.971762,-5.917747],[-35.98247,-5.927384],[-35.986039,-5.932738],[-35.985325,-5.943445],[-35.98689,-5.948252],[-35.993314,-5.950036],[-36.000572,-5.948966],[-36.017704,-5.942541],[-36.024961,-5.933618],[-36.030077,-5.931001],[-36.035788,-5.935879],[-36.037215,-5.937901],[-36.041023,-5.937425],[-36.048143,-5.929169],[-36.048857,-5.920959],[-36.050998,-5.914892],[-36.065989,-5.916319],[-36.070986,-5.904898],[-36.081694,-5.885268],[-36.075626,-5.878486],[-36.093115,-5.867778],[-36.107392,-5.858142],[-36.11917,-5.856714],[-36.122169,-5.853996],[-36.121904,-5.853882],[-36.12079,-5.851377],[-36.117026,-5.848027],[-36.11704,-5.845452],[-36.115345,-5.841437],[-36.112963,-5.840629],[-36.111968,-5.839622],[-36.110771,-5.839455],[-36.108482,-5.837609],[-36.108027,-5.837553],[-36.106807,-5.833666],[-36.106038,-5.833373],[-36.105572,-5.832298],[-36.104763,-5.832101],[-36.102175,-5.829835],[-36.101621,-5.829276],[-36.10163,-5.828816],[-36.100023,-5.829038],[-36.099738,-5.828742],[-36.098547,-5.829751]]]}},{"type":"Feature","id":5,"properties":{"identificador":0,"fonte":"Acervo geoespacial do Projeto Potengi"},"geometry":{"type":"Polygon","coordinates":[[[-35.970007,-5.797023],[-35.969257,-5.797431],[-35.968142,-5.798538],[-35.966865,-5.800481],[-35.965775,-5.800614],[-35.965293,-5.801866],[-35.963678,-5.803607],[-35.963138,-5.804518],[-35.96201,-5.804701],[-35.960934,-5.805604],[-35.959619,-5.805589],[-35.958315,-5.804821],[-35.957462,-5.804685],[-35.956279,-5.805689],[-35.955437,-5.805685],[-35.953719,-5.806248],[-35.95182,-5.807374],[-35.95078,-5.807516],[-35.94964,-5.807061],[-35.948712,-5.80708],[-35.947505,-5.807629],[-35.946145,-5.810349],[-35.94614,-5.810926],[-35.945465,-5.811369],[-35.943585,-5.815056],[-35.940611,-5.815294],[-35.938707,-5.813271],[-35.932759,-5.810416],[-35.929914,-5.807676],[-35.926576,-5.803812],[-35.926586,-5.802095],[-35.925711,-5.800468],[-35.926207,-5.79935],[-35.926195,-5.798768],[-35.925378,-5.797564],[-35.924631,-5.797381],[-35.923067,-5.803979],[-35.923257,-5.813306],[-35.928968,-5.83158],[-35.929729,-5.838243],[-35.924143,-5.834476],[-35.920675,-5.826033],[-35.915549,-5.825581],[-35.90967,-5.828596],[-35.898815,-5.833119],[-35.898061,-5.837039],[-35.900322,-5.843371],[-35.897759,-5.851663],[-35.889317,-5.854979],[-35.881477,-5.86508],[-35.863536,-5.875483],[-35.851626,-5.887695],[-35.847857,-5.899756],[-35.850178,-5.906673],[-35.857316,-5.920474],[-35.882301,-5.915477],[-35.892651,-5.922972],[-35.919063,-5.926898],[-35.932626,-5.921187],[-35.935125,-5.912978],[-35.932626,-5.904055],[-35.937266,-5.893348],[-35.950829,-5.890849],[-35.959395,-5.890135],[-35.970103,-5.882997],[-35.971174,-5.869434],[-35.973681,-5.865428],[-35.982124,-5.862865],[-35.989813,-5.867539],[-35.99916,-5.872815],[-36.000366,-5.861056],[-36.000065,-5.854422],[-36.003834,-5.845678],[-36.010467,-5.84206],[-36.013145,-5.829098],[-36.009496,-5.829333],[-36.007593,-5.825883],[-36.001644,-5.81944],[-36.001378,-5.817654],[-35.999821,-5.81582],[-35.997143,-5.814764],[-35.996144,-5.814764],[-35.994754,-5.814089],[-35.994765,-5.81352],[-35.99424,-5.813006],[-35.993857,-5.811469],[-35.99351,-5.810795],[-35.992908,-5.810504],[-35.992725,-5.809445],[-35.992249,-5.808583],[-35.991049,-5.807193],[-35.990219,-5.806601],[-35.990085,-5.804936],[-35.988305,-5.804396],[-35.987962,-5.804572],[-35.98589,-5.803532],[-35.985584,-5.802756],[-35.984142,-5.802147],[-35.981495,-5.799009],[-35.980369,-5.798565],[-35.979983,-5.797771],[-35.977455,-5.797079],[-35.976499,-5.793972],[-35.973784,-5.795398],[-35.973567,-5.795624],[-35.973449,-5.797086],[-35.971223,-5.797231],[-35.970007,-5.797023]]]}},{"type":"Feature","id":6,"properties":{"identificador":0,"fonte":"Acervo geoespacial do Projeto Potengi"},"geometry":{"type":"Polygon","coordinates":[[[-36.249614,-5.846506],[-36.247744,-5.846517],[-36.247064,-5.846284],[-36.24532,-5.846613],[-36.244631,-5.847312],[-36.245203,-5.8493],[-36.244529,-5.849518],[-36.24357,-5.849109],[-36.242714,-5.850373],[-36.241595,-5.851045],[-36.241354,-5.850575],[-36.239656,-5.849785],[-36.238972,-5.849902],[-36.238777,-5.850741],[-36.238979,-5.851725],[-36.238506,-5.852179],[-36.23777,-5.852391],[-36.236694,-5.851708],[-36.235891,-5.851724],[-36.235172,-5.852212],[-36.234896,-5.853189],[-36.233291,-5.852152],[-36.23251,-5.852168],[-36.232289,-5.852623],[-36.231631,-5.853067],[-36.231359,-5.853755],[-36.229225,-5.853744],[-36.228242,-5.852402],[-36.227657,-5.852213],[-36.227523,-5.850848],[-36.225724,-5.85036],[-36.22474,-5.851208],[-36.223371,-5.851642],[-36.223075,-5.852829],[-36.221524,-5.853528],[-36.220713,-5.853639],[-36.218531,-5.853044],[-36.21836,-5.854094],[-36.218009,-5.854432],[-36.217897,-5.855005],[-36.216516,-5.855565],[-36.215092,-5.855227],[-36.213918,-5.855815],[-36.213538,-5.855623],[-36.213079,-5.854325],[-36.211658,-5.85417],[-36.21071,-5.853701],[-36.209819,-5.854598],[-36.207579,-5.855688],[-36.206806,-5.855672],[-36.206087,-5.855092],[-36.205194,-5.856141],[-36.200899,-5.856513],[-36.198971,-5.855261],[-36.195212,-5.853527],[-36.189719,-5.853527],[-36.185382,-5.852757],[-36.180899,-5.852716],[-36.17633,-5.853001],[-36.173047,-5.850057],[-36.170057,-5.848905],[-36.166431,-5.84986],[-36.162148,-5.852906],[-36.157199,-5.850907],[-36.154534,-5.848813],[-36.151619,-5.848776],[-36.150749,-5.851061],[-36.151706,-5.858374],[-36.150388,-5.859949],[-36.148851,-5.859611],[-36.145901,-5.857137],[-36.14295,-5.855233],[-36.142189,-5.853996],[-36.141046,-5.854757],[-36.140571,-5.85628],[-36.139238,-5.857613],[-36.136874,-5.85875],[-36.138123,-5.862028],[-36.140978,-5.866787],[-36.141216,-5.876781],[-36.14074,-5.885585],[-36.146689,-5.893437],[-36.148354,-5.902717],[-36.149306,-5.911759],[-36.157872,-5.916994],[-36.165486,-5.922704],[-36.171911,-5.929367],[-36.180715,-5.936029],[-36.183094,-5.941026],[-36.186188,-5.950544],[-36.186664,-5.960538],[-36.192136,-5.968628],[-36.197847,-5.975052],[-36.202844,-5.979336],[-36.213314,-5.980287],[-36.220868,-5.973684],[-36.222296,-5.967617],[-36.230862,-5.96262],[-36.239071,-5.956909],[-36.256632,-5.950532],[-36.269957,-5.941966],[-36.277571,-5.938159],[-36.283638,-5.930515],[-36.287208,-5.928284],[-36.293751,-5.92873],[-36.295685,-5.927392],[-36.296874,-5.923228],[-36.301931,-5.922782],[-36.308772,-5.920254],[-36.311895,-5.915197],[-36.319033,-5.914305],[-36.33212,-5.910587],[-36.346099,-5.908505],[-36.352345,-5.911182],[-36.361788,-5.917849],[-36.361802,-5.914896],[-36.360151,-5.911422],[-36.358364,-5.909488],[-36.356454,-5.906398],[-36.353639,-5.904973],[-36.34793,-5.904484],[-36.340762,-5.905615],[-36.33514,-5.902402],[-36.333058,-5.89919],[-36.332225,-5.895799],[-36.333058,-5.894134],[-36.333033,-5.893064],[-36.332667,-5.892055],[-36.331518,-5.890403],[-36.332704,-5.888758],[-36.333629,-5.887915],[-36.332922,-5.887083],[-36.332428,-5.885757],[-36.331548,-5.884912],[-36.330774,-5.884766],[-36.330614,-5.883292],[-36.330978,-5.882585],[-36.330306,-5.881611],[-36.330322,-5.880286],[-36.331111,-5.879021],[-36.330502,-5.879033],[-36.329749,-5.876303],[-36.329235,-5.875967],[-36.328729,-5.874928],[-36.329804,-5.873755],[-36.329735,-5.873108],[-36.329296,-5.872563],[-36.328122,-5.872007],[-36.327025,-5.869961],[-36.326899,-5.869037],[-36.325903,-5.869076],[-36.325536,-5.86846],[-36.324882,-5.868152],[-36.324646,-5.865654],[-36.323864,-5.865481],[-36.32276,-5.86598],[-36.319676,-5.866094],[-36.314446,-5.864171],[-36.309497,-5.864719],[-36.301716,-5.861221],[-36.297504,-5.858865],[-36.293292,-5.855653],[-36.291365,-5.851727],[-36.292079,-5.848514],[-36.293219,-5.846686],[-36.293845,-5.846011],[-36.294675,-5.845687],[-36.295685,-5.844524],[-36.295975,-5.843778],[-36.296666,-5.843647],[-36.297457,-5.842757],[-36.297456,-5.841979],[-36.296507,-5.841511],[-36.296025,-5.840854],[-36.294787,-5.840574],[-36.293827,-5.840714],[-36.293132,-5.841248],[-36.291671,-5.840605],[-36.289881,-5.84084],[-36.288949,-5.840496],[-36.28837,-5.840105],[-36.287876,-5.839004],[-36.282692,-5.835005],[-36.278931,-5.834526],[-36.27549,-5.836512],[-36.273202,-5.838781],[-36.272863,-5.838754],[-36.272916,-5.839064],[-36.26961,-5.842341],[-36.266587,-5.84363],[-36.266423,-5.842911],[-36.265696,-5.841945],[-36.265268,-5.840873],[-36.264351,-5.838159],[-36.264413,-5.837392],[-36.263173,-5.836737],[-36.262734,-5.835699],[-36.262315,-5.835512],[-36.261531,-5.834344],[-36.262236,-5.832187],[-36.260256,-5.832557],[-36.259545,-5.832421],[-36.259117,-5.831462],[-36.257638,-5.832498],[-36.25725,-5.832282],[-36.255941,-5.833552],[-36.253693,-5.834512],[-36.251061,-5.836223],[-36.250399,-5.835842],[-36.249334,-5.83427],[-36.248478,-5.83363],[-36.246222,-5.833341],[-36.246249,-5.833675],[-36.245815,-5.834287],[-36.246023,-5.835429],[-36.247571,-5.836377],[-36.247579,-5.837256],[-36.248719,-5.838316],[-36.248937,-5.839661],[-36.250054,-5.84087],[-36.250422,-5.843874],[-36.251295,-5.845123],[-36.249614,-5.846506]]]}},{"type":"Feature","id":7,"properties":{"identificador":0,"fonte":"Acervo geoespacial do Projeto Potengi"},"geometry":{"type":"MultiPolygon","coordinates":[[[[-36.303317,-6.09932],[-36.302246,-6.083258],[-36.296178,-6.072908],[-36.290468,-6.060416],[-36.285114,-6.051136],[-36.275834,-6.038287],[-36.268695,-6.031862],[-36.268406,-6.030848],[-36.256471,-6.026776],[-36.229999,-6.022909],[-36.209179,-5.99971],[-36.195497,-5.994653],[-36.188299,-5.993672],[-36.178484,-5.999323],[-36.180566,-6.011518],[-36.177592,-6.018061],[-36.163018,-6.0252],[-36.16391,-6.035015],[-36.169561,-6.045128],[-36.173428,-6.050779],[-36.169859,-6.060892],[-36.172833,-6.070409],[-36.181756,-6.07725],[-36.195438,-6.073979],[-36.198115,-6.075317],[-36.199453,-6.081563],[-36.202725,-6.085578],[-36.208674,-6.095989],[-36.209566,-6.103127],[-36.213432,-6.109522],[-36.215961,-6.112794],[-36.217597,-6.125137],[-36.217103,-6.135878],[-36.219455,-6.142559],[-36.223033,-6.144319],[-36.22496,-6.148173],[-36.225103,-6.155098],[-36.227173,-6.158096],[-36.227673,-6.162664],[-36.226102,-6.164092],[-36.224244,-6.164942],[-36.223446,-6.165072],[-36.223111,-6.166427],[-36.223562,-6.167559],[-36.223335,-6.167999],[-36.223105,-6.170347],[-36.223456,-6.171753],[-36.224344,-6.173133],[-36.224824,-6.173448],[-36.225595,-6.173432],[-36.226664,-6.17393],[-36.227188,-6.174574],[-36.227643,-6.174663],[-36.228952,-6.180451],[-36.233306,-6.185091],[-36.235106,-6.189286],[-36.237161,-6.191373],[-36.243194,-6.191371],[-36.249746,-6.178878],[-36.251104,-6.178316],[-36.251673,-6.177724],[-36.253243,-6.177756],[-36.253717,-6.177397],[-36.254557,-6.177463],[-36.254156,-6.174076],[-36.254635,-6.174244],[-36.256594,-6.174058],[-36.257397,-6.173406],[-36.259375,-6.172649],[-36.259571,-6.172234],[-36.260993,-6.171338],[-36.261366,-6.17144],[-36.263066,-6.173133],[-36.263694,-6.173324],[-36.263906,-6.173096],[-36.264489,-6.173453],[-36.265151,-6.175482],[-36.266813,-6.17648],[-36.267048,-6.177221],[-36.266676,-6.177956],[-36.267299,-6.178153],[-36.26766,-6.177962],[-36.269814,-6.178197],[-36.270054,-6.177938],[-36.271922,-6.178133],[-36.272687,-6.178659],[-36.27297,-6.179675],[-36.273673,-6.180485],[-36.274407,-6.180832],[-36.275236,-6.180351],[-36.276157,-6.18024],[-36.277195,-6.179767],[-36.280024,-6.179634],[-36.28102,-6.180011],[-36.281146,-6.180277],[-36.284291,-6.18025],[-36.285396,-6.179542],[-36.285549,-6.179217],[-36.286946,-6.178983],[-36.287275,-6.178996],[-36.288531,-6.180004],[-36.289513,-6.180138],[-36.290084,-6.179836],[-36.290793,-6.180211],[-36.291404,-6.179265],[-36.292154,-6.178843],[-36.291559,-6.17727],[-36.291917,-6.176939],[-36.291865,-6.175619],[-36.29294,-6.175255],[-36.293599,-6.175604],[-36.294716,-6.175608],[-36.295426,-6.175136],[-36.295388,-6.174185],[-36.294955,-6.173555],[-36.294858,-6.172448],[-36.294155,-6.170251],[-36.293223,-6.169649],[-36.29289,-6.168943],[-36.293542,-6.166118],[-36.29127,-6.155672],[-36.289367,-6.149012],[-36.289521,-6.146672],[-36.290194,-6.146048],[-36.290323,-6.14537],[-36.290288,-6.144492],[-36.289685,-6.144049],[-36.289627,-6.140427],[-36.289362,-6.139671],[-36.290766,-6.139558],[-36.294636,-6.13796],[-36.295404,-6.13581],[-36.296623,-6.135115],[-36.29709,-6.134173],[-36.298136,-6.133768],[-36.298111,-6.133126],[-36.299021,-6.131411],[-36.299867,-6.130291],[-36.301419,-6.128906],[-36.301401,-6.12846],[-36.300946,-6.127866],[-36.299584,-6.127073],[-36.299353,-6.125705],[-36.299614,-6.124356],[-36.300978,-6.12367],[-36.301954,-6.121828],[-36.302747,-6.121363],[-36.302887,-6.120629],[-36.303274,-6.120124],[-36.302411,-6.118337],[-36.30259,-6.117654],[-36.30204,-6.116936],[-36.301881,-6.115607],[-36.302214,-6.114625],[-36.303036,-6.11354],[-36.304749,-6.113655],[-36.30526,-6.113303],[-36.305884,-6.113633],[-36.303317,-6.09932]]],[[[-36.306269,-6.114102],[-36.306409,-6.114213],[-36.305884,-6.113633],[-36.306269,-6.114102]]]]}},{"type":"Feature","id":8,"properties":{"identificador":0,"fonte":"Acervo geoespacial do Projeto Potengi"},"geometry":{"type":"Polygon","coordinates":[[[-35.749231,-6.1013],[-35.712445,-6.094214],[-35.709712,-6.097356],[-35.706857,-6.106112],[-35.698717,-6.125154],[-35.699694,-6.126579],[-35.702157,-6.132851],[-35.703828,-6.13382],[-35.703517,-6.13423],[-35.704538,-6.135006],[-35.705797,-6.134961],[-35.707136,-6.1358],[-35.707261,-6.136043],[-35.70692,-6.136371],[-35.707031,-6.136724],[-35.707831,-6.137976],[-35.70782,-6.13851],[-35.708486,-6.139203],[-35.709929,-6.139209],[-35.70964,-6.139771],[-35.710091,-6.140337],[-35.70993,-6.141102],[-35.710542,-6.14169],[-35.710539,-6.142306],[-35.711478,-6.142773],[-35.711715,-6.14326],[-35.712153,-6.143473],[-35.712691,-6.144798],[-35.713037,-6.146343],[-35.712139,-6.147549],[-35.712131,-6.147943],[-35.713708,-6.148345],[-35.713885,-6.149074],[-35.714926,-6.148692],[-35.715309,-6.148961],[-35.715531,-6.149643],[-35.716751,-6.149278],[-35.717344,-6.149847],[-35.717153,-6.150275],[-35.716439,-6.150507],[-35.717003,-6.151103],[-35.716854,-6.151977],[-35.717109,-6.15302],[-35.717506,-6.153434],[-35.71807,-6.153005],[-35.719612,-6.153154],[-35.720101,-6.15378],[-35.721034,-6.153147],[-35.72217,-6.153292],[-35.723494,-6.152839],[-35.724207,-6.153581],[-35.724775,-6.153288],[-35.724948,-6.153996],[-35.725392,-6.154287],[-35.725503,-6.154856],[-35.727306,-6.157262],[-35.727819,-6.15761],[-35.728315,-6.157354],[-35.729348,-6.157333],[-35.729606,-6.158261],[-35.730984,-6.158856],[-35.731394,-6.159283],[-35.731958,-6.159271],[-35.73265,-6.159936],[-35.732497,-6.160534],[-35.732872,-6.161088],[-35.732645,-6.161528],[-35.73264,-6.163033],[-35.734667,-6.165171],[-35.735138,-6.165162],[-35.736042,-6.166075],[-35.737177,-6.166756],[-35.737398,-6.166302],[-35.738198,-6.166413],[-35.738717,-6.167312],[-35.739998,-6.1675],[-35.741426,-6.167062],[-35.741874,-6.166304],[-35.744148,-6.166133],[-35.744941,-6.165444],[-35.746259,-6.165638],[-35.749469,-6.167447],[-35.752739,-6.170097],[-35.752885,-6.170512],[-35.752161,-6.171519],[-35.753267,-6.171519],[-35.753722,-6.171285],[-35.754224,-6.171626],[-35.754563,-6.171575],[-35.759361,-6.175511],[-35.75946,-6.175798],[-35.758828,-6.176003],[-35.758829,-6.178307],[-35.758634,-6.178495],[-35.7595,-6.178881],[-35.761194,-6.179019],[-35.762125,-6.17965],[-35.76284,-6.178592],[-35.767012,-6.183238],[-35.775347,-6.182308],[-35.777342,-6.176439],[-35.781172,-6.174341],[-35.781723,-6.174353],[-35.782594,-6.173562],[-35.78374,-6.173779],[-35.784202,-6.173347],[-35.78416,-6.172704],[-35.786191,-6.171591],[-35.801439,-6.166389],[-35.812432,-6.165104],[-35.819037,-6.168849],[-35.826853,-6.172817],[-35.834738,-6.168568],[-35.835416,-6.168906],[-35.836223,-6.168795],[-35.836803,-6.168401],[-35.837522,-6.168771],[-35.838046,-6.168501],[-35.839841,-6.168763],[-35.844262,-6.167099],[-35.845522,-6.166182],[-35.845968,-6.16529],[-35.846087,-6.163703],[-35.847693,-6.162245],[-35.847791,-6.161842],[-35.85522,-6.160605],[-35.85975,-6.161739],[-35.868094,-6.159337],[-35.877909,-6.156944],[-35.888339,-6.158934],[-35.889064,-6.154432],[-35.885257,-6.148246],[-35.889302,-6.13611],[-35.88145,-6.10256],[-35.869315,-6.096849],[-35.867173,-6.088997],[-35.85763,-6.087882],[-35.833357,-6.075821],[-35.826723,-6.070695],[-35.807577,-6.068283],[-35.801848,-6.075218],[-35.787676,-6.082153],[-35.782851,-6.088937],[-35.776821,-6.098737],[-35.749231,-6.1013]]]}}]}