{"type":"FeatureCollection","features":[{"type":"Feature","id":1,"properties":{"trecho":"Alto curso","fonte":"Delimitação de cursos do acervo geoespacial do Projeto Potengi"},"geometry":{"type":"Polygon","coordinates":[[[-36.251196,-5.845222],[-36.251157,-5.845084],[-36.249614,-5.846506],[-36.247744,-5.846517],[-36.247064,-5.846284],[-36.24532,-5.846613],[-36.244631,-5.847312],[-36.245211,-5.848883],[-36.245203,-5.8493],[-36.244529,-5.849518],[-36.24357,-5.849109],[-36.242714,-5.850373],[-36.241595,-5.851045],[-36.241354,-5.850575],[-36.239656,-5.849785],[-36.238972,-5.849902],[-36.238981,-5.850346],[-36.238777,-5.850741],[-36.238979,-5.851725],[-36.238506,-5.852179],[-36.23777,-5.852391],[-36.236694,-5.851708],[-36.235891,-5.851724],[-36.235172,-5.852212],[-36.234896,-5.853189],[-36.233639,-5.852504],[-36.233291,-5.852152],[-36.23251,-5.852168],[-36.232289,-5.852623],[-36.231631,-5.853067],[-36.231359,-5.853755],[-36.229225,-5.853744],[-36.228242,-5.852402],[-36.227657,-5.852213],[-36.227523,-5.850848],[-36.225724,-5.85036],[-36.22474,-5.851208],[-36.223371,-5.851642],[-36.223075,-5.852829],[-36.221524,-5.853528],[-36.220713,-5.853639],[-36.218531,-5.853044],[-36.21836,-5.854094],[-36.218009,-5.854432],[-36.217897,-5.855005],[-36.216516,-5.855565],[-36.215092,-5.855227],[-36.213918,-5.855815],[-36.213538,-5.855623],[-36.213079,-5.854325],[-36.211658,-5.85417],[-36.210916,-5.853916],[-36.21071,-5.853701],[-36.209819,-5.854598],[-36.207579,-5.855688],[-36.206806,-5.855672],[-36.206087,-5.855092],[-36.205194,-5.856141],[-36.200899,-5.856513],[-36.198971,-5.855261],[-36.195212,-5.853527],[-36.189719,-5.853527],[-36.185382,-5.852757],[-36.180899,-5.852716],[-36.17633,-5.853001],[-36.173047,-5.850057],[-36.170057,-5.848905],[-36.166431,-5.84986],[-36.162148,-5.852906],[-36.157199,-5.850907],[-36.154534,-5.848813],[-36.151619,-5.848776],[-36.150749,-5.851061],[-36.151706,-5.858374],[-36.150388,-5.859949],[-36.148851,-5.859611],[-36.145901,-5.857137],[-36.14295,-5.855233],[-36.142189,-5.853996],[-36.141046,-5.854757],[-36.140571,-5.85628],[-36.139238,-5.857613],[-36.136986,-5.858717],[-36.134123,-5.859561],[-36.129018,-5.857506],[-36.127829,-5.856912],[-36.125802,-5.855552],[-36.121904,-5.853882],[-36.12079,-5.851377],[-36.117026,-5.848027],[-36.11704,-5.845452],[-36.115345,-5.841437],[-36.112963,-5.840629],[-36.111968,-5.839622],[-36.110771,-5.839455],[-36.108482,-5.837609],[-36.108027,-5.837553],[-36.106807,-5.833666],[-36.106038,-5.833373],[-36.105572,-5.832298],[-36.104763,-5.832101],[-36.102175,-5.829835],[-36.101621,-5.829276],[-36.10163,-5.828816],[-36.100716,-5.829052],[-36.100023,-5.829038],[-36.099738,-5.828742],[-36.098547,-5.829751],[-36.09788,-5.831099],[-36.096998,-5.831081],[-36.094727,-5.832139],[-36.093353,-5.83324],[-36.092442,-5.834378],[-36.091668,-5.834362],[-36.091149,-5.83463],[-36.089859,-5.836154],[-36.087924,-5.836144],[-36.086203,-5.83728],[-36.085461,-5.838089],[-36.085307,-5.839032],[-36.085031,-5.839573],[-36.083548,-5.840552],[-36.082869,-5.840014],[-36.082499,-5.839449],[-36.08058,-5.840946],[-36.079051,-5.840031],[-36.076752,-5.840032],[-36.076015,-5.839472],[-36.074962,-5.840988],[-36.075167,-5.841461],[-36.066663,-5.841098],[-36.064435,-5.843881],[-36.065146,-5.846436],[-36.064429,-5.84698],[-36.06462,-5.848476],[-36.06539,-5.850452],[-36.064586,-5.85332],[-36.063338,-5.852053],[-36.06008,-5.851831],[-36.059539,-5.850464],[-36.05904,-5.850474],[-36.058338,-5.851007],[-36.056638,-5.851714],[-36.056349,-5.851709],[-36.056183,-5.851026],[-36.055496,-5.850343],[-36.055232,-5.84953],[-36.0542,-5.849018],[-36.053351,-5.849441],[-36.053074,-5.850012],[-36.052546,-5.850359],[-36.050655,-5.850459],[-36.050485,-5.849763],[-36.049607,-5.849337],[-36.049163,-5.848421],[-36.048133,-5.847432],[-36.047255,-5.846154],[-36.046665,-5.846166],[-36.045956,-5.845808],[-36.044836,-5.845824],[-36.044512,-5.846162],[-36.043819,-5.846386],[-36.043297,-5.846117],[-36.043147,-5.845808],[-36.042181,-5.845828],[-36.03786,-5.842245],[-36.033673,-5.83977],[-36.029104,-5.835202],[-36.02444,-5.833584],[-36.021497,-5.830272],[-36.016754,-5.829214],[-36.013066,-5.829095],[-36.009496,-5.829333],[-36.007593,-5.825883],[-36.001644,-5.81944],[-36.001378,-5.817654],[-35.999821,-5.81582],[-35.997369,-5.815],[-35.997143,-5.814764],[-35.996144,-5.814764],[-35.994754,-5.814089],[-35.994765,-5.81352],[-35.99424,-5.813006],[-35.993857,-5.811469],[-35.99351,-5.810795],[-35.992908,-5.810504],[-35.992712,-5.8101],[-35.992725,-5.809445],[-35.992249,-5.808583],[-35.991049,-5.807193],[-35.990219,-5.806601],[-35.990085,-5.804936],[-35.988305,-5.804396],[-35.987962,-5.804572],[-35.98589,-5.803532],[-35.985584,-5.802756],[-35.984142,-5.802147],[-35.981495,-5.799009],[-35.980369,-5.798565],[-35.979983,-5.797771],[-35.977455,-5.797079],[-35.976499,-5.793972],[-35.973784,-5.795398],[-35.973567,-5.795624],[-35.973449,-5.797086],[-35.971223,-5.797231],[-35.970007,-5.797023],[-35.969724,-5.797318],[-35.969257,-5.797431],[-35.968142,-5.798538],[-35.966865,-5.800481],[-35.965775,-5.800614],[-35.965293,-5.801866],[-35.963678,-5.803607],[-35.963138,-5.804518],[-35.96201,-5.804701],[-35.960934,-5.805604],[-35.959619,-5.805589],[-35.958315,-5.804821],[-35.957462,-5.804685],[-35.956279,-5.805689],[-35.955437,-5.805685],[-35.953719,-5.806248],[-35.95182,-5.807374],[-35.95078,-5.807516],[-35.94964,-5.807061],[-35.948712,-5.80708],[-35.947505,-5.807629],[-35.947164,-5.808551],[-35.946145,-5.810349],[-35.94614,-5.810926],[-35.945465,-5.811369],[-35.945234,-5.812062],[-35.943585,-5.815056],[-35.940611,-5.815294],[-35.938707,-5.813271],[-35.932759,-5.810416],[-35.929914,-5.807676],[-35.926576,-5.803812],[-35.926586,-5.802095],[-35.925711,-5.800468],[-35.926207,-5.79935],[-35.926195,-5.798768],[-35.925378,-5.797564],[-35.924631,-5.797381],[-35.923708,-5.796636],[-35.923389,-5.796852],[-35.920347,-5.792906],[-35.916933,-5.790026],[-35.913512,-5.78829],[-35.910668,-5.785699],[-35.90554,-5.782524],[-35.900723,-5.77688],[-35.897725,-5.771655],[-35.896948,-5.771403],[-35.896962,-5.770452],[-35.89602,-5.769928],[-35.894566,-5.76863],[-35.893565,-5.767286],[-35.893006,-5.767105],[-35.892587,-5.765737],[-35.890958,-5.764226],[-35.889382,-5.763194],[-35.889025,-5.761726],[-35.888358,-5.761403],[-35.887503,-5.760651],[-35.884455,-5.755952],[-35.881305,-5.754179],[-35.877,-5.764],[-35.877,-5.775],[-35.88,-5.781],[-35.88,-5.798],[-35.875,-5.809],[-35.882,-5.83],[-35.892,-5.841],[-35.903,-5.86],[-35.91,-5.867],[-35.909,-5.877],[-35.907,-5.883],[-35.9,-5.899],[-35.894,-5.92],[-35.892,-5.937],[-35.893,-5.946],[-35.892,-5.961],[-35.892,-5.967],[-35.9,-5.978],[-35.909,-5.988],[-35.916,-5.995],[-35.923,-6.003],[-35.923,-6.017],[-35.918,-6.042],[-35.92,-6.055],[-35.924,-6.071],[-35.923,-6.089],[-35.922,-6.099],[-35.913,-6.108],[-35.913,-6.125],[-35.915,-6.13],[-35.913,-6.138],[-35.911,-6.142],[-35.905138,-6.149816],[-35.910752,-6.149848],[-35.90847,-6.152858],[-35.910976,-6.150274],[-35.915659,-6.151558],[-35.915691,-6.152113],[-35.916414,-6.153351],[-35.917821,-6.154399],[-35.917425,-6.155128],[-35.916098,-6.155775],[-35.915847,-6.15659],[-35.915909,-6.15764],[-35.916351,-6.158453],[-35.918454,-6.160109],[-35.918919,-6.160704],[-35.919547,-6.161103],[-35.919984,-6.161092],[-35.920825,-6.162361],[-35.921406,-6.162326],[-35.922336,-6.161821],[-35.922798,-6.162337],[-35.923115,-6.162483],[-35.923251,-6.162331],[-35.92318,-6.164104],[-35.921952,-6.167003],[-35.922795,-6.170164],[-35.925472,-6.1718],[-35.929041,-6.171949],[-35.936477,-6.170313],[-35.938401,-6.168048],[-35.940685,-6.16624],[-35.943445,-6.167097],[-35.946635,-6.16877],[-35.951825,-6.170607],[-35.953153,-6.171951],[-35.955247,-6.172331],[-35.956493,-6.168335],[-35.956739,-6.168184],[-35.957462,-6.168188],[-35.958299,-6.169126],[-35.959277,-6.169257],[-35.96154,-6.171741],[-35.962128,-6.17185],[-35.962665,-6.172225],[-35.963365,-6.172184],[-35.964806,-6.173007],[-35.965156,-6.173769],[-35.965332,-6.175085],[-35.965191,-6.175542],[-35.966054,-6.175256],[-35.966544,-6.175599],[-35.967717,-6.174862],[-35.968357,-6.175258],[-35.968811,-6.175095],[-35.969439,-6.17532],[-35.971106,-6.175265],[-35.971481,-6.17559],[-35.971641,-6.17423],[-35.972006,-6.173639],[-35.971866,-6.172985],[-35.971994,-6.172735],[-35.971973,-6.171247],[-35.97121,-6.170446],[-35.970853,-6.170282],[-35.970479,-6.169678],[-35.969732,-6.169723],[-35.968737,-6.169307],[-35.9695,-6.168752],[-35.971925,-6.169251],[-35.972391,-6.164366],[-35.968299,-6.156371],[-35.965729,-6.154277],[-35.965919,-6.152088],[-35.968679,-6.150185],[-35.974852,-6.149344],[-35.975169,-6.149181],[-35.975938,-6.149196],[-35.977538,-6.148623],[-35.978221,-6.14811],[-35.980673,-6.147308],[-35.981126,-6.149368],[-35.982205,-6.149522],[-35.982721,-6.149256],[-35.982884,-6.148255],[-35.983173,-6.147978],[-35.984915,-6.148201],[-35.984736,-6.147678],[-35.984912,-6.146648],[-35.985695,-6.146014],[-35.986715,-6.145487],[-35.985912,-6.144303],[-35.985136,-6.143794],[-35.985036,-6.143213],[-35.985584,-6.14273],[-35.986798,-6.140811],[-35.986171,-6.139537],[-35.985806,-6.138304],[-35.986148,-6.137037],[-35.985526,-6.135809],[-35.984758,-6.135791],[-35.984393,-6.131086],[-35.983443,-6.125688],[-35.983471,-6.120711],[-35.985458,-6.120757],[-35.986833,-6.119492],[-35.987228,-6.1195],[-35.988426,-6.118467],[-35.988877,-6.117665],[-35.988979,-6.116552],[-35.989208,-6.116034],[-35.988786,-6.115412],[-35.98921,-6.114853],[-35.989321,-6.113706],[-35.988881,-6.113283],[-35.989892,-6.113036],[-35.989888,-6.112804],[-35.989094,-6.112171],[-35.988733,-6.110436],[-35.98944,-6.110264],[-35.990228,-6.109662],[-35.988753,-6.107599],[-35.989863,-6.106653],[-35.990001,-6.105691],[-35.987974,-6.104199],[-35.988029,-6.094248],[-35.98869,-6.094643],[-35.99066,-6.094382],[-35.991293,-6.094679],[-35.992125,-6.094174],[-35.992268,-6.092866],[-35.99409,-6.091718],[-35.994072,-6.090263],[-35.994535,-6.089818],[-35.994659,-6.088926],[-35.994629,-6.08743],[-35.996399,-6.087035],[-35.998762,-6.08688],[-35.999983,-6.087088],[-36.001273,-6.088069],[-36.002348,-6.087668],[-36.00258,-6.087426],[-36.003655,-6.08718],[-36.004408,-6.086303],[-36.005226,-6.086103],[-36.009633,-6.086618],[-36.01208,-6.087122],[-36.018743,-6.092364],[-36.021955,-6.091935],[-36.023669,-6.088723],[-36.022955,-6.086867],[-36.021741,-6.085225],[-36.021884,-6.083583],[-36.022598,-6.081799],[-36.022843,-6.080394],[-36.023092,-6.080203],[-36.022414,-6.078977],[-36.022978,-6.077704],[-36.022379,-6.076962],[-36.021992,-6.075601],[-36.023561,-6.075382],[-36.02355,-6.07437],[-36.023863,-6.073455],[-36.024862,-6.072133],[-36.025089,-6.070971],[-36.025587,-6.071221],[-36.02679,-6.072295],[-36.028758,-6.072696],[-36.029048,-6.07269],[-36.029219,-6.072337],[-36.030113,-6.071479],[-36.030231,-6.070993],[-36.031778,-6.07149],[-36.032624,-6.07237],[-36.034104,-6.074349],[-36.035159,-6.074132],[-36.035688,-6.073583],[-36.035776,-6.074221],[-36.035444,-6.075982],[-36.036369,-6.0766],[-36.039659,-6.081775],[-36.045465,-6.086248],[-36.048858,-6.090115],[-36.052491,-6.091433],[-36.060152,-6.091401],[-36.062077,-6.091619],[-36.063338,-6.09254],[-36.065704,-6.095812],[-36.06765,-6.099033],[-36.069371,-6.099816],[-36.069684,-6.100142],[-36.069665,-6.101027],[-36.071712,-6.101022],[-36.07307,-6.101365],[-36.074431,-6.102163],[-36.07499,-6.101818],[-36.076351,-6.102126],[-36.077259,-6.101936],[-36.077828,-6.101362],[-36.079756,-6.103178],[-36.080649,-6.104375],[-36.082272,-6.103727],[-36.082925,-6.103075],[-36.083507,-6.101918],[-36.083302,-6.099439],[-36.084054,-6.097321],[-36.084878,-6.097325],[-36.085103,-6.097788],[-36.086498,-6.097334],[-36.087502,-6.098335],[-36.088935,-6.098872],[-36.090365,-6.09968],[-36.091883,-6.099522],[-36.092673,-6.100121],[-36.094418,-6.099894],[-36.095464,-6.100528],[-36.095746,-6.099521],[-36.096539,-6.099214],[-36.098034,-6.099612],[-36.098221,-6.099486],[-36.100045,-6.100245],[-36.107402,-6.100287],[-36.11025,-6.102363],[-36.111911,-6.103921],[-36.112659,-6.105024],[-36.114613,-6.106238],[-36.1158,-6.104186],[-36.116473,-6.1042],[-36.116591,-6.103716],[-36.11728,-6.103053],[-36.118529,-6.10261],[-36.119034,-6.102085],[-36.118739,-6.100912],[-36.117719,-6.099212],[-36.116304,-6.097789],[-36.116585,-6.097053],[-36.117557,-6.096083],[-36.117717,-6.095577],[-36.117146,-6.09487],[-36.118835,-6.091006],[-36.11987,-6.090032],[-36.121022,-6.089452],[-36.12123,-6.089001],[-36.121002,-6.088559],[-36.122625,-6.088233],[-36.123096,-6.088475],[-36.123763,-6.089651],[-36.124533,-6.090108],[-36.125664,-6.091519],[-36.12668,-6.091498],[-36.127105,-6.090852],[-36.128031,-6.091168],[-36.128617,-6.090724],[-36.129588,-6.090601],[-36.131329,-6.091167],[-36.13225,-6.092079],[-36.132569,-6.092072],[-36.133365,-6.092646],[-36.133897,-6.092635],[-36.134716,-6.091959],[-36.135582,-6.091715],[-36.136769,-6.091908],[-36.138497,-6.093042],[-36.139362,-6.095248],[-36.139895,-6.095597],[-36.140664,-6.0954],[-36.140834,-6.096315],[-36.14163,-6.096152],[-36.142524,-6.096282],[-36.144237,-6.097398],[-36.14722,-6.09981],[-36.147527,-6.100588],[-36.149161,-6.101626],[-36.152911,-6.105367],[-36.156679,-6.107776],[-36.157613,-6.109071],[-36.157834,-6.108391],[-36.158072,-6.10804],[-36.158743,-6.1076],[-36.159128,-6.106742],[-36.162376,-6.108109],[-36.16248,-6.10896],[-36.163002,-6.110091],[-36.164155,-6.10964],[-36.164293,-6.11134],[-36.16575,-6.113301],[-36.166039,-6.114455],[-36.165879,-6.115082],[-36.167877,-6.116368],[-36.168486,-6.117119],[-36.168915,-6.117327],[-36.169476,-6.116947],[-36.16962,-6.116208],[-36.171213,-6.117801],[-36.172309,-6.118151],[-36.172814,-6.118493],[-36.173019,-6.11895],[-36.172677,-6.119614],[-36.172938,-6.120092],[-36.172904,-6.121757],[-36.173105,-6.12254],[-36.173656,-6.122902],[-36.175463,-6.123035],[-36.17736,-6.123818],[-36.17816,-6.123802],[-36.178469,-6.124273],[-36.181438,-6.125639],[-36.182115,-6.126343],[-36.183124,-6.125907],[-36.183577,-6.126669],[-36.184258,-6.126976],[-36.185146,-6.126408],[-36.185625,-6.126772],[-36.187287,-6.126738],[-36.188094,-6.127434],[-36.18841,-6.127427],[-36.190017,-6.12934],[-36.192991,-6.131244],[-36.201565,-6.130928],[-36.201822,-6.131195],[-36.202484,-6.132645],[-36.203861,-6.132078],[-36.205868,-6.133006],[-36.207673,-6.132969],[-36.209031,-6.133339],[-36.20953,-6.133098],[-36.210756,-6.133621],[-36.211489,-6.133177],[-36.21202,-6.133435],[-36.212948,-6.132942],[-36.21342,-6.133186],[-36.213911,-6.132933],[-36.214043,-6.132526],[-36.214197,-6.132843],[-36.215858,-6.133775],[-36.2162,-6.134915],[-36.216817,-6.135065],[-36.219455,-6.142559],[-36.223033,-6.144319],[-36.22496,-6.148173],[-36.225103,-6.155098],[-36.227173,-6.158096],[-36.227673,-6.162664],[-36.226102,-6.164092],[-36.224244,-6.164942],[-36.223446,-6.165072],[-36.223455,-6.1655],[-36.223111,-6.166427],[-36.223562,-6.167559],[-36.223335,-6.167999],[-36.223105,-6.170347],[-36.223457,-6.171759],[-36.223903,-6.172186],[-36.224344,-6.173133],[-36.224824,-6.173448],[-36.225595,-6.173432],[-36.226664,-6.17393],[-36.227188,-6.174574],[-36.227643,-6.174663],[-36.228952,-6.180451],[-36.233306,-6.185091],[-36.235106,-6.189286],[-36.237161,-6.191373],[-36.243194,-6.191371],[-36.249746,-6.178878],[-36.250763,-6.178309],[-36.251104,-6.178316],[-36.251673,-6.177724],[-36.253243,-6.177756],[-36.253717,-6.177397],[-36.254557,-6.177463],[-36.254156,-6.174076],[-36.254635,-6.174244],[-36.256594,-6.174058],[-36.257397,-6.173406],[-36.259375,-6.172649],[-36.259571,-6.172234],[-36.260993,-6.171338],[-36.261366,-6.17144],[-36.263066,-6.173133],[-36.263694,-6.173324],[-36.263906,-6.173096],[-36.264489,-6.173453],[-36.265151,-6.175482],[-36.266515,-6.176158],[-36.266813,-6.17648],[-36.267048,-6.177221],[-36.266676,-6.177956],[-36.267299,-6.178153],[-36.26766,-6.177962],[-36.269814,-6.178197],[-36.270054,-6.177938],[-36.271922,-6.178133],[-36.272687,-6.178659],[-36.27297,-6.179675],[-36.273673,-6.180485],[-36.274407,-6.180832],[-36.275236,-6.180351],[-36.276157,-6.18024],[-36.27637,-6.180011],[-36.277195,-6.179767],[-36.280024,-6.179634],[-36.28102,-6.180011],[-36.281146,-6.180277],[-36.284291,-6.18025],[-36.285396,-6.179542],[-36.285549,-6.179217],[-36.286946,-6.178983],[-36.287275,-6.178996],[-36.288531,-6.180004],[-36.289513,-6.180138],[-36.290084,-6.179836],[-36.290793,-6.180211],[-36.291404,-6.179265],[-36.292154,-6.178843],[-36.291559,-6.17727],[-36.291917,-6.176939],[-36.291865,-6.175619],[-36.292088,-6.175412],[-36.29294,-6.175255],[-36.293599,-6.175604],[-36.294716,-6.175608],[-36.295426,-6.175136],[-36.295388,-6.174185],[-36.294955,-6.173555],[-36.294858,-6.172448],[-36.294155,-6.170251],[-36.293223,-6.169649],[-36.29289,-6.168943],[-36.293542,-6.166118],[-36.29127,-6.155672],[-36.289367,-6.149012],[-36.289521,-6.146672],[-36.290194,-6.146048],[-36.290323,-6.14537],[-36.290288,-6.144492],[-36.289685,-6.144049],[-36.289627,-6.140427],[-36.289362,-6.139671],[-36.290766,-6.139558],[-36.293708,-6.138194],[-36.294636,-6.13796],[-36.295404,-6.13581],[-36.296623,-6.135115],[-36.29709,-6.134173],[-36.298136,-6.133768],[-36.298111,-6.133126],[-36.299021,-6.131411],[-36.299867,-6.130291],[-36.301419,-6.128906],[-36.301401,-6.12846],[-36.300946,-6.127866],[-36.299584,-6.127073],[-36.299353,-6.125705],[-36.29939,-6.124781],[-36.299614,-6.124356],[-36.300978,-6.12367],[-36.301199,-6.122973],[-36.301954,-6.121828],[-36.302747,-6.121363],[-36.302887,-6.120629],[-36.303274,-6.120124],[-36.3029,-6.119581],[-36.302411,-6.118337],[-36.30259,-6.117654],[-36.30204,-6.116936],[-36.301881,-6.115607],[-36.302214,-6.114625],[-36.303036,-6.11354],[-36.303482,-6.113434],[-36.304749,-6.113655],[-36.30526,-6.113303],[-36.305884,-6.113633],[-36.307647,-6.115194],[-36.308957,-6.115282],[-36.309463,-6.115014],[-36.311454,-6.116495],[-36.311953,-6.115869],[-36.312992,-6.115534],[-36.313419,-6.116438],[-36.314687,-6.11706],[-36.315465,-6.116463],[-36.317344,-6.11576],[-36.317677,-6.116763],[-36.319945,-6.116538],[-36.320582,-6.116201],[-36.321804,-6.116026],[-36.321253,-6.11422],[-36.323983,-6.113374],[-36.323945,-6.112414],[-36.324108,-6.11195],[-36.325524,-6.111594],[-36.326232,-6.110996],[-36.327823,-6.110321],[-36.32893,-6.109361],[-36.328408,-6.108877],[-36.328154,-6.106913],[-36.328164,-6.106672],[-36.328618,-6.106012],[-36.328263,-6.10555],[-36.328287,-6.104958],[-36.32873,-6.104315],[-36.328858,-6.103509],[-36.332921,-6.103409],[-36.333731,-6.102948],[-36.335319,-6.101386],[-36.33725,-6.100553],[-36.338061,-6.100569],[-36.3396,-6.098908],[-36.341258,-6.098289],[-36.34185,-6.098312],[-36.342664,-6.097624],[-36.344255,-6.097402],[-36.344872,-6.096977],[-36.345951,-6.096604],[-36.347315,-6.096495],[-36.348507,-6.095874],[-36.350032,-6.094466],[-36.350144,-6.093998],[-36.35105,-6.093091],[-36.351529,-6.092977],[-36.352492,-6.091671],[-36.35318,-6.091227],[-36.353556,-6.09059],[-36.353549,-6.089997],[-36.354554,-6.089126],[-36.356546,-6.088528],[-36.35717,-6.087841],[-36.356918,-6.086881],[-36.357264,-6.086561],[-36.358548,-6.086752],[-36.358882,-6.086391],[-36.35802,-6.084465],[-36.358214,-6.083727],[-36.358782,-6.083317],[-36.359082,-6.082681],[-36.359591,-6.082103],[-36.360573,-6.082325],[-36.361574,-6.083025],[-36.361929,-6.083576],[-36.362352,-6.083685],[-36.363652,-6.082791],[-36.365876,-6.082705],[-36.366482,-6.082077],[-36.367695,-6.081933],[-36.367835,-6.081492],[-36.368898,-6.081898],[-36.369317,-6.081751],[-36.369291,-6.081091],[-36.36994,-6.079905],[-36.370679,-6.080099],[-36.371756,-6.079688],[-36.372044,-6.07852],[-36.372027,-6.076918],[-36.372867,-6.076639],[-36.373035,-6.07574],[-36.372808,-6.07553],[-36.372699,-6.075107],[-36.374404,-6.074402],[-36.374248,-6.074107],[-36.374298,-6.072856],[-36.375336,-6.072567],[-36.376461,-6.072569],[-36.377021,-6.071965],[-36.377596,-6.071783],[-36.378029,-6.071315],[-36.378007,-6.070762],[-36.378479,-6.070325],[-36.378461,-6.069862],[-36.37959,-6.069582],[-36.380587,-6.070313],[-36.381325,-6.069858],[-36.381306,-6.068112],[-36.380391,-6.067118],[-36.380179,-6.065541],[-36.38078,-6.064984],[-36.381765,-6.064424],[-36.382104,-6.062929],[-36.383199,-6.062972],[-36.383558,-6.062782],[-36.384145,-6.061704],[-36.383914,-6.060798],[-36.383941,-6.060113],[-36.384707,-6.058641],[-36.385636,-6.058537],[-36.386013,-6.058944],[-36.388299,-6.056847],[-36.388904,-6.05706],[-36.389279,-6.056313],[-36.38978,-6.05585],[-36.390285,-6.055699],[-36.39071,-6.056157],[-36.391451,-6.055345],[-36.392531,-6.054679],[-36.392629,-6.053953],[-36.395432,-6.053849],[-36.395586,-6.053201],[-36.395871,-6.052788],[-36.396545,-6.052627],[-36.395984,-6.051381],[-36.395024,-6.050496],[-36.39594,-6.050371],[-36.396709,-6.049734],[-36.397137,-6.04996],[-36.397286,-6.051052],[-36.398045,-6.05144],[-36.398648,-6.052197],[-36.399688,-6.05127],[-36.399657,-6.050484],[-36.400115,-6.050339],[-36.400233,-6.049235],[-36.400633,-6.048582],[-36.401707,-6.04924],[-36.402436,-6.049087],[-36.404028,-6.049272],[-36.404716,-6.050014],[-36.405605,-6.048674],[-36.40538,-6.048031],[-36.406367,-6.047756],[-36.406797,-6.046406],[-36.407825,-6.045495],[-36.408283,-6.045386],[-36.408494,-6.044307],[-36.408995,-6.043832],[-36.409514,-6.043587],[-36.411178,-6.04346],[-36.411445,-6.044025],[-36.412769,-6.044391],[-36.413563,-6.044001],[-36.413379,-6.043105],[-36.412707,-6.042433],[-36.411782,-6.042663],[-36.411255,-6.042392],[-36.411115,-6.041519],[-36.411653,-6.040437],[-36.412024,-6.040628],[-36.41201,-6.039957],[-36.410437,-6.039834],[-36.410022,-6.039621],[-36.41055,-6.037904],[-36.410204,-6.037677],[-36.410218,-6.036997],[-36.409754,-6.036552],[-36.409403,-6.035743],[-36.407529,-6.035871],[-36.406424,-6.035032],[-36.406092,-6.035715],[-36.405782,-6.035866],[-36.4058,-6.036761],[-36.405331,-6.03723],[-36.404429,-6.037577],[-36.404656,-6.038018],[-36.404507,-6.038307],[-36.403276,-6.03894],[-36.402098,-6.038767],[-36.401705,-6.038237],[-36.401558,-6.037609],[-36.400238,-6.037455],[-36.4,-6.037332],[-36.399656,-6.036772],[-36.399102,-6.037058],[-36.398421,-6.036772],[-36.39807,-6.035851],[-36.397324,-6.035489],[-36.397057,-6.034938],[-36.395692,-6.035073],[-36.395273,-6.034636],[-36.395136,-6.03393],[-36.395819,-6.032681],[-36.395833,-6.031449],[-36.396439,-6.031761],[-36.397517,-6.031391],[-36.398321,-6.030299],[-36.398298,-6.029191],[-36.39868,-6.028103],[-36.398536,-6.02758],[-36.39889,-6.02724],[-36.398423,-6.024468],[-36.399783,-6.021246],[-36.399532,-6.020491],[-36.399556,-6.019318],[-36.399332,-6.018884],[-36.398534,-6.018754],[-36.397938,-6.018273],[-36.398083,-6.017279],[-36.39747,-6.016969],[-36.39718,-6.016372],[-36.395438,-6.016217],[-36.394203,-6.015101],[-36.393866,-6.013908],[-36.393901,-6.012194],[-36.393083,-6.010785],[-36.39309,-6.009812],[-36.393321,-6.008881],[-36.39287,-6.007622],[-36.39358,-6.00694],[-36.393207,-6.00572],[-36.39344,-6.005497],[-36.39267,-6.004661],[-36.392517,-6.003096],[-36.391841,-6.002446],[-36.392074,-6.001746],[-36.390888,-6.000534],[-36.390028,-6.000395],[-36.38777,-6.002095],[-36.386937,-6.00233],[-36.385968,-6.002311],[-36.385385,-6.002706],[-36.383798,-6.004573],[-36.382298,-6.005786],[-36.38055,-6.0065],[-36.378943,-6.00625],[-36.377944,-6.005644],[-36.377302,-6.00393],[-36.377266,-6.002824],[-36.377694,-6.001432],[-36.378,-5.998219],[-36.378489,-5.997673],[-36.378309,-5.996827],[-36.378135,-5.99666],[-36.377955,-5.995166],[-36.378362,-5.994379],[-36.376358,-5.993326],[-36.375985,-5.992121],[-36.375248,-5.991722],[-36.373955,-5.992007],[-36.37377,-5.99119],[-36.373844,-5.990537],[-36.373562,-5.990266],[-36.373102,-5.988227],[-36.372783,-5.984169],[-36.376686,-5.968697],[-36.378636,-5.951165],[-36.378529,-5.941467],[-36.379204,-5.941277],[-36.379721,-5.941815],[-36.379965,-5.941562],[-36.379929,-5.939795],[-36.380406,-5.93909],[-36.379949,-5.938407],[-36.3796,-5.937352],[-36.379617,-5.936509],[-36.379262,-5.935334],[-36.379375,-5.933202],[-36.379732,-5.932676],[-36.38013,-5.932482],[-36.380291,-5.931368],[-36.380855,-5.930472],[-36.382283,-5.930097],[-36.382043,-5.929396],[-36.382372,-5.929079],[-36.382215,-5.928774],[-36.382445,-5.928206],[-36.381587,-5.927356],[-36.381059,-5.927537],[-36.379169,-5.927551],[-36.378606,-5.926966],[-36.378477,-5.925255],[-36.3779,-5.925259],[-36.377218,-5.924797],[-36.376195,-5.923431],[-36.375496,-5.923092],[-36.374958,-5.922533],[-36.374176,-5.922549],[-36.373478,-5.922202],[-36.372913,-5.922426],[-36.36861,-5.920276],[-36.366631,-5.920372],[-36.365429,-5.919484],[-36.364992,-5.919709],[-36.363857,-5.91982],[-36.362878,-5.920427],[-36.361788,-5.917849],[-36.361802,-5.914896],[-36.360151,-5.911422],[-36.358364,-5.909488],[-36.356454,-5.906398],[-36.353639,-5.904973],[-36.34793,-5.904484],[-36.340762,-5.905615],[-36.33514,-5.902402],[-36.333058,-5.89919],[-36.332225,-5.895799],[-36.333058,-5.894134],[-36.333033,-5.893064],[-36.332667,-5.892055],[-36.331518,-5.890403],[-36.332704,-5.888758],[-36.333629,-5.887915],[-36.332922,-5.887083],[-36.332428,-5.885757],[-36.331548,-5.884912],[-36.330774,-5.884766],[-36.330614,-5.883292],[-36.330978,-5.882585],[-36.330306,-5.881611],[-36.330322,-5.880286],[-36.331111,-5.879021],[-36.330502,-5.879033],[-36.32986,-5.877212],[-36.329749,-5.876303],[-36.329235,-5.875967],[-36.328729,-5.874928],[-36.329804,-5.873755],[-36.329735,-5.873108],[-36.329296,-5.872563],[-36.328122,-5.872007],[-36.327025,-5.869961],[-36.326899,-5.869037],[-36.325903,-5.869076],[-36.325536,-5.86846],[-36.324882,-5.868152],[-36.324655,-5.866918],[-36.324646,-5.865654],[-36.323864,-5.865481],[-36.32276,-5.86598],[-36.319676,-5.866094],[-36.314446,-5.864171],[-36.309497,-5.864719],[-36.301716,-5.861221],[-36.297504,-5.858865],[-36.293292,-5.855653],[-36.291365,-5.851727],[-36.292079,-5.848514],[-36.293219,-5.846686],[-36.293845,-5.846011],[-36.294675,-5.845687],[-36.295685,-5.844524],[-36.295975,-5.843778],[-36.296666,-5.843647],[-36.297457,-5.842757],[-36.297456,-5.841979],[-36.296507,-5.841511],[-36.296025,-5.840854],[-36.294787,-5.840574],[-36.294474,-5.84074],[-36.293827,-5.840714],[-36.293132,-5.841248],[-36.291671,-5.840605],[-36.289881,-5.84084],[-36.288949,-5.840496],[-36.28837,-5.840105],[-36.287876,-5.839004],[-36.282692,-5.835005],[-36.278931,-5.834526],[-36.27549,-5.836512],[-36.273202,-5.838781],[-36.272863,-5.838754],[-36.272916,-5.839064],[-36.26961,-5.842341],[-36.266587,-5.84363],[-36.266423,-5.842911],[-36.265696,-5.841945],[-36.265268,-5.840873],[-36.264351,-5.838159],[-36.264413,-5.837392],[-36.263173,-5.836737],[-36.262734,-5.835699],[-36.262315,-5.835512],[-36.261531,-5.834344],[-36.262236,-5.832187],[-36.260256,-5.832557],[-36.259545,-5.832421],[-36.259117,-5.831462],[-36.258276,-5.832182],[-36.257638,-5.832498],[-36.25725,-5.832282],[-36.255941,-5.833552],[-36.254278,-5.834379],[-36.253693,-5.834512],[-36.252258,-5.835585],[-36.251061,-5.836223],[-36.250399,-5.835842],[-36.249334,-5.83427],[-36.248922,-5.834146],[-36.248478,-5.83363],[-36.247384,-5.833593],[-36.246222,-5.833341],[-36.246249,-5.833675],[-36.245815,-5.834287],[-36.246023,-5.835429],[-36.247571,-5.836377],[-36.247579,-5.837256],[-36.248719,-5.838316],[-36.24896,-5.838919],[-36.248937,-5.839661],[-36.250054,-5.84087],[-36.250422,-5.843874],[-36.251295,-5.845123],[-36.251196,-5.845222]]]}},{"type":"Feature","id":2,"properties":{"trecho":"Médio curso","fonte":"Delimitação de cursos do acervo geoespacial do Projeto Potengi"},"geometry":{"type":"Polygon","coordinates":[[[-35.717224,-5.693285],[-35.716753,-5.692948],[-35.715365,-5.693647],[-35.715984,-5.695225],[-35.71553,-5.696106],[-35.71553,-5.696694],[-35.715309,-5.697256],[-35.714164,-5.698732],[-35.71293,-5.698706],[-35.712581,-5.699426],[-35.712126,-5.699863],[-35.710869,-5.69952],[-35.709692,-5.699858],[-35.709078,-5.698614],[-35.707377,-5.698238],[-35.707005,-5.699835],[-35.707141,-5.700279],[-35.70587,-5.700435],[-35.705516,-5.701334],[-35.705155,-5.701558],[-35.704408,-5.701099],[-35.703583,-5.700267],[-35.701589,-5.701109],[-35.700776,-5.700831],[-35.69954,-5.701343],[-35.699567,-5.703222],[-35.699423,-5.703644],[-35.698835,-5.704209],[-35.698199,-5.704363],[-35.696203,-5.706111],[-35.695767,-5.707185],[-35.695161,-5.707498],[-35.694792,-5.709389],[-35.693313,-5.711873],[-35.692861,-5.712328],[-35.692412,-5.712319],[-35.691725,-5.713002],[-35.691741,-5.713786],[-35.691464,-5.714343],[-35.69084,-5.714546],[-35.690488,-5.715735],[-35.690612,-5.715917],[-35.689855,-5.716946],[-35.686408,-5.720072],[-35.67774,-5.723233],[-35.674266,-5.720996],[-35.672244,-5.716832],[-35.668485,-5.706523],[-35.666209,-5.704794],[-35.662845,-5.704578],[-35.655897,-5.705125],[-35.653969,-5.704054],[-35.65347,-5.702555],[-35.65204,-5.701279],[-35.645951,-5.700099],[-35.643404,-5.700342],[-35.640906,-5.703483],[-35.63905,-5.706695],[-35.636725,-5.707675],[-35.636719,-5.708633],[-35.636486,-5.708372],[-35.635725,-5.708237],[-35.634103,-5.708218],[-35.633612,-5.709149],[-35.63284,-5.708893],[-35.632225,-5.709369],[-35.631578,-5.709363],[-35.630537,-5.709802],[-35.630061,-5.71104],[-35.629113,-5.711818],[-35.62815,-5.710922],[-35.627439,-5.711248],[-35.627158,-5.71186],[-35.62673,-5.711864],[-35.626469,-5.713231],[-35.626222,-5.713345],[-35.626254,-5.71456],[-35.625216,-5.716861],[-35.624735,-5.717167],[-35.625205,-5.717928],[-35.625251,-5.718691],[-35.625011,-5.724327],[-35.622251,-5.726897],[-35.617016,-5.728039],[-35.614256,-5.727849],[-35.612162,-5.728515],[-35.610639,-5.731085],[-35.607927,-5.732465],[-35.6055,-5.735178],[-35.601359,-5.738033],[-35.598857,-5.742484],[-35.59867,-5.742517],[-35.597969,-5.741975],[-35.596802,-5.742001],[-35.595065,-5.743272],[-35.593993,-5.743595],[-35.592144,-5.74374],[-35.591958,-5.74387],[-35.591124,-5.74382],[-35.590157,-5.74483],[-35.588249,-5.745606],[-35.587823,-5.745225],[-35.587638,-5.744628],[-35.586799,-5.744632],[-35.586323,-5.744266],[-35.584938,-5.744059],[-35.583619,-5.744506],[-35.582991,-5.745168],[-35.582593,-5.744952],[-35.582182,-5.745412],[-35.581408,-5.745275],[-35.581074,-5.744428],[-35.579406,-5.744002],[-35.579089,-5.744174],[-35.57864,-5.743826],[-35.57682,-5.743379],[-35.575926,-5.742879],[-35.575784,-5.74212],[-35.575146,-5.7419],[-35.572536,-5.741788],[-35.572071,-5.741372],[-35.571944,-5.740963],[-35.570964,-5.740487],[-35.570914,-5.739639],[-35.571162,-5.739182],[-35.570452,-5.738067],[-35.570525,-5.736848],[-35.569889,-5.736652],[-35.569577,-5.736373],[-35.569446,-5.735269],[-35.570007,-5.735011],[-35.570234,-5.734593],[-35.569974,-5.734114],[-35.570141,-5.733174],[-35.569574,-5.732667],[-35.570407,-5.731546],[-35.570744,-5.730607],[-35.570148,-5.730145],[-35.568643,-5.729944],[-35.567797,-5.72938],[-35.566695,-5.729918],[-35.565737,-5.729906],[-35.564848,-5.729442],[-35.563681,-5.72948],[-35.563519,-5.728446],[-35.562816,-5.728193],[-35.561956,-5.728609],[-35.560717,-5.727457],[-35.560759,-5.726759],[-35.560495,-5.726273],[-35.560179,-5.724917],[-35.559433,-5.724669],[-35.55893,-5.724026],[-35.558863,-5.722899],[-35.560026,-5.722582],[-35.560233,-5.722004],[-35.560031,-5.721564],[-35.559156,-5.721293],[-35.559129,-5.720838],[-35.559581,-5.720253],[-35.559358,-5.718939],[-35.55839,-5.718476],[-35.557808,-5.717643],[-35.557801,-5.716748],[-35.557425,-5.717],[-35.556063,-5.716919],[-35.555213,-5.717745],[-35.554529,-5.717786],[-35.554172,-5.717592],[-35.553946,-5.718327],[-35.552233,-5.718321],[-35.551733,-5.71918],[-35.551215,-5.719581],[-35.550283,-5.719898],[-35.549432,-5.719635],[-35.549155,-5.719325],[-35.548428,-5.719617],[-35.547889,-5.719241],[-35.54768,-5.720017],[-35.547117,-5.720957],[-35.547149,-5.721506],[-35.546209,-5.721616],[-35.545889,-5.721974],[-35.544639,-5.72181],[-35.543527,-5.722088],[-35.543434,-5.722881],[-35.542731,-5.723035],[-35.539444,-5.722557],[-35.538754,-5.722036],[-35.538296,-5.721048],[-35.53742,-5.720306],[-35.53721,-5.719403],[-35.535803,-5.718668],[-35.5351,-5.718367],[-35.533465,-5.718781],[-35.532912,-5.718523],[-35.531631,-5.720138],[-35.529946,-5.721268],[-35.528502,-5.721391],[-35.528771,-5.722139],[-35.528261,-5.723104],[-35.528478,-5.723502],[-35.528266,-5.724187],[-35.52775,-5.724447],[-35.52768,-5.725655],[-35.525742,-5.725299],[-35.522536,-5.722483],[-35.521074,-5.721495],[-35.521167,-5.721057],[-35.520445,-5.720553],[-35.519952,-5.72127],[-35.516964,-5.72172],[-35.51764,-5.720337],[-35.517684,-5.719597],[-35.517303,-5.718812],[-35.516187,-5.719213],[-35.515249,-5.717896],[-35.514152,-5.717768],[-35.513892,-5.717201],[-35.512412,-5.717345],[-35.511945,-5.717594],[-35.51226,-5.718032],[-35.512001,-5.71867],[-35.512026,-5.719899],[-35.511092,-5.720374],[-35.510499,-5.720362],[-35.510303,-5.721165],[-35.509961,-5.721616],[-35.509739,-5.723657],[-35.508349,-5.724285],[-35.507808,-5.725369],[-35.506561,-5.726829],[-35.506567,-5.727109],[-35.505004,-5.728335],[-35.504291,-5.72853],[-35.504105,-5.729105],[-35.503069,-5.730106],[-35.502369,-5.73012],[-35.501776,-5.729417],[-35.500944,-5.72962],[-35.500518,-5.730199],[-35.499855,-5.73052],[-35.500215,-5.731409],[-35.49997,-5.731811],[-35.499438,-5.731822],[-35.499043,-5.73163],[-35.498671,-5.730865],[-35.497609,-5.731362],[-35.497271,-5.733151],[-35.497382,-5.733858],[-35.499664,-5.735142],[-35.499003,-5.73649],[-35.498164,-5.736485],[-35.497511,-5.737139],[-35.496608,-5.737135],[-35.495909,-5.737368],[-35.495518,-5.737775],[-35.495129,-5.737371],[-35.494658,-5.73794],[-35.494669,-5.738491],[-35.494438,-5.738844],[-35.49341,-5.738969],[-35.493135,-5.739233],[-35.493371,-5.740923],[-35.493758,-5.741448],[-35.49387,-5.742021],[-35.494344,-5.741777],[-35.495332,-5.741784],[-35.495907,-5.742161],[-35.49592,-5.742793],[-35.495576,-5.743488],[-35.494436,-5.74326],[-35.494106,-5.743941],[-35.492472,-5.742923],[-35.491718,-5.74349],[-35.490653,-5.743724],[-35.490245,-5.744501],[-35.490256,-5.745287],[-35.489213,-5.745566],[-35.488656,-5.746896],[-35.487752,-5.74801],[-35.48886,-5.748685],[-35.489014,-5.749588],[-35.488586,-5.750153],[-35.488773,-5.750516],[-35.488432,-5.750681],[-35.488698,-5.751005],[-35.488471,-5.752631],[-35.488078,-5.753009],[-35.488103,-5.754248],[-35.48762,-5.754565],[-35.487295,-5.756069],[-35.488205,-5.75652],[-35.488641,-5.756952],[-35.487978,-5.757114],[-35.488147,-5.757593],[-35.489081,-5.758508],[-35.488635,-5.7588],[-35.488663,-5.76013],[-35.487791,-5.760271],[-35.487638,-5.761055],[-35.486958,-5.761865],[-35.487296,-5.762628],[-35.488649,-5.763849],[-35.491004,-5.768417],[-35.490219,-5.769488],[-35.489405,-5.769613],[-35.491355,-5.777209],[-35.493719,-5.782304],[-35.500565,-5.79126],[-35.509806,-5.807577],[-35.511097,-5.812129],[-35.511294,-5.814342],[-35.513901,-5.822017],[-35.512589,-5.833905],[-35.51294,-5.838717],[-35.513858,-5.842476],[-35.514064,-5.850831],[-35.511252,-5.856891],[-35.509295,-5.864976],[-35.50917,-5.866033],[-35.509961,-5.880702],[-35.511348,-5.893153],[-35.511733,-5.897873],[-35.512014,-5.898964],[-35.514001,-5.903577],[-35.513196,-5.913951],[-35.514088,-5.918887],[-35.51457,-5.920099],[-35.518456,-5.926544],[-35.522171,-5.930439],[-35.527491,-5.935288],[-35.528459,-5.935955],[-35.533122,-5.940046],[-35.532495,-5.951002],[-35.532645,-5.952362],[-35.534084,-5.955983],[-35.536465,-5.960199],[-35.537975,-5.964619],[-35.539929,-5.96715],[-35.541773,-5.97085],[-35.547727,-5.992567],[-35.551442,-6.019739],[-35.550608,-6.028188],[-35.552749,-6.037019],[-35.552988,-6.037483],[-35.552573,-6.037897],[-35.552691,-6.038631],[-35.553718,-6.039253],[-35.554726,-6.039377],[-35.555951,-6.040049],[-35.556533,-6.040061],[-35.557668,-6.039601],[-35.558695,-6.040119],[-35.559998,-6.039649],[-35.56038,-6.039281],[-35.56025,-6.03814],[-35.560391,-6.037562],[-35.56118,-6.038134],[-35.56174,-6.037942],[-35.561884,-6.038824],[-35.562881,-6.039595],[-35.563379,-6.040443],[-35.564924,-6.038931],[-35.565068,-6.038339],[-35.56798,-6.038468],[-35.568275,-6.038904],[-35.568051,-6.03978],[-35.56821,-6.039946],[-35.568957,-6.03938],[-35.569576,-6.039379],[-35.570132,-6.038801],[-35.571038,-6.038819],[-35.571498,-6.038582],[-35.571942,-6.039263],[-35.572294,-6.039032],[-35.573407,-6.038812],[-35.57376,-6.039137],[-35.573876,-6.039492],[-35.574608,-6.039477],[-35.575443,-6.039681],[-35.575851,-6.040506],[-35.576355,-6.040516],[-35.576817,-6.040171],[-35.577894,-6.039776],[-35.578528,-6.039981],[-35.578517,-6.040505],[-35.578913,-6.041349],[-35.579432,-6.041889],[-35.580296,-6.041376],[-35.580449,-6.04028],[-35.580904,-6.040059],[-35.580888,-6.039266],[-35.582063,-6.039473],[-35.583327,-6.038728],[-35.58385,-6.039377],[-35.583982,-6.040053],[-35.584625,-6.039722],[-35.585199,-6.03971],[-35.585547,-6.040045],[-35.585716,-6.040737],[-35.586456,-6.040282],[-35.586568,-6.040512],[-35.588477,-6.040863],[-35.588642,-6.04183],[-35.588383,-6.042099],[-35.58793,-6.042246],[-35.589061,-6.04311],[-35.589546,-6.044066],[-35.589237,-6.044829],[-35.58942,-6.045954],[-35.590654,-6.045952],[-35.5913,-6.045279],[-35.591786,-6.045269],[-35.592215,-6.046153],[-35.593337,-6.045769],[-35.594511,-6.046405],[-35.596031,-6.047548],[-35.596374,-6.049094],[-35.596695,-6.049259],[-35.597448,-6.048895],[-35.597936,-6.049265],[-35.599545,-6.048977],[-35.600117,-6.048119],[-35.601247,-6.047739],[-35.601749,-6.047982],[-35.601985,-6.04844],[-35.601973,-6.049004],[-35.603417,-6.049423],[-35.605514,-6.050833],[-35.605486,-6.052174],[-35.606147,-6.052515],[-35.606854,-6.052529],[-35.607001,-6.052074],[-35.608312,-6.052289],[-35.609016,-6.052965],[-35.608428,-6.0539],[-35.608432,-6.055137],[-35.608895,-6.055582],[-35.609027,-6.05626],[-35.610351,-6.056287],[-35.610821,-6.055922],[-35.611139,-6.057689],[-35.611329,-6.058081],[-35.611726,-6.058073],[-35.611544,-6.058636],[-35.61071,-6.058639],[-35.610481,-6.059664],[-35.609887,-6.060719],[-35.611121,-6.061354],[-35.613803,-6.062084],[-35.614106,-6.062376],[-35.614298,-6.06316],[-35.614892,-6.063628],[-35.617054,-6.064081],[-35.617273,-6.064532],[-35.618074,-6.064761],[-35.618293,-6.065666],[-35.618875,-6.065815],[-35.61988,-6.065478],[-35.620521,-6.066455],[-35.621511,-6.066458],[-35.622305,-6.06706],[-35.6234,-6.06635],[-35.623771,-6.065785],[-35.624884,-6.065899],[-35.626313,-6.064537],[-35.62701,-6.064523],[-35.6285,-6.065554],[-35.628684,-6.066121],[-35.629815,-6.065971],[-35.630198,-6.065214],[-35.630543,-6.065332],[-35.631137,-6.065026],[-35.631899,-6.065785],[-35.632196,-6.065331],[-35.632686,-6.065321],[-35.632922,-6.065557],[-35.633144,-6.066237],[-35.634287,-6.067498],[-35.634466,-6.068234],[-35.637066,-6.070492],[-35.638208,-6.071768],[-35.638779,-6.072053],[-35.639039,-6.072694],[-35.63901,-6.074147],[-35.639717,-6.074561],[-35.639361,-6.075097],[-35.639381,-6.07609],[-35.638812,-6.076549],[-35.638359,-6.076696],[-35.639037,-6.077342],[-35.639761,-6.077484],[-35.640737,-6.078802],[-35.640512,-6.079382],[-35.640172,-6.079547],[-35.64041,-6.080082],[-35.640392,-6.080967],[-35.64221,-6.0804],[-35.643237,-6.080288],[-35.643562,-6.07995],[-35.644886,-6.080383],[-35.645045,-6.080055],[-35.64573,-6.079716],[-35.646168,-6.080619],[-35.648071,-6.080334],[-35.648341,-6.079936],[-35.648321,-6.078966],[-35.64923,-6.078586],[-35.650032,-6.078476],[-35.65037,-6.077566],[-35.651395,-6.077796],[-35.651724,-6.077117],[-35.652385,-6.076676],[-35.662334,-6.076738],[-35.671021,-6.075374],[-35.672306,-6.076731],[-35.673019,-6.078372],[-35.673603,-6.080513],[-35.674073,-6.081304],[-35.676303,-6.081109],[-35.681371,-6.079895],[-35.681728,-6.081037],[-35.680943,-6.084107],[-35.681942,-6.08789],[-35.680882,-6.090794],[-35.680845,-6.0926],[-35.681481,-6.093017],[-35.6821,-6.094441],[-35.681989,-6.095021],[-35.681121,-6.096825],[-35.681307,-6.098539],[-35.681536,-6.098758],[-35.681987,-6.099942],[-35.681876,-6.1008],[-35.681649,-6.101254],[-35.681083,-6.101438],[-35.681536,-6.101591],[-35.681647,-6.102954],[-35.682214,-6.104089],[-35.682989,-6.104073],[-35.684014,-6.104663],[-35.684709,-6.104311],[-35.685669,-6.106249],[-35.685389,-6.106793],[-35.686633,-6.10733],[-35.686519,-6.107838],[-35.686119,-6.108222],[-35.686455,-6.108544],[-35.686807,-6.109601],[-35.687654,-6.110312],[-35.688102,-6.111564],[-35.688517,-6.111765],[-35.688673,-6.112247],[-35.689321,-6.111808],[-35.691002,-6.11465],[-35.697866,-6.12365],[-35.697741,-6.124014],[-35.698421,-6.124596],[-35.699314,-6.126282],[-35.699694,-6.126579],[-35.702157,-6.132851],[-35.703828,-6.13382],[-35.703517,-6.13423],[-35.704538,-6.135006],[-35.705797,-6.134961],[-35.707136,-6.1358],[-35.707261,-6.136043],[-35.70692,-6.136371],[-35.707031,-6.136724],[-35.707831,-6.137976],[-35.70782,-6.13851],[-35.708486,-6.139203],[-35.709929,-6.139209],[-35.70964,-6.139771],[-35.710091,-6.140337],[-35.70993,-6.141102],[-35.710542,-6.14169],[-35.710539,-6.142306],[-35.711478,-6.142773],[-35.711715,-6.14326],[-35.712153,-6.143473],[-35.712691,-6.144798],[-35.713037,-6.146343],[-35.712139,-6.147549],[-35.712131,-6.147943],[-35.713708,-6.148345],[-35.713885,-6.149074],[-35.714926,-6.148692],[-35.715309,-6.148961],[-35.715531,-6.149643],[-35.716751,-6.149278],[-35.717344,-6.149847],[-35.717153,-6.150275],[-35.716439,-6.150507],[-35.717003,-6.151103],[-35.717006,-6.151683],[-35.716854,-6.151977],[-35.717109,-6.15302],[-35.717506,-6.153434],[-35.71807,-6.153005],[-35.719612,-6.153154],[-35.720101,-6.15378],[-35.721034,-6.153147],[-35.72217,-6.153292],[-35.723494,-6.152839],[-35.724207,-6.153581],[-35.724775,-6.153288],[-35.724948,-6.153996],[-35.725392,-6.154287],[-35.725503,-6.154856],[-35.727306,-6.157262],[-35.727819,-6.15761],[-35.728315,-6.157354],[-35.729348,-6.157333],[-35.729606,-6.158261],[-35.730984,-6.158856],[-35.731394,-6.159283],[-35.731958,-6.159271],[-35.73265,-6.159936],[-35.732497,-6.160534],[-35.732872,-6.161088],[-35.732645,-6.161528],[-35.73264,-6.163033],[-35.733512,-6.163755],[-35.734667,-6.165171],[-35.735138,-6.165162],[-35.736042,-6.166075],[-35.737177,-6.166756],[-35.737398,-6.166302],[-35.738198,-6.166413],[-35.738717,-6.167312],[-35.739998,-6.1675],[-35.741426,-6.167062],[-35.741874,-6.166304],[-35.744148,-6.166133],[-35.744941,-6.165444],[-35.746259,-6.165638],[-35.749469,-6.167447],[-35.752739,-6.170097],[-35.752885,-6.170512],[-35.752161,-6.171519],[-35.753267,-6.171519],[-35.753722,-6.171285],[-35.754224,-6.171626],[-35.754563,-6.171575],[-35.759361,-6.175511],[-35.75946,-6.175798],[-35.758828,-6.176003],[-35.758829,-6.178307],[-35.758634,-6.178495],[-35.759282,-6.178653],[-35.7595,-6.178881],[-35.761194,-6.179019],[-35.762125,-6.17965],[-35.76284,-6.178592],[-35.767012,-6.183238],[-35.775347,-6.182308],[-35.777342,-6.176439],[-35.781172,-6.174341],[-35.781723,-6.174353],[-35.782594,-6.173562],[-35.783292,-6.173548],[-35.78374,-6.173779],[-35.784202,-6.173347],[-35.78416,-6.172704],[-35.786191,-6.171591],[-35.801439,-6.166389],[-35.812432,-6.165104],[-35.819037,-6.168849],[-35.826853,-6.172817],[-35.833614,-6.169021],[-35.833886,-6.169027],[-35.834738,-6.168568],[-35.835416,-6.168906],[-35.836223,-6.168795],[-35.836803,-6.168401],[-35.837522,-6.168771],[-35.838046,-6.168501],[-35.839841,-6.168763],[-35.843927,-6.167093],[-35.844262,-6.167099],[-35.845522,-6.166182],[-35.845968,-6.16529],[-35.846087,-6.163703],[-35.847141,-6.162607],[-35.847693,-6.162245],[-35.847791,-6.161842],[-35.85522,-6.160605],[-35.85975,-6.161739],[-35.868094,-6.159337],[-35.877909,-6.156944],[-35.889396,-6.159149],[-35.892156,-6.156675],[-35.895053,-6.158024],[-35.898397,-6.154246],[-35.89912,-6.154178],[-35.89957,-6.153829],[-35.900587,-6.154759],[-35.901152,-6.154725],[-35.902346,-6.153964],[-35.902984,-6.154311],[-35.904221,-6.154015],[-35.904859,-6.15446],[-35.906153,-6.154028],[-35.906865,-6.153046],[-35.90847,-6.152858],[-35.910752,-6.149848],[-35.905138,-6.149816],[-35.911,-6.142],[-35.913,-6.138],[-35.915,-6.13],[-35.913,-6.125],[-35.913,-6.108],[-35.922,-6.099],[-35.923,-6.089],[-35.924,-6.071],[-35.92,-6.055],[-35.918,-6.042],[-35.923,-6.017],[-35.923,-6.003],[-35.916,-5.995],[-35.909,-5.988],[-35.9,-5.978],[-35.892,-5.967],[-35.892,-5.961],[-35.893,-5.946],[-35.892,-5.937],[-35.894,-5.92],[-35.9,-5.899],[-35.907,-5.883],[-35.909,-5.877],[-35.91,-5.867],[-35.903,-5.86],[-35.892,-5.841],[-35.882,-5.83],[-35.875,-5.809],[-35.88,-5.798],[-35.88,-5.781],[-35.877,-5.775],[-35.877,-5.764],[-35.881305,-5.754179],[-35.884455,-5.755952],[-35.885657,-5.757866],[-35.885102,-5.756828],[-35.885506,-5.756408],[-35.88563,-5.755315],[-35.883299,-5.752381],[-35.881906,-5.752187],[-35.881572,-5.751132],[-35.880984,-5.750403],[-35.880861,-5.74877],[-35.880304,-5.74859],[-35.876566,-5.745408],[-35.877118,-5.744878],[-35.877244,-5.743699],[-35.876905,-5.742709],[-35.875997,-5.741677],[-35.875544,-5.74077],[-35.875413,-5.740097],[-35.87464,-5.738955],[-35.874087,-5.73827],[-35.873608,-5.73828],[-35.871714,-5.736605],[-35.869144,-5.733559],[-35.867336,-5.731846],[-35.861256,-5.724101],[-35.857247,-5.723661],[-35.852868,-5.724042],[-35.849489,-5.727026],[-35.846392,-5.727555],[-35.841809,-5.729532],[-35.837696,-5.729662],[-35.835866,-5.729435],[-35.834245,-5.728778],[-35.833645,-5.728981],[-35.832361,-5.728305],[-35.83135,-5.730029],[-35.831576,-5.731505],[-35.830365,-5.731758],[-35.826652,-5.731451],[-35.821503,-5.732281],[-35.817018,-5.7335],[-35.816158,-5.732611],[-35.815907,-5.733127],[-35.814838,-5.733828],[-35.814802,-5.734086],[-35.811777,-5.734895],[-35.811314,-5.734657],[-35.810587,-5.735285],[-35.808623,-5.735928],[-35.8052,-5.734764],[-35.801784,-5.732457],[-35.79837,-5.729577],[-35.790664,-5.727817],[-35.785816,-5.726074],[-35.779781,-5.725006],[-35.779007,-5.724404],[-35.777746,-5.724565],[-35.777494,-5.724112],[-35.777031,-5.72427],[-35.774976,-5.722945],[-35.77503,-5.721603],[-35.775556,-5.721098],[-35.775728,-5.720389],[-35.774794,-5.719461],[-35.774119,-5.719475],[-35.773718,-5.718238],[-35.772621,-5.718683],[-35.771784,-5.718666],[-35.771124,-5.719255],[-35.767294,-5.716815],[-35.765245,-5.716461],[-35.764999,-5.716168],[-35.765519,-5.714639],[-35.765971,-5.714352],[-35.765962,-5.713344],[-35.765068,-5.713198],[-35.764942,-5.71255],[-35.764486,-5.711986],[-35.764372,-5.711046],[-35.764022,-5.710739],[-35.761996,-5.711533],[-35.760966,-5.7117],[-35.759942,-5.711306],[-35.7596,-5.711663],[-35.759727,-5.712791],[-35.758863,-5.713653],[-35.757505,-5.712956],[-35.757305,-5.714183],[-35.756171,-5.714017],[-35.755989,-5.713457],[-35.755309,-5.71277],[-35.755739,-5.712357],[-35.755874,-5.711526],[-35.755503,-5.711533],[-35.754512,-5.710501],[-35.752741,-5.710768],[-35.752522,-5.711219],[-35.750638,-5.7112],[-35.749886,-5.711983],[-35.749757,-5.712779],[-35.749237,-5.713597],[-35.747884,-5.712986],[-35.745446,-5.712328],[-35.74511,-5.711297],[-35.745353,-5.711064],[-35.745332,-5.710029],[-35.742544,-5.708395],[-35.74152,-5.708104],[-35.741144,-5.70836],[-35.740845,-5.708354],[-35.740691,-5.707564],[-35.740462,-5.707453],[-35.740351,-5.707102],[-35.741138,-5.705924],[-35.741255,-5.704844],[-35.741485,-5.704506],[-35.741019,-5.703476],[-35.741031,-5.702911],[-35.741368,-5.702434],[-35.740577,-5.701785],[-35.73899,-5.701557],[-35.738262,-5.702183],[-35.73712,-5.702564],[-35.736335,-5.702296],[-35.735505,-5.702992],[-35.735364,-5.703713],[-35.734685,-5.704393],[-35.732864,-5.704619],[-35.732534,-5.704962],[-35.732298,-5.704958],[-35.732171,-5.704695],[-35.73085,-5.703725],[-35.729691,-5.7036],[-35.729581,-5.702461],[-35.729803,-5.701373],[-35.729223,-5.700427],[-35.728337,-5.700654],[-35.727649,-5.700314],[-35.727495,-5.699428],[-35.727924,-5.69922],[-35.728188,-5.698676],[-35.727477,-5.697974],[-35.727318,-5.697461],[-35.727655,-5.696645],[-35.728363,-5.695712],[-35.728181,-5.69536],[-35.727419,-5.695214],[-35.726807,-5.695529],[-35.725367,-5.695012],[-35.724815,-5.694638],[-35.724339,-5.694648],[-35.724145,-5.695441],[-35.722949,-5.695548],[-35.72196,-5.694489],[-35.721211,-5.694791],[-35.720629,-5.694193],[-35.72097,-5.693728],[-35.720624,-5.693056],[-35.719943,-5.69307],[-35.719962,-5.692159],[-35.71927,-5.691248],[-35.719159,-5.690566],[-35.717961,-5.689661],[-35.717449,-5.690008],[-35.717117,-5.690679],[-35.716998,-5.691895],[-35.717347,-5.69306],[-35.717224,-5.693285]]]}},{"type":"Feature","id":3,"properties":{"trecho":"Baixo curso","fonte":"Delimitação de cursos do acervo geoespacial do Projeto Potengi"},"geometry":{"type":"Polygon","coordinates":[[[-35.203532,-5.747282],[-35.203267,-5.749129],[-35.202033,-5.751176],[-35.20089,-5.752201],[-35.195213,-5.754715],[-35.194836,-5.755614],[-35.199565,-5.759839],[-35.200271,-5.764065],[-35.199176,-5.771891],[-35.198207,-5.775204],[-35.196922,-5.778273],[-35.196922,-5.780486],[-35.20369,-5.784557],[-35.204126,-5.788654],[-35.201881,-5.793218],[-35.202072,-5.7995],[-35.203404,-5.80483],[-35.202452,-5.809494],[-35.202738,-5.814634],[-35.205022,-5.815585],[-35.206069,-5.817108],[-35.212732,-5.818631],[-35.22263,-5.815205],[-35.227008,-5.814253],[-35.236519,-5.822185],[-35.240103,-5.828011],[-35.242228,-5.835278],[-35.243639,-5.84109],[-35.247977,-5.842569],[-35.253054,-5.841878],[-35.257937,-5.848422],[-35.263157,-5.853466],[-35.275522,-5.853303],[-35.286152,-5.850543],[-35.305901,-5.862441],[-35.310185,-5.873148],[-35.315029,-5.88083],[-35.318837,-5.887968],[-35.322943,-5.903995],[-35.328722,-5.906935],[-35.33596,-5.908434],[-35.348997,-5.90997],[-35.355417,-5.914481],[-35.354878,-5.915345],[-35.355263,-5.915688],[-35.355479,-5.916388],[-35.356741,-5.916736],[-35.357425,-5.917251],[-35.357284,-5.918248],[-35.356743,-5.9188],[-35.356962,-5.919203],[-35.357003,-5.919896],[-35.356411,-5.92048],[-35.356518,-5.920844],[-35.357156,-5.920992],[-35.357659,-5.921733],[-35.357636,-5.922124],[-35.359669,-5.922492],[-35.360791,-5.923294],[-35.361278,-5.923922],[-35.360343,-5.924002],[-35.359924,-5.92447],[-35.359195,-5.92464],[-35.35901,-5.924806],[-35.359238,-5.925717],[-35.360078,-5.925848],[-35.360378,-5.926277],[-35.360769,-5.927543],[-35.361455,-5.927397],[-35.362191,-5.927977],[-35.362966,-5.92904],[-35.363062,-5.930651],[-35.361868,-5.930979],[-35.361966,-5.932174],[-35.361171,-5.933086],[-35.361964,-5.933417],[-35.362104,-5.933721],[-35.362814,-5.933467],[-35.363075,-5.933759],[-35.364223,-5.934075],[-35.364338,-5.935236],[-35.365444,-5.935885],[-35.365729,-5.936408],[-35.365691,-5.937033],[-35.366312,-5.937542],[-35.367599,-5.937113],[-35.368534,-5.93739],[-35.369765,-5.937289],[-35.370432,-5.936823],[-35.37104,-5.936932],[-35.371993,-5.938367],[-35.372877,-5.938556],[-35.373774,-5.938183],[-35.373948,-5.938612],[-35.373541,-5.939361],[-35.373504,-5.939978],[-35.3743,-5.941148],[-35.374598,-5.942743],[-35.374965,-5.943154],[-35.375675,-5.943162],[-35.376651,-5.943431],[-35.37644,-5.944022],[-35.376707,-5.944321],[-35.378063,-5.944637],[-35.378163,-5.946002],[-35.379226,-5.946631],[-35.379529,-5.946902],[-35.37968,-5.947391],[-35.381176,-5.948372],[-35.381437,-5.948942],[-35.381817,-5.947919],[-35.382171,-5.947522],[-35.383592,-5.948306],[-35.384689,-5.948],[-35.385411,-5.949088],[-35.38544,-5.949579],[-35.384905,-5.950975],[-35.38545,-5.951102],[-35.385762,-5.951548],[-35.386891,-5.954583],[-35.387002,-5.955295],[-35.387448,-5.955578],[-35.387879,-5.956263],[-35.388264,-5.957223],[-35.388476,-5.958354],[-35.388935,-5.958915],[-35.389042,-5.959601],[-35.389563,-5.960066],[-35.38931,-5.961689],[-35.388734,-5.962804],[-35.38905,-5.963565],[-35.388723,-5.963904],[-35.386609,-5.964527],[-35.386634,-5.965661],[-35.387627,-5.966552],[-35.388238,-5.965946],[-35.389618,-5.966132],[-35.390342,-5.966413],[-35.390586,-5.967186],[-35.391541,-5.967302],[-35.39199,-5.968212],[-35.392443,-5.968426],[-35.391905,-5.969193],[-35.392256,-5.969358],[-35.392095,-5.970205],[-35.391748,-5.970368],[-35.391427,-5.971902],[-35.391569,-5.97241],[-35.392221,-5.972754],[-35.392896,-5.972728],[-35.393071,-5.973281],[-35.393688,-5.973853],[-35.393662,-5.974801],[-35.394375,-5.975462],[-35.394147,-5.975894],[-35.394496,-5.976602],[-35.394472,-5.977892],[-35.395016,-5.978634],[-35.395696,-5.978365],[-35.396407,-5.97859],[-35.396745,-5.98057],[-35.39712,-5.980555],[-35.397429,-5.981438],[-35.39731,-5.981846],[-35.396855,-5.982267],[-35.397927,-5.982952],[-35.398676,-5.982922],[-35.398521,-5.983918],[-35.398001,-5.984401],[-35.398008,-5.985521],[-35.397663,-5.985985],[-35.398159,-5.986521],[-35.399258,-5.986105],[-35.401283,-5.985904],[-35.401716,-5.984781],[-35.402643,-5.984744],[-35.402926,-5.985471],[-35.404027,-5.986137],[-35.404863,-5.985962],[-35.405616,-5.986845],[-35.406133,-5.986572],[-35.406598,-5.986554],[-35.407638,-5.987473],[-35.408066,-5.986926],[-35.408825,-5.986344],[-35.409629,-5.986656],[-35.410214,-5.987247],[-35.410978,-5.986711],[-35.411616,-5.984783],[-35.412846,-5.984418],[-35.412999,-5.983292],[-35.414743,-5.983368],[-35.415351,-5.984114],[-35.415674,-5.985211],[-35.416801,-5.986531],[-35.416953,-5.987012],[-35.418512,-5.986798],[-35.418708,-5.985972],[-35.419635,-5.986009],[-35.420256,-5.985753],[-35.422478,-5.985887],[-35.422645,-5.98676],[-35.423838,-5.986118],[-35.423982,-5.985214],[-35.424186,-5.985206],[-35.425161,-5.985995],[-35.425377,-5.98668],[-35.425991,-5.986571],[-35.426125,-5.986288],[-35.426861,-5.985837],[-35.427473,-5.986351],[-35.429091,-5.986572],[-35.428645,-5.987475],[-35.429051,-5.988266],[-35.429194,-5.989015],[-35.42984,-5.989338],[-35.429731,-5.989971],[-35.429391,-5.990286],[-35.429586,-5.990533],[-35.429969,-5.990289],[-35.431204,-5.990197],[-35.431414,-5.989971],[-35.432224,-5.990306],[-35.432552,-5.990661],[-35.433268,-5.99041],[-35.434341,-5.99132],[-35.435824,-5.990949],[-35.436212,-5.991368],[-35.436832,-5.991058],[-35.43727,-5.991531],[-35.438615,-5.991707],[-35.438992,-5.991507],[-35.439137,-5.992248],[-35.438797,-5.992892],[-35.440473,-5.993013],[-35.440841,-5.993208],[-35.441748,-5.992848],[-35.442424,-5.993893],[-35.443079,-5.994123],[-35.443847,-5.993717],[-35.444664,-5.993788],[-35.447836,-5.995769],[-35.451335,-6.004509],[-35.463579,-6.008879],[-35.464608,-6.009605],[-35.464387,-6.010073],[-35.463948,-6.01048],[-35.46429,-6.010797],[-35.463962,-6.01224],[-35.463103,-6.012444],[-35.462839,-6.013279],[-35.462591,-6.013547],[-35.461911,-6.013542],[-35.461597,-6.013376],[-35.460697,-6.013726],[-35.460437,-6.014104],[-35.460301,-6.014961],[-35.459309,-6.016235],[-35.458742,-6.018302],[-35.458509,-6.01864],[-35.458683,-6.018809],[-35.460183,-6.018266],[-35.461891,-6.018975],[-35.462474,-6.018987],[-35.4634,-6.018232],[-35.464125,-6.018467],[-35.4644,-6.018754],[-35.465988,-6.018722],[-35.465756,-6.0201],[-35.466516,-6.020615],[-35.467893,-6.020153],[-35.468299,-6.020362],[-35.469628,-6.019856],[-35.470153,-6.020564],[-35.470408,-6.020569],[-35.470749,-6.020065],[-35.470742,-6.019332],[-35.470964,-6.019101],[-35.471647,-6.019087],[-35.472206,-6.020172],[-35.472351,-6.021358],[-35.473239,-6.020791],[-35.474209,-6.020786],[-35.47513,-6.02141],[-35.475401,-6.021127],[-35.476428,-6.020794],[-35.476863,-6.020341],[-35.477691,-6.020324],[-35.478351,-6.020453],[-35.479516,-6.02182],[-35.480051,-6.021814],[-35.480511,-6.021502],[-35.482915,-6.025132],[-35.486276,-6.027188],[-35.486155,-6.027876],[-35.484919,-6.028486],[-35.485167,-6.03029],[-35.486509,-6.030318],[-35.486862,-6.02995],[-35.488036,-6.029974],[-35.489309,-6.029027],[-35.492671,-6.031075],[-35.495455,-6.032334],[-35.495231,-6.032906],[-35.495397,-6.033435],[-35.496361,-6.034104],[-35.496022,-6.035638],[-35.496152,-6.036526],[-35.495684,-6.03699],[-35.495808,-6.037886],[-35.496183,-6.037189],[-35.497239,-6.036983],[-35.497433,-6.036386],[-35.497715,-6.036092],[-35.498731,-6.03643],[-35.499253,-6.035917],[-35.49965,-6.03632],[-35.500382,-6.035186],[-35.501802,-6.035866],[-35.50279,-6.035987],[-35.502935,-6.036432],[-35.503617,-6.036544],[-35.503813,-6.037148],[-35.504748,-6.037339],[-35.506223,-6.03745],[-35.506528,-6.037607],[-35.506895,-6.037225],[-35.507905,-6.036669],[-35.50849,-6.036657],[-35.509397,-6.03711],[-35.509535,-6.037677],[-35.510189,-6.03745],[-35.511186,-6.03794],[-35.512337,-6.04006],[-35.513248,-6.039873],[-35.51411,-6.040397],[-35.514808,-6.039998],[-35.515056,-6.04051],[-35.515856,-6.040399],[-35.516004,-6.040094],[-35.516527,-6.039719],[-35.51676,-6.041192],[-35.5171,-6.041518],[-35.517105,-6.041761],[-35.516536,-6.0426],[-35.517002,-6.043003],[-35.517434,-6.042665],[-35.518308,-6.043304],[-35.517957,-6.044006],[-35.518583,-6.044252],[-35.519069,-6.044759],[-35.520036,-6.045156],[-35.521498,-6.044338],[-35.52322,-6.045663],[-35.522882,-6.047289],[-35.523412,-6.047686],[-35.524126,-6.048558],[-35.525598,-6.048689],[-35.525611,-6.049347],[-35.525262,-6.049682],[-35.52628,-6.050364],[-35.526596,-6.051337],[-35.527302,-6.051616],[-35.527755,-6.052182],[-35.528146,-6.053088],[-35.528444,-6.053089],[-35.528767,-6.053425],[-35.530235,-6.054222],[-35.530659,-6.053801],[-35.53205,-6.053631],[-35.531828,-6.052516],[-35.531844,-6.051738],[-35.530928,-6.050494],[-35.530921,-6.04958],[-35.531174,-6.048787],[-35.532047,-6.048794],[-35.532852,-6.047876],[-35.533839,-6.047291],[-35.534535,-6.047649],[-35.534847,-6.046934],[-35.534284,-6.04637],[-35.534442,-6.046063],[-35.533131,-6.045682],[-35.532744,-6.045112],[-35.534218,-6.044245],[-35.535447,-6.04411],[-35.536456,-6.044317],[-35.536625,-6.043821],[-35.536028,-6.042482],[-35.536252,-6.041756],[-35.537725,-6.04085],[-35.538187,-6.040737],[-35.538965,-6.039945],[-35.541222,-6.040847],[-35.541685,-6.040625],[-35.542613,-6.040775],[-35.542828,-6.041657],[-35.543616,-6.041641],[-35.544429,-6.041901],[-35.545286,-6.04262],[-35.546823,-6.041826],[-35.547219,-6.041008],[-35.548637,-6.040835],[-35.548491,-6.039263],[-35.548926,-6.038845],[-35.54975,-6.03696],[-35.550578,-6.036676],[-35.552749,-6.037019],[-35.550608,-6.028188],[-35.551442,-6.019739],[-35.547727,-5.992567],[-35.541773,-5.97085],[-35.539929,-5.96715],[-35.537975,-5.964619],[-35.536465,-5.960199],[-35.534084,-5.955983],[-35.532645,-5.952362],[-35.532495,-5.951002],[-35.533122,-5.940046],[-35.528459,-5.935955],[-35.527491,-5.935288],[-35.522171,-5.930439],[-35.518315,-5.926376],[-35.514348,-5.91966],[-35.513265,-5.914737],[-35.513209,-5.913613],[-35.514001,-5.903577],[-35.512014,-5.898964],[-35.511733,-5.897873],[-35.511348,-5.893153],[-35.509961,-5.880702],[-35.50917,-5.866033],[-35.509295,-5.864976],[-35.511252,-5.856891],[-35.514064,-5.850831],[-35.513858,-5.842476],[-35.51294,-5.838717],[-35.512589,-5.833905],[-35.513901,-5.822017],[-35.511294,-5.814342],[-35.511097,-5.812129],[-35.509806,-5.807577],[-35.500565,-5.79126],[-35.49362,-5.782132],[-35.491315,-5.777092],[-35.489405,-5.769613],[-35.487435,-5.769916],[-35.483657,-5.769302],[-35.479493,-5.768172],[-35.477708,-5.766566],[-35.476887,-5.764443],[-35.475923,-5.762818],[-35.472601,-5.760999],[-35.468128,-5.759095],[-35.462512,-5.757858],[-35.459657,-5.757953],[-35.457182,-5.760808],[-35.452614,-5.760903],[-35.448871,-5.758514],[-35.44573,-5.757015],[-35.439733,-5.754802],[-35.436378,-5.752589],[-35.433499,-5.752958],[-35.432678,-5.756015],[-35.43134,-5.758543],[-35.429109,-5.761815],[-35.420632,-5.765087],[-35.410073,-5.765979],[-35.401378,-5.764348],[-35.395951,-5.762539],[-35.38992,-5.757564],[-35.386905,-5.754096],[-35.379668,-5.749724],[-35.376261,-5.751408],[-35.375072,-5.755584],[-35.375145,-5.759373],[-35.370321,-5.764499],[-35.361727,-5.76676],[-35.345144,-5.765856],[-35.3266,-5.760881],[-35.321191,-5.757031],[-35.319254,-5.756371],[-35.317485,-5.755254],[-35.316854,-5.753466],[-35.315873,-5.753079],[-35.315439,-5.75335],[-35.315033,-5.753305],[-35.312367,-5.754022],[-35.308429,-5.75268],[-35.307426,-5.750521],[-35.30701,-5.748558],[-35.30576,-5.747428],[-35.304866,-5.746943],[-35.304716,-5.747278],[-35.303669,-5.746813],[-35.302962,-5.746259],[-35.30255,-5.74649],[-35.301457,-5.746492],[-35.300552,-5.74624],[-35.300463,-5.745636],[-35.300669,-5.745294],[-35.300166,-5.744642],[-35.299664,-5.744568],[-35.298896,-5.744905],[-35.298731,-5.74579],[-35.298129,-5.746117],[-35.296932,-5.745903],[-35.296262,-5.74633],[-35.295877,-5.747634],[-35.29301,-5.748503],[-35.281826,-5.757605],[-35.280875,-5.761233],[-35.2812,-5.764214],[-35.280738,-5.765941],[-35.278911,-5.766798],[-35.277312,-5.767312],[-35.276055,-5.766512],[-35.274105,-5.764077],[-35.27123,-5.760007],[-35.271648,-5.75754],[-35.271508,-5.757289],[-35.269989,-5.756831],[-35.26981,-5.756177],[-35.267669,-5.75444],[-35.265437,-5.754116],[-35.263618,-5.753596],[-35.262577,-5.753583],[-35.261665,-5.753911],[-35.261547,-5.754304],[-35.258981,-5.756212],[-35.258124,-5.755052],[-35.255266,-5.753117],[-35.251438,-5.753092],[-35.250475,-5.754045],[-35.246106,-5.754788],[-35.244678,-5.756358],[-35.242465,-5.7575],[-35.237682,-5.757286],[-35.231115,-5.755288],[-35.230687,-5.754788],[-35.231476,-5.752066],[-35.233268,-5.751057],[-35.236255,-5.746793],[-35.236112,-5.744437],[-35.234185,-5.743438],[-35.232186,-5.743866],[-35.23033,-5.743081],[-35.229901,-5.741511],[-35.231044,-5.740654],[-35.231186,-5.739797],[-35.230473,-5.737941],[-35.228117,-5.735372],[-35.221335,-5.735728],[-35.220051,-5.736014],[-35.207564,-5.739961],[-35.203632,-5.743243],[-35.203532,-5.747282]]]}}]}