{"type":"FeatureCollection","features":[{"type":"Feature","id":1,"properties":{"zona":"ZTBJ-I","area_origem":205.232,"area_atuacao":"Escola Agrícola de Jundiaí — Macaíba","fonte":"Acervo geoespacial do Projeto Potengi"},"geometry":{"type":"Polygon","coordinates":[[[-35.340002,-5.898523],[-35.335742,-5.903629],[-35.339677,-5.905131],[-35.343673,-5.906687],[-35.346322,-5.907674],[-35.347234,-5.907216],[-35.348068,-5.906758],[-35.348932,-5.90633],[-35.349927,-5.906003],[-35.351305,-5.905638],[-35.353237,-5.905044],[-35.354152,-5.904834],[-35.354113,-5.903246],[-35.355216,-5.902017],[-35.353762,-5.901507],[-35.353408,-5.901432],[-35.353217,-5.901318],[-35.353244,-5.901117],[-35.35332,-5.900868],[-35.353719,-5.900493],[-35.355433,-5.898974],[-35.355737,-5.898667],[-35.356358,-5.898578],[-35.356797,-5.898576],[-35.357142,-5.898756],[-35.357323,-5.898727],[-35.357771,-5.898467],[-35.358162,-5.898264],[-35.358332,-5.897938],[-35.358313,-5.897804],[-35.3575,-5.897664],[-35.357118,-5.89758],[-35.356898,-5.897667],[-35.356766,-5.898012],[-35.356614,-5.898166],[-35.356337,-5.898205],[-35.35605,-5.898187],[-35.355686,-5.897911],[-35.355149,-5.897387],[-35.354689,-5.897055],[-35.354192,-5.896961],[-35.353055,-5.896947],[-35.352062,-5.897046],[-35.35106,-5.897309],[-35.350125,-5.897676],[-35.348397,-5.897894],[-35.347443,-5.898147],[-35.347385,-5.897985],[-35.347455,-5.892025],[-35.347452,-5.891269],[-35.347394,-5.891049],[-35.347182,-5.890658],[-35.347001,-5.890431],[-35.345944,-5.891598],[-35.343377,-5.894617],[-35.340002,-5.898523]]]}},{"type":"Feature","id":2,"properties":{"zona":"ZCL-II","area_origem":77.51246,"area_atuacao":"Escola Agrícola de Jundiaí — Macaíba","fonte":"Acervo geoespacial do Projeto Potengi"},"geometry":{"type":"Polygon","coordinates":[[[-35.360052,-5.89066],[-35.360231,-5.890689],[-35.360434,-5.89067],[-35.360542,-5.890622],[-35.360607,-5.890514],[-35.360636,-5.890412],[-35.360953,-5.890405],[-35.36095,-5.891152],[-35.360849,-5.891314],[-35.36082,-5.891529],[-35.360897,-5.892856],[-35.361715,-5.89415],[-35.361454,-5.894516],[-35.361299,-5.894678],[-35.36124,-5.894786],[-35.361265,-5.895031],[-35.36159,-5.895759],[-35.361597,-5.895843],[-35.361092,-5.896485],[-35.360812,-5.896611],[-35.360192,-5.896841],[-35.359452,-5.89709],[-35.359268,-5.89727],[-35.358996,-5.897785],[-35.358883,-5.897887],[-35.358313,-5.897804],[-35.358332,-5.897938],[-35.358162,-5.898264],[-35.357771,-5.898467],[-35.357323,-5.898727],[-35.357142,-5.898756],[-35.356797,-5.898576],[-35.356358,-5.898578],[-35.355737,-5.898667],[-35.355433,-5.898974],[-35.353719,-5.900493],[-35.35332,-5.900868],[-35.353244,-5.901117],[-35.353217,-5.901318],[-35.353408,-5.901432],[-35.353762,-5.901507],[-35.355216,-5.902017],[-35.35579,-5.902287],[-35.356711,-5.902659],[-35.356873,-5.902665],[-35.35779,-5.902045],[-35.358981,-5.901287],[-35.359183,-5.9011],[-35.359669,-5.900303],[-35.359788,-5.900207],[-35.360486,-5.900085],[-35.361196,-5.899914],[-35.361541,-5.899745],[-35.361786,-5.899601],[-35.36212,-5.899534],[-35.36286,-5.899518],[-35.362895,-5.899429],[-35.362963,-5.89834],[-35.363045,-5.898059],[-35.363295,-5.897938],[-35.363814,-5.897846],[-35.365342,-5.897619],[-35.365934,-5.895155],[-35.366527,-5.892797],[-35.366603,-5.892258],[-35.366273,-5.891943],[-35.364113,-5.890834],[-35.361749,-5.889523],[-35.361356,-5.889692],[-35.360599,-5.88997],[-35.360378,-5.890067],[-35.360235,-5.890193],[-35.360052,-5.89066]]]}},{"type":"Feature","id":3,"properties":{"zona":"ZET","area_origem":93.02732,"area_atuacao":"Escola Agrícola de Jundiaí — Macaíba","fonte":"Acervo geoespacial do Projeto Potengi"},"geometry":{"type":"Polygon","coordinates":[[[-35.36286,-5.899518],[-35.36212,-5.899534],[-35.361786,-5.899601],[-35.361541,-5.899745],[-35.361196,-5.899914],[-35.360486,-5.900085],[-35.359788,-5.900207],[-35.359669,-5.900303],[-35.359183,-5.9011],[-35.358981,-5.901287],[-35.35779,-5.902045],[-35.356873,-5.902665],[-35.356711,-5.902659],[-35.356418,-5.902547],[-35.35579,-5.902287],[-35.355216,-5.902017],[-35.354113,-5.903246],[-35.354152,-5.904834],[-35.354567,-5.904739],[-35.355796,-5.904411],[-35.35746,-5.90392],[-35.358491,-5.903581],[-35.36037,-5.903106],[-35.364282,-5.901954],[-35.369256,-5.900587],[-35.371093,-5.900101],[-35.377201,-5.898383],[-35.376842,-5.898035],[-35.375922,-5.897436],[-35.374074,-5.896315],[-35.369564,-5.893857],[-35.369306,-5.893772],[-35.369239,-5.893782],[-35.369236,-5.895322],[-35.368802,-5.89673],[-35.367685,-5.896754],[-35.365342,-5.897619],[-35.363814,-5.897846],[-35.363295,-5.897938],[-35.363045,-5.898059],[-35.362963,-5.89834],[-35.362895,-5.899429],[-35.36286,-5.899518]]]}},{"type":"Feature","id":4,"properties":{"zona":"ZPA-II","area_origem":173.09674,"area_atuacao":"Escola Agrícola de Jundiaí — Macaíba","fonte":"Acervo geoespacial do Projeto Potengi"},"geometry":{"type":"Polygon","coordinates":[[[-35.350216,-5.886672],[-35.347001,-5.890431],[-35.347182,-5.890658],[-35.347394,-5.891049],[-35.347452,-5.891269],[-35.347455,-5.892025],[-35.347385,-5.897985],[-35.347443,-5.898147],[-35.348397,-5.897894],[-35.350125,-5.897676],[-35.35106,-5.897309],[-35.352062,-5.897046],[-35.353055,-5.896947],[-35.354192,-5.896961],[-35.354689,-5.897055],[-35.355149,-5.897387],[-35.355686,-5.897911],[-35.35605,-5.898187],[-35.356337,-5.898205],[-35.356614,-5.898166],[-35.356766,-5.898012],[-35.356898,-5.897667],[-35.357118,-5.89758],[-35.3575,-5.897664],[-35.358883,-5.897887],[-35.358996,-5.897785],[-35.359268,-5.89727],[-35.359452,-5.89709],[-35.360192,-5.896841],[-35.360812,-5.896611],[-35.361092,-5.896485],[-35.361597,-5.895843],[-35.36159,-5.895759],[-35.361265,-5.895031],[-35.36124,-5.894786],[-35.361299,-5.894678],[-35.361454,-5.894516],[-35.361715,-5.89415],[-35.360897,-5.892856],[-35.36082,-5.891529],[-35.360849,-5.891314],[-35.36095,-5.891152],[-35.360953,-5.890405],[-35.360636,-5.890412],[-35.360607,-5.890514],[-35.360542,-5.890622],[-35.360434,-5.89067],[-35.360231,-5.890689],[-35.360052,-5.89066],[-35.360235,-5.890193],[-35.360378,-5.890067],[-35.360599,-5.88997],[-35.361356,-5.889692],[-35.361749,-5.889523],[-35.360233,-5.888653],[-35.359941,-5.888956],[-35.354755,-5.886051],[-35.353664,-5.885409],[-35.352281,-5.885365],[-35.351664,-5.885],[-35.350216,-5.886672]]]}},{"type":"Feature","id":5,"properties":{"zona":"ZEXP-IA","area_origem":31.79361,"area_atuacao":"Escola Agrícola de Jundiaí — Macaíba","fonte":"Acervo geoespacial do Projeto Potengi"},"geometry":{"type":"Polygon","coordinates":[[[-35.357857,-5.877749],[-35.355788,-5.879868],[-35.354997,-5.880595],[-35.353438,-5.881977],[-35.353153,-5.882253],[-35.352981,-5.882463],[-35.352312,-5.883931],[-35.352093,-5.884314],[-35.351987,-5.884578],[-35.351664,-5.885],[-35.352281,-5.885365],[-35.353664,-5.885409],[-35.356118,-5.882448],[-35.35986,-5.87799],[-35.360796,-5.878859],[-35.362269,-5.877155],[-35.362316,-5.877065],[-35.361282,-5.87674],[-35.360893,-5.876586],[-35.360648,-5.87642],[-35.360156,-5.875908],[-35.359864,-5.875578],[-35.359575,-5.875906],[-35.357857,-5.877749]]]}},{"type":"Feature","id":6,"properties":{"zona":"ZTBJ-II","area_origem":33.9571,"area_atuacao":"Escola Agrícola de Jundiaí — Macaíba","fonte":"Acervo geoespacial do Projeto Potengi"},"geometry":{"type":"Polygon","coordinates":[[[-35.356087,-5.886798],[-35.356192,-5.886695],[-35.359942,-5.882281],[-35.362065,-5.881203],[-35.362437,-5.880972],[-35.361053,-5.879033],[-35.360796,-5.878859],[-35.35986,-5.87799],[-35.356118,-5.882448],[-35.353664,-5.885409],[-35.354755,-5.886051],[-35.356087,-5.886798]]]}},{"type":"Feature","id":7,"properties":{"zona":"ZEMC","area_origem":11.2779,"area_atuacao":"Escola Agrícola de Jundiaí — Macaíba","fonte":"Acervo geoespacial do Projeto Potengi"},"geometry":{"type":"Polygon","coordinates":[[[-35.359941,-5.888956],[-35.360233,-5.888653],[-35.36046,-5.888209],[-35.360783,-5.887806],[-35.360869,-5.887652],[-35.360939,-5.887346],[-35.361153,-5.887034],[-35.361376,-5.886818],[-35.361474,-5.886358],[-35.361854,-5.885797],[-35.362077,-5.885433],[-35.362324,-5.885135],[-35.362562,-5.884957],[-35.362853,-5.88486],[-35.363207,-5.884835],[-35.363331,-5.88481],[-35.363435,-5.884705],[-35.363539,-5.88435],[-35.36351,-5.884207],[-35.363366,-5.884102],[-35.363279,-5.883744],[-35.363301,-5.883347],[-35.363418,-5.882839],[-35.363517,-5.882547],[-35.363526,-5.882404],[-35.363081,-5.881866],[-35.362523,-5.882597],[-35.362239,-5.883137],[-35.361758,-5.883773],[-35.361128,-5.884397],[-35.36054,-5.885117],[-35.36038,-5.885548],[-35.360334,-5.885871],[-35.359663,-5.888098],[-35.359237,-5.88856],[-35.359941,-5.888956]]]}},{"type":"Feature","id":8,"properties":{"zona":"ZEXP-IB","area_origem":24.64384,"area_atuacao":"Escola Agrícola de Jundiaí — Macaíba","fonte":"Acervo geoespacial do Projeto Potengi"},"geometry":{"type":"Polygon","coordinates":[[[-35.359237,-5.88856],[-35.359663,-5.888098],[-35.360334,-5.885871],[-35.36038,-5.885548],[-35.36054,-5.885117],[-35.361128,-5.884397],[-35.361758,-5.883773],[-35.362239,-5.883137],[-35.362523,-5.882597],[-35.363081,-5.881866],[-35.362437,-5.880972],[-35.362065,-5.881203],[-35.359942,-5.882281],[-35.356192,-5.886695],[-35.356087,-5.886798],[-35.359237,-5.88856]]]}},{"type":"Feature","id":9,"properties":{"zona":"ZCL-I","area_origem":25.65828,"area_atuacao":"Escola Agrícola de Jundiaí — Macaíba","fonte":"Acervo geoespacial do Projeto Potengi"},"geometry":{"type":"Polygon","coordinates":[[[-35.366322,-5.886295],[-35.365278,-5.88563],[-35.365144,-5.885582],[-35.364892,-5.885789],[-35.364648,-5.885781],[-35.364544,-5.885877],[-35.364482,-5.886063],[-35.364493,-5.886221],[-35.364608,-5.886292],[-35.364637,-5.88645],[-35.364561,-5.886565],[-35.364442,-5.886599],[-35.364336,-5.886561],[-35.364164,-5.886543],[-35.364031,-5.886563],[-35.363826,-5.886803],[-35.363626,-5.886775],[-35.363511,-5.886656],[-35.363457,-5.886532],[-35.36317,-5.886418],[-35.362378,-5.886474],[-35.362321,-5.886565],[-35.362293,-5.886675],[-35.362212,-5.886743],[-35.362059,-5.886739],[-35.361915,-5.886682],[-35.361853,-5.886591],[-35.361642,-5.886549],[-35.361422,-5.886602],[-35.361376,-5.886818],[-35.361153,-5.887034],[-35.360939,-5.887346],[-35.360869,-5.887652],[-35.360783,-5.887806],[-35.36046,-5.888209],[-35.360233,-5.888653],[-35.361749,-5.889523],[-35.364412,-5.890989],[-35.365795,-5.889248],[-35.366089,-5.888663],[-35.366449,-5.888059],[-35.366543,-5.8877],[-35.366608,-5.887274],[-35.367034,-5.88634],[-35.367162,-5.885961],[-35.367194,-5.885688],[-35.367121,-5.885349],[-35.367039,-5.885244],[-35.366876,-5.885173],[-35.366322,-5.886295]]]}},{"type":"Feature","id":10,"properties":{"zona":"ZAD","area_origem":11.19903,"area_atuacao":"Escola Agrícola de Jundiaí — Macaíba","fonte":"Acervo geoespacial do Projeto Potengi"},"geometry":{"type":"Polygon","coordinates":[[[-35.361854,-5.885797],[-35.361474,-5.886358],[-35.361422,-5.886602],[-35.361642,-5.886549],[-35.361853,-5.886591],[-35.361915,-5.886682],[-35.362059,-5.886739],[-35.362212,-5.886743],[-35.362293,-5.886675],[-35.362321,-5.886565],[-35.362378,-5.886474],[-35.36317,-5.886418],[-35.363457,-5.886532],[-35.363511,-5.886656],[-35.363626,-5.886775],[-35.363826,-5.886803],[-35.364031,-5.886563],[-35.364164,-5.886543],[-35.364336,-5.886561],[-35.364442,-5.886599],[-35.364561,-5.886565],[-35.364637,-5.88645],[-35.364608,-5.886292],[-35.364493,-5.886221],[-35.364482,-5.886063],[-35.364544,-5.885877],[-35.364648,-5.885781],[-35.364892,-5.885789],[-35.365144,-5.885582],[-35.365278,-5.88563],[-35.366322,-5.886295],[-35.366876,-5.885173],[-35.366252,-5.884655],[-35.365432,-5.884126],[-35.36524,-5.883972],[-35.364481,-5.883542],[-35.364157,-5.883782],[-35.363804,-5.88388],[-35.363623,-5.884005],[-35.36351,-5.884207],[-35.363539,-5.88435],[-35.363435,-5.884705],[-35.363331,-5.88481],[-35.363207,-5.884835],[-35.362853,-5.88486],[-35.362562,-5.884957],[-35.362324,-5.885135],[-35.362077,-5.885433],[-35.361854,-5.885797]]]}},{"type":"Feature","id":11,"properties":{"zona":"ZVA-I","area_origem":1.38107,"area_atuacao":"Escola Agrícola de Jundiaí — Macaíba","fonte":"Acervo geoespacial do Projeto Potengi"},"geometry":{"type":"Polygon","coordinates":[[[-35.36351,-5.884207],[-35.363623,-5.884005],[-35.363804,-5.88388],[-35.364157,-5.883782],[-35.364481,-5.883542],[-35.364339,-5.883277],[-35.363812,-5.882729],[-35.363526,-5.882404],[-35.363517,-5.882547],[-35.363418,-5.882839],[-35.363301,-5.883347],[-35.363279,-5.883744],[-35.363366,-5.884102],[-35.36351,-5.884207]]]}},{"type":"Feature","id":12,"properties":{"zona":"ZVA-II","area_origem":21.52315,"area_atuacao":"Escola Agrícola de Jundiaí — Macaíba","fonte":"Acervo geoespacial do Projeto Potengi"},"geometry":{"type":"Polygon","coordinates":[[[-35.36445,-5.880526],[-35.364012,-5.880158],[-35.363079,-5.880865],[-35.36259,-5.881184],[-35.363081,-5.881866],[-35.363526,-5.882404],[-35.363812,-5.882729],[-35.364339,-5.883277],[-35.364481,-5.883542],[-35.36524,-5.883972],[-35.365432,-5.884126],[-35.366252,-5.884655],[-35.366876,-5.885173],[-35.367039,-5.885244],[-35.367121,-5.885349],[-35.368413,-5.884014],[-35.369247,-5.883096],[-35.366753,-5.881266],[-35.365447,-5.87989],[-35.36445,-5.880526]]]}},{"type":"Feature","id":13,"properties":{"zona":"ZTJ-II","area_origem":7.15128,"area_atuacao":"Escola Agrícola de Jundiaí — Macaíba","fonte":"Acervo geoespacial do Projeto Potengi"},"geometry":{"type":"Polygon","coordinates":[[[-35.36259,-5.881184],[-35.363079,-5.880865],[-35.363247,-5.880738],[-35.363167,-5.880568],[-35.363051,-5.880199],[-35.362903,-5.879898],[-35.36288,-5.879529],[-35.36296,-5.879076],[-35.363134,-5.878684],[-35.363333,-5.878379],[-35.363408,-5.87817],[-35.363428,-5.877876],[-35.363337,-5.877572],[-35.363171,-5.877332],[-35.362902,-5.877204],[-35.362316,-5.877065],[-35.362269,-5.877155],[-35.360796,-5.878859],[-35.361053,-5.879033],[-35.36259,-5.881184]]]}},{"type":"Feature","id":14,"properties":{"zona":"ZPAX-US","area_origem":7.84355,"area_atuacao":"Escola Agrícola de Jundiaí — Macaíba","fonte":"Acervo geoespacial do Projeto Potengi"},"geometry":{"type":"Polygon","coordinates":[[[-35.389208,-5.896672],[-35.389679,-5.89634],[-35.389635,-5.891273],[-35.387749,-5.891292],[-35.387788,-5.891373],[-35.38782,-5.891684],[-35.387935,-5.89215],[-35.388111,-5.892735],[-35.388614,-5.894617],[-35.388992,-5.895813],[-35.389208,-5.896672]]]}},{"type":"Feature","id":15,"properties":{"zona":"ZISD","area_origem":27.82499,"area_atuacao":"Escola Agrícola de Jundiaí — Macaíba","fonte":"Acervo geoespacial do Projeto Potengi"},"geometry":{"type":"Polygon","coordinates":[[[-35.387749,-5.891292],[-35.389757,-5.891272],[-35.393412,-5.891263],[-35.391346,-5.887711],[-35.39122,-5.887591],[-35.387673,-5.885775],[-35.387218,-5.887842],[-35.386851,-5.889871],[-35.387644,-5.891075],[-35.387749,-5.891292]]]}},{"type":"Feature","id":16,"properties":{"zona":"ZPAX","area_origem":44.2174,"area_atuacao":"Escola Agrícola de Jundiaí — Macaíba","fonte":"Acervo geoespacial do Projeto Potengi"},"geometry":{"type":"Polygon","coordinates":[[[-35.389581,-5.898265],[-35.39244,-5.897792],[-35.39327,-5.897681],[-35.394087,-5.897528],[-35.395662,-5.897156],[-35.396145,-5.897058],[-35.396419,-5.896974],[-35.396502,-5.896889],[-35.396537,-5.896716],[-35.396483,-5.896501],[-35.395581,-5.895004],[-35.394173,-5.892547],[-35.393412,-5.891263],[-35.389635,-5.891273],[-35.389679,-5.89634],[-35.389208,-5.896672],[-35.389349,-5.897232],[-35.38956,-5.897934],[-35.389581,-5.898265]]]}},{"type":"Feature","id":17,"properties":{"zona":"ZPA-I","area_origem":366.73426,"area_atuacao":"Escola Agrícola de Jundiaí — Macaíba","fonte":"Acervo geoespacial do Projeto Potengi"},"geometry":{"type":"Polygon","coordinates":[[[-35.363051,-5.880199],[-35.363167,-5.880568],[-35.363247,-5.880738],[-35.364012,-5.880158],[-35.36445,-5.880526],[-35.365447,-5.87989],[-35.366753,-5.881266],[-35.369247,-5.883096],[-35.368413,-5.884014],[-35.367121,-5.885349],[-35.367194,-5.885688],[-35.367162,-5.885961],[-35.367034,-5.88634],[-35.366608,-5.887274],[-35.366579,-5.887466],[-35.366934,-5.88771],[-35.36781,-5.888176],[-35.368661,-5.88772],[-35.368807,-5.887591],[-35.369507,-5.886156],[-35.369649,-5.885908],[-35.369731,-5.885883],[-35.369864,-5.885904],[-35.370393,-5.886551],[-35.371192,-5.887301],[-35.371573,-5.888454],[-35.371821,-5.8886],[-35.372249,-5.889014],[-35.372653,-5.889856],[-35.373506,-5.890788],[-35.374711,-5.89182],[-35.375375,-5.89224],[-35.375932,-5.892629],[-35.376436,-5.893097],[-35.376735,-5.893461],[-35.37792,-5.895042],[-35.378491,-5.895395],[-35.378585,-5.895617],[-35.37889,-5.896562],[-35.379271,-5.89764],[-35.379406,-5.898221],[-35.380704,-5.898308],[-35.383063,-5.898496],[-35.384485,-5.898579],[-35.385709,-5.898622],[-35.387255,-5.898609],[-35.387882,-5.898553],[-35.389581,-5.898265],[-35.38956,-5.897934],[-35.389349,-5.897232],[-35.388992,-5.895813],[-35.388614,-5.894617],[-35.388111,-5.892735],[-35.387935,-5.89215],[-35.38782,-5.891684],[-35.387788,-5.891373],[-35.387644,-5.891075],[-35.386851,-5.889871],[-35.387218,-5.887842],[-35.387673,-5.885775],[-35.385099,-5.884503],[-35.380002,-5.882079],[-35.373959,-5.879134],[-35.371405,-5.877931],[-35.362706,-5.873693],[-35.362221,-5.873432],[-35.361934,-5.873325],[-35.36185,-5.87332],[-35.361725,-5.87341],[-35.360579,-5.874766],[-35.359864,-5.875578],[-35.360156,-5.875908],[-35.360648,-5.87642],[-35.360893,-5.876586],[-35.361282,-5.87674],[-35.361928,-5.876953],[-35.362316,-5.877065],[-35.362902,-5.877204],[-35.363171,-5.877332],[-35.363337,-5.877572],[-35.363428,-5.877876],[-35.363408,-5.87817],[-35.363333,-5.878379],[-35.363134,-5.878684],[-35.36296,-5.879076],[-35.36288,-5.879529],[-35.362903,-5.879898],[-35.363051,-5.880199]]]}},{"type":"Feature","id":18,"properties":{"zona":"ZTJ-I","area_origem":71.49041,"area_atuacao":"Escola Agrícola de Jundiaí — Macaíba","fonte":"Acervo geoespacial do Projeto Potengi"},"geometry":{"type":"Polygon","coordinates":[[[-35.377201,-5.898383],[-35.377587,-5.898268],[-35.37807,-5.898152],[-35.378608,-5.898126],[-35.37902,-5.89819],[-35.379406,-5.898221],[-35.379271,-5.89764],[-35.37889,-5.896562],[-35.378585,-5.895617],[-35.378491,-5.895395],[-35.37792,-5.895042],[-35.376735,-5.893461],[-35.376436,-5.893097],[-35.375932,-5.892629],[-35.375375,-5.89224],[-35.374711,-5.89182],[-35.373506,-5.890788],[-35.372653,-5.889856],[-35.372249,-5.889014],[-35.371821,-5.8886],[-35.371573,-5.888454],[-35.371192,-5.887301],[-35.370393,-5.886551],[-35.369864,-5.885904],[-35.369731,-5.885883],[-35.369649,-5.885908],[-35.369507,-5.886156],[-35.368807,-5.887591],[-35.368661,-5.88772],[-35.36781,-5.888176],[-35.367864,-5.888543],[-35.367801,-5.890612],[-35.36887,-5.891917],[-35.369004,-5.892532],[-35.369114,-5.893208],[-35.369223,-5.893649],[-35.369306,-5.893772],[-35.369564,-5.893857],[-35.374074,-5.896315],[-35.375922,-5.897436],[-35.376842,-5.898035],[-35.377201,-5.898383]]]}},{"type":"Feature","id":19,"properties":{"zona":"ZEXP-II","area_origem":31.13454,"area_atuacao":"Escola Agrícola de Jundiaí — Macaíba","fonte":"Acervo geoespacial do Projeto Potengi"},"geometry":{"type":"Polygon","coordinates":[[[-35.365342,-5.897619],[-35.367685,-5.896754],[-35.368802,-5.89673],[-35.369236,-5.895322],[-35.369239,-5.893782],[-35.369306,-5.893772],[-35.369223,-5.893649],[-35.369114,-5.893208],[-35.369004,-5.892532],[-35.36887,-5.891917],[-35.367801,-5.890612],[-35.367864,-5.888543],[-35.36781,-5.888176],[-35.366934,-5.88771],[-35.366579,-5.887466],[-35.366543,-5.8877],[-35.366449,-5.888059],[-35.366089,-5.888663],[-35.365795,-5.889248],[-35.364412,-5.890989],[-35.366273,-5.891943],[-35.366603,-5.892258],[-35.366527,-5.892797],[-35.365934,-5.895155],[-35.365342,-5.897619]]]}}]}